{"type":"Feature","properties":{"GID_2":"YEM.12.4_1","GID_0":"YEM","country":"Yemen","GID_1":"YEM.12_1","province":"Hadramawt","NL_NAME_1":"حضرموت","county":"AlMukalla","VARNAME_2":"NA","NL_NAME_2":"المكلا","TYPE_2":"Muderiah","ENGTYPE_2":"District","CC_2":"1930","HASC_2":"NA","name":"Al_Mukalla.county"},
"geometry":{"type": "MultiPolygon","coordinates": [[[[49.3092,14.6678,39.6154],[49.3048,14.6673,25.3782],[49.3018,14.6753,34.6884],[49.2315,14.7207,359.8767],[49.1803,14.7332,559.5886],[49.1498,14.7538,295.395],[49.0435,14.7557,956.4645],[48.9893,14.79,835.6541],[48.8355,14.8226,1227.2937],[48.8049,14.8398,2005.5361],[48.7475,14.8501,1940.4115],[48.7295,14.8632,1897.5366],[48.7154,14.8961,1686.9796],[48.697,14.9312,1677.4631],[48.6652,14.9451,1610.7552],[48.6641,14.9442,1605.9462],[48.6345,14.9629,1568.2783],[48.5815,14.9711,1521.6963],[48.583,14.9044,1510.1913],[48.5733,14.8268,1748.7913],[48.5306,14.7475,1537.5824],[48.6293,14.6519,1517.8137],[48.6424,14.635,1440.7323],[48.6813,14.6508,1392.7178],[48.7272,14.6544,1529.2471],[48.7728,14.6167,1453.2244],[48.8169,14.5644,539.329],[48.8327,14.535,462.9576],[48.8539,14.5138,318.0613],[48.8686,14.5115,352.121],[48.8745,14.5144,356.0184],[48.878,14.5132,438.8432],[48.9215,14.5385,196.8618],[48.9498,14.5244,280.1103],[48.9704,14.5079,105.955],[48.9733,14.4974,110.8882],[48.9957,14.4872,41.1721],[49.0221,14.5458,61.0171],[49.095,14.5895,469.6333],[49.1561,14.6016,149.5128],[49.1887,14.6032,31.3217],[49.2164,14.6389,29.4162],[49.2279,14.6496,25.2414],[49.3092,14.6678,39.6154]]]]}}