{"type":"Feature","properties":{"GID_2":"YEM.16.6_1","GID_0":"YEM","country":"Yemen","GID_1":"YEM.16_1","province":"Ma'rib","NL_NAME_1":"مأرب","county":"JabalMurad","VARNAME_2":"NA","NL_NAME_2":"جبلمراد","TYPE_2":"Muderiah","ENGTYPE_2":"District","CC_2":"2614","HASC_2":"NA","name":"Jabal_Murad.county"},
"geometry":{"type": "MultiPolygon","coordinates": [[[[45.1235,15.1074,1738.5211],[45.1235,15.0726,2074.1938],[45.1381,15.0726,1708.6995],[45.1381,15.0358,2039.9609],[45.1246,15.0221,1847.1727],[45.1534,15.0221,2040.0757],[45.1534,14.9874,1686.5942],[45.2539,14.9873,1754.8369],[45.2405,15.0228,1811.897],[45.2162,15.0982,1884.9229],[45.2074,15.1073,2217.0981],[45.1235,15.1074,1738.5211]]]]}}