{"type":"Feature","properties":{"GID_2":"YEM.20.10_1","GID_0":"YEM","country":"Yemen","GID_1":"YEM.20_1","province":"Shabwah","NL_NAME_1":"شبوة","county":"Hatib","VARNAME_2":"NA","NL_NAME_2":"حطيب","TYPE_2":"Muderiah","ENGTYPE_2":"District","CC_2":"2111","HASC_2":"NA","name":"Hatib.county"},
"geometry":{"type": "MultiPolygon","coordinates": [[[[46.6031,14.1849,1704.1482],[46.556399999999996,14.2514,1550.9667],[46.5279,14.2828,1337.9587],[46.5128,14.2961,1470.9346],[46.4993,14.3044,1406.998],[46.4504,14.3064,1405.1895],[46.4115,14.2967,1623.1152],[46.381,14.2969,1356.1079],[46.3185,14.289,1813.9927],[46.2951,14.2799,1879.9866],[46.3051,14.2552,1942.2112],[46.3411,14.201,2090.2351],[46.3368,14.1707,1818.8588],[46.3078,14.1177,2258.7507],[46.2905,14.0825,1665.8357],[46.2872,14.0803,1496.7234],[46.2847,14.0731,1212.4207],[46.2908,14.0595,1066.0724],[46.3046,14.054,1193.0791],[46.3185,14.0638,1270.9368],[46.3379,14.07,1057.3199],[46.3738,14.0743,1121.5836],[46.432,14.0875,1575.9058],[46.4495,14.0856,1724.5587],[46.4614,14.0765,1541.2977],[46.4737,14.0748,1371.3236],[46.4854,14.0772,1182.1995],[46.4967,14.0887,1379.8076],[46.5215,14.103,1946.7998],[46.5529,14.1164,1642.4749],[46.5678,14.1316,1311.6182],[46.6031,14.1849,1704.1482]]]]}}