{"type":"Feature","properties":{"GID_2":"YEM.15.7_1","GID_0":"YEM","country":"Yemen","GID_1":"YEM.15_1","province":"Lahij","NL_NAME_1":"لحج","county":"AlMusaymir","VARNAME_2":"NA","NL_NAME_2":"المسيمير","TYPE_2":"Muderiah","ENGTYPE_2":"District","CC_2":"2509","HASC_2":"NA","name":"Al_Musaymir.county"},
"geometry":{"type": "MultiPolygon","coordinates": [[[[44.5148,13.5895,947.092],[44.5113,13.5806,964.6174],[44.5057,13.5733,1174.699],[44.4795,13.5466,1261.7435],[44.4659,13.5295,950.8732],[44.4512,13.526,1005.3448],[44.4261,13.5256,952.4357],[44.4231,13.5203,946.3403],[44.4247,13.5035,901.2609],[44.4235,13.5006,922.3599],[44.4186,13.4973,921.2568],[44.4356,13.4807,974.3763],[44.4453,13.4783,836.4427],[44.4719,13.4808,783.7156],[44.5083,13.4808,767.9856],[44.5204,13.469,701.3155],[44.5325,13.4524,771.3762],[44.598,13.4122,663.5791],[44.6174,13.4052,564.4683],[44.6417,13.3601,565.8404],[44.6539,13.3151,538.21],[44.666,13.289,419.4879],[44.6927,13.2748,383.4506],[44.7122,13.2688,379.6288],[44.7148,13.2818,414.1331],[44.7292,13.3015,426.4489],[44.7643,13.3211,411.7447],[44.7492,13.345,480.7909],[44.7406,13.3816,603.0757],[44.7319,13.3928,583.4849],[44.7219,13.4139,595.1403],[44.7204,13.4336,650.9951],[44.7031,13.4814,866.9857],[44.6844,13.5038,1010.082],[44.6729,13.5305,1107.897],[44.6579,13.5585,1242.6011],[44.6487,13.5557,1011.9298],[44.6404,13.5559,1031.8999],[44.6223,13.5624,985.2096],[44.6006,13.5791,1046.3701],[44.5903,13.579,1121.2081],[44.5882,13.57,895.8646],[44.595,13.5609,925.3501],[44.5944,13.5568,989.0813],[44.587,13.5508,857.692],[44.577,13.5501,831.1207],[44.5749,13.5595,916.7916],[44.5632,13.5673,830.6039],[44.5537,13.5698,781.7886],[44.5515,13.5711,796.3665],[44.5502,13.5749,816.662],[44.5408,13.5768,872.302],[44.533,13.582,911.719],[44.5148,13.5895,947.092]]]]}}