{"type":"Feature","properties":{"GID_2":"YEM.14.9_1","GID_0":"YEM","country":"Yemen","GID_1":"YEM.14_1","province":"Ibb","NL_NAME_1":"إب","county":"AsSaddah","VARNAME_2":"NA","NL_NAME_2":"السدة","TYPE_2":"Muderiah","ENGTYPE_2":"District","CC_2":"1106","HASC_2":"NA","name":"As_Saddah.county"},
"geometry":{"type": "MultiPolygon","coordinates": [[[[44.272,14.0917,3067.9966],[44.28,14.0964,2804.3093],[44.2836,14.0947,2803.7217],[44.2872,14.0897,2767.1917],[44.2922,14.0903,2791.0957],[44.297,14.0935,2898.8784],[44.3146,14.0945,2857.3823],[44.3176,14.0927,2827.6807],[44.3153,14.0861,2927.9106],[44.3503,14.0879,2817.0701],[44.3709,14.0844,2951.1792],[44.3915,14.0778,2580.0181],[44.406,14.0856,2445.3286],[44.416,14.0953,2372.1035],[44.431399999999996,14.1051,2306.1357],[44.436,14.1069,2238.1528],[44.4407,14.1038,2260.9485],[44.4487,14.1096,2157.1599],[44.4479,14.1136,2191.5649],[44.4496,14.1141,2200.2437],[44.4505,14.1185,2304.8699],[44.4586,14.1283,2703.4133],[44.4632,14.1309,2618.8167],[44.4978,14.1729,2763.3726],[44.4972,14.187,2585.6577],[44.484,14.1878,2732.4885],[44.4776,14.1949,2763.9839],[44.4759,14.2036,2666.8982],[44.4785,14.2073,2666.6914],[44.4848,14.2073,2617.7351],[44.4875,14.2109,2582.0742],[44.4875,14.2153,2558.2793],[44.493899999999996,14.2251,2503.2102],[44.493,14.2313,2479.6541],[44.4875,14.2313,2510.1084],[44.4811,14.2357,2547.0747],[44.4693,14.2339,2700.2241],[44.4511,14.2347,2645.7229],[44.4493,14.2357,2606.1201],[44.4502,14.2374,2603.4478],[44.447,14.2543,2550.8342],[44.4436,14.2528,2566.4248],[44.4255,14.2528,2834.1816],[44.4022,14.2451,2686.7527],[44.3925,14.2287,2731.6572],[44.3958,14.2173,2599.7593],[44.3867,14.2097,2580.4346],[44.3816,14.2021,2571.3838],[44.3764,14.2021,2566.0186],[44.3712,14.2072,2558.9358],[44.3578,14.2125,2547.0037],[44.3407,14.1823,2547.0969],[44.3446,14.1544,2547.4897],[44.3513,14.1463,2463.1602],[44.3513,14.1436,2418.2986],[44.3469,14.1355,2526.832],[44.3526,14.1298,2369.1897],[44.3562,14.1298,2324.894],[44.357,14.1287,2395.3401],[44.3557,14.1275,2395.3401],[44.3662,14.1232,2288.4678],[44.3662,14.1195,2332.4824],[44.3646,14.1184,2339.7598],[44.3568,14.1194,2438.1611],[44.3342,14.1307,2661.1646],[44.31,14.1311,2712.6453],[44.2973,14.1359,2785.3669],[44.2885,14.1364,2675.3582],[44.2671,14.1505,2735.804],[44.258,14.1511,2832.0376],[44.2524,14.1492,2818.7053],[44.2528,14.118,2992.2612],[44.2621,14.1022,2810.3979],[44.272,14.0917,3067.9966]]]]}}