{"type":"Feature","properties":{"GID_2":"YEM.3.13_1","GID_0":"YEM","country":"Yemen","GID_1":"YEM.3_1","province":"AlBayda'","NL_NAME_1":"البيضاء","county":"Maswarah","VARNAME_2":"NA","NL_NAME_2":"مسورة","TYPE_2":"Muderiah","ENGTYPE_2":"District","CC_2":"1403","HASC_2":"NA","name":"Maswarah.county"},
"geometry":{"type": "MultiPolygon","coordinates": [[[[45.6067,14.2102,1758.2914],[45.617,14.2302,1786.4602],[45.6484,14.2595,1747.1353],[45.6915,14.2866,1791.6604],[45.7263,14.2899,1843.4679],[45.7437,14.2796,1906.7273],[45.7367,14.2751,1932.9673],[45.7402,14.2706,1923.4586],[45.7507,14.2762,1902.8821],[45.7704,14.2637,1941.9376],[45.7866,14.25,1992.2207],[45.797,14.2466,2044.5894],[45.8075,14.2534,2006.2623],[45.8041,14.2715,1980.3887],[45.7983,14.2828,1965.4711],[45.8018,14.3032,1932.6033],[45.817,14.3122,1828.447],[45.8446,14.3238,1875.8101],[45.8473,14.3597,1717.298],[45.8474,14.3834,1717.0916],[45.8441,14.4254,1940.2086],[45.7664,14.5924,1763.5302],[45.6826,14.5953,1490.167],[45.6826,14.5727,1343.6774],[45.685,14.5524,1726.5492],[45.6516,14.4887,1410.103],[45.599,14.4457,1491.7887],[45.5849,14.4373,1384.4342],[45.5665,14.4315,1469.9242],[45.5767,14.4076,1439.3657],[45.5814,14.392,1472.8293],[45.576,14.3686,1434.0854],[45.5806,14.3452,1484.5735],[45.5766,14.3406,1534.1077],[45.5646,14.3446,1490.3047],[45.5592,14.3426,1556.7281],[45.5592,14.3348,1485.9536],[45.5638,14.3263,1473.7617],[45.5712,14.3198,1581.0276],[45.5771,14.2938,1578.8896],[45.5737,14.2788,1634.1722],[45.567,14.2645,1625.2542],[45.5663,14.2548,1641.2578],[45.5703,14.2463,1640.3079],[45.5741,14.2291,1877.4576],[45.6067,14.2102,1758.2914]]]]}}