{"type":"Feature","properties":{"GID_2":"YEM.18.9_1","GID_0":"YEM","country":"Yemen","GID_1":"YEM.18_1","province":"Sa`dah","NL_NAME_1":"صعدة","county":"Monabbih","VARNAME_2":"NA","NL_NAME_2":"منبه","TYPE_2":"Muderiah","ENGTYPE_2":"District","CC_2":"2203","HASC_2":"NA","name":"Monabbih.county"},
"geometry":{"type": "MultiPolygon","coordinates": [[[[43.2152,17.2126,689.6218],[43.2163,17.2104,637.3184],[43.1892,17.1889,696.8569],[43.1929,17.1885,645.6049],[43.1903,17.1855,638.7725],[43.1816,17.1825,613.7847],[43.1708,17.1727,900.8275],[43.1779,17.1307,510.5106],[43.1638,17.1254,511.2217],[43.158,17.1141,515.6385],[43.1602,17.087,530.1049],[43.1853,17.0986,1134.554],[43.2081,17.0783,651.7344],[43.2272,17.0754,733.6674],[43.2282,17.0649,978.1008],[43.2588,17.0608,1121.5032],[43.3006,17.06,1073.9625],[43.3102,17.0576,1246.4373],[43.3164,17.0522,1489.791],[43.3194,17.0436,1413.8217],[43.3245,17.0367,1346.96],[43.3288,17.0346,1354.3447],[43.3349,17.0562,1446.0502],[43.3334,17.0806,1421.5963],[43.3362,17.0894,1511.2762],[43.349,17.114,1477.9376],[43.3507,17.1268,1557.2314],[43.3444,17.1358,1590.5115],[43.3376,17.1412,1391.2031],[43.3344,17.1475,1363.2174],[43.3312,17.1734,1398.703],[43.3281,17.1827,1428.0814],[43.3228,17.192,1439.9586],[43.3242,17.1978,1483.8674],[43.3324,17.2014,1523.9828],[43.3833,17.2105,2161.9304],[43.4002,17.2158,2557.865],[43.3996,17.225,2465.6045],[43.3934,17.2523,2571.2644],[43.3805,17.2688,2432.9958],[43.3562,17.2897,2559.1489],[43.3377,17.3031,2423.7046],[43.337,17.2998,2394.6475],[43.3216,17.3019,1768.3002],[43.313,17.3002,1658.0297],[43.31,17.3011,1497.8232],[43.3098,17.2993,1454.728],[43.3024,17.2932,1932.5623],[43.2722,17.2911,919.0316],[43.2672,17.2922,897.5568],[43.2559,17.2785,938.1995],[43.2448,17.2757,890.5417],[43.2324,17.2689,755.5352],[43.2017,17.2588,628.3273],[43.1999,17.2427,616.0295],[43.2152,17.2126,689.6218]]]]}}