{"type":"Feature","properties":{"GID_2":"YEM.21.8_1","GID_0":"YEM","country":"Yemen","GID_1":"YEM.21_1","province":"Ta`izz","NL_NAME_1":"تعز","county":"AsSilw","VARNAME_2":"NA","NL_NAME_2":"الصلو","TYPE_2":"Muderiah","ENGTYPE_2":"District","CC_2":"1514","HASC_2":"NA","name":"As_Silw.county"},
"geometry":{"type": "MultiPolygon","coordinates": [[[[44.2188,13.2882,1173.5344],[44.2242,13.2913,1217.8706],[44.2263,13.3011,1312.1831],[44.2237,13.3175,1648.1838],[44.218,13.319,1810.6626],[44.2162,13.3253,2203.605],[44.219,13.3283,2300.5017],[44.2293,13.3288,2312.9795],[44.2437,13.3387,1466.215],[44.2563,13.3526,1220.9918],[44.2545,13.3564,1422.1624],[44.2555,13.3584,1484.9456],[44.2642,13.3635,1144.7478],[44.2614,13.3673,1121.8678],[44.2398,13.3794,1137.3671],[44.2357,13.3849,1123.1833],[44.2256,13.3859,1182.1471],[44.1994,13.4003,1161.4661],[44.181,13.4037,1178.4597],[44.1769,13.4003,1190.5151],[44.1754,13.3915,1238.1447],[44.1694,13.3871,1222.6748],[44.1664,13.381,1253.6205],[44.1664,13.3577,1650.4006],[44.1652,13.3553,1512.4409],[44.1536,13.3484,1643.5476],[44.1546,13.3422,1616.4294],[44.1587,13.3372,1493.469],[44.1545,13.3323,1598.0159],[44.152,13.333,1603.5895],[44.1502,13.331,1727.0754],[44.1508,13.3273,1722.5662],[44.1596,13.3268,1596.6506],[44.1624,13.3247,1658.0897],[44.1654,13.3184,1711.5222],[44.1704,13.3196,1653.3285],[44.1749,13.3162,1689.3964],[44.1815,13.3149,1836.1931],[44.2,13.3057,1359.8749],[44.2029,13.3014,1277.8875],[44.2118,13.2988,1316.5981],[44.2126,13.2956,1277.9725],[44.2174,13.294,1350.0253],[44.2188,13.2882,1173.5344]]]]}}