{"type":"Feature","properties":{"GID_2":"YEM.7.4_1","GID_0":"YEM","country":"Yemen","GID_1":"YEM.7_1","province":"AlMahrah","NL_NAME_1":"المهره","county":"Hawf","VARNAME_2":"NA","NL_NAME_2":"حوف","TYPE_2":"Muderiah","ENGTYPE_2":"District","CC_2":"2803","HASC_2":"NA","name":"Hawf.county"},
"geometry":{"type": "MultiPolygon","coordinates": [[[[52.9479,16.8007,1026.2279],[52.8444,16.8278,1065.3427],[52.623,16.8694,994.0928],[52.5293,16.8706,1007.8771],[52.5383,16.8112,1120.7839],[52.5751,16.6666,1039.1426],[52.5871,16.6375,1061.5444],[52.5953,16.6356,951.4023],[52.7135,16.5174,0.0],[52.7221,16.5226,8.535],[52.7299,16.5251,0.0],[52.7346,16.5301,3.9984],[52.7407,16.5304,0.0],[52.754,16.5376,5.5081],[52.7649,16.5393,0.0],[52.796,16.5513,6.3072],[52.8101,16.5529,0.0],[52.8165,16.5562,60.1032],[52.8218,16.5565,0.0],[52.8243,16.559,89.6144],[52.8387,16.5649,0.0],[52.8396,16.5701,2.2551],[52.8518,16.5763,120.424],[52.8801,16.586,29.7046],[52.8862,16.5865,0.0],[52.8968,16.5918,0.0],[52.9029,16.5915,2.5462],[52.9137,16.5974,121.4503],[52.9315,16.6001,0.0],[52.9393,16.6071,97.242],[52.9449,16.609,4.8107],[52.9476,16.6129,17.6127],[52.9562,16.6138,1.9039],[52.9632,16.6176,63.4124],[52.9804,16.6213,0.776],[52.9854,16.621,0.3059],[53.0026,16.6265,0.0],[53.0199,16.6282,0.0],[53.0285,16.631,1.3091],[53.0385,16.6313,0.0],[53.0588,16.6362,0.0],[53.0629,16.636,0.0],[53.0701,16.6401,0.0],[53.0801,16.6401,0.0],[53.0823,16.6424,18.1781],[53.0786,16.6459,349.9207],[53.0956,16.6494,151.0127],[53.107,16.6544,167.4828],[53.0379,16.8028,1012.9907],[52.9704,16.7948,1091.4285],[52.9479,16.8007,1026.2279]]]]}}