{"type":"Feature","properties":{"GID_2":"YEM.13.30_1","GID_0":"YEM","country":"Yemen","GID_1":"YEM.13_1","province":"Hajjah","NL_NAME_1":"حجه","county":"Wadhrah","VARNAME_2":"NA","NL_NAME_2":"وضرة","TYPE_2":"Muderiah","ENGTYPE_2":"District","CC_2":"1723","HASC_2":"NA","name":"Wadhrah.county"},
"geometry":{"type": "MultiPolygon","coordinates": [[[[43.438,15.7143,469.8729],[43.4586,15.7018,572.557],[43.4631,15.7006,486.3159],[43.4748,15.6913,728.4033],[43.4845,15.6887,551.6033],[43.486,15.6894,565.7505],[43.4887,15.7012,816.5311],[43.4924,15.7045,818.4827],[43.4943,15.7099,778.243],[43.4954,15.7372,874.2764],[43.4933,15.7389,825.2286],[43.4931,15.7368,743.2999],[43.4822,15.7354,554.2332],[43.477,15.7379,523.6397],[43.4706,15.7366,570.6477],[43.4574,15.74,539.774],[43.4478,15.7348,612.3594],[43.4415,15.7282,483.6658],[43.438,15.7143,469.8729]]]]}}