{"type":"Feature","properties":{"GID_2":"YEM.4.6_1","GID_0":"YEM","country":"Yemen","GID_1":"YEM.4_1","province":"AlDali'","NL_NAME_1":"الضالع","county":"Damt","VARNAME_2":"NA","NL_NAME_2":"دمت","TYPE_2":"Muderiah","ENGTYPE_2":"District","CC_2":"3002","HASC_2":"NA","name":"Damt.county"},
"geometry":{"type": "MultiPolygon","coordinates": [[[[44.6815,14.1777,2041.8813],[44.6796,14.1617,2096.1492],[44.6725,14.1461,2121.2383],[44.6601,14.1374,1929.6931],[44.6494,14.1252,1995.7593],[44.637,14.1235,2028.3322],[44.6298,14.1339,2313.2009],[44.6098,14.1421,2356.9702],[44.6044,14.1383,2262.0759],[44.5975,14.1399,2279.3777],[44.5942,14.1373,2268.4165],[44.5925,14.1204,2313.0894],[44.6005,14.1188,2203.364],[44.605,14.1161,2135.3384],[44.606,14.1046,2285.7012],[44.6042,14.101,2246.3994],[44.5996,14.0975,2263.5737],[44.5881,14.0932,2389.2903],[44.5924,14.0851,2038.5688],[44.5921,14.082,1981.0114],[44.5752,14.0789,1993.5372],[44.5685,14.0731,2006.4775],[44.5578,14.0674,2015.2701],[44.5526,14.0599,2051.6106],[44.553,14.0318,2284.7041],[44.5635,14.0228,2406.6914],[44.5795,14.0179,2412.5469],[44.5908,14.0162,2129.1379],[44.603,14.0106,2374.5637],[44.6358,14.0057,2397.9509],[44.6416,14.0026,2394.6741],[44.6443,13.9858,2112.248],[44.6779,13.9902,2074.3057],[44.6877,13.9901,1987.719],[44.6916,14.0098,1909.203],[44.6952,14.0169,2017.9319],[44.6952,14.0275,2066.2324],[44.7024,14.0267,1946.9723],[44.7079,14.032,1937.1515],[44.6915,14.0337,1938.0591],[44.6806,14.0328,1963.2052],[44.6723,14.0459,2087.1621],[44.6833,14.0461,2005.1388],[44.6915,14.0435,1997.7134],[44.7052,14.0435,2054.4792],[44.7315,14.0329,1892.0491],[44.7479,14.0187,1787.6427],[44.7515,14.0187,1914.7821],[44.757,14.0214,2127.1033],[44.7666,14.0155,1868.8776],[44.783,14.0285,1896.5208],[44.7709,14.0778,2110.5659],[44.7768,14.0973,2160.4734],[44.7925,14.1156,2107.9551],[44.7983,14.1279,2164.6506],[44.805,14.1528,2924.7227],[44.8032,14.1794,2873.2058],[44.7931,14.194,2900.2207],[44.7913,14.2041,2684.167],[44.7842,14.2063,2697.0681],[44.7631,14.2184,2748.7075],[44.7449,14.2166,2283.1423],[44.7386,14.2077,2302.635],[44.7322,14.1935,2191.1172],[44.6815,14.1777,2041.8813]]]]}}