{"type":"Feature","properties":{"GID_2":"YEM.14.13_1","GID_0":"YEM","country":"Yemen","GID_1":"YEM.14_1","province":"Ibb","NL_NAME_1":"إب","county":"DhiAsSufal","VARNAME_2":"NA","NL_NAME_2":"ذيالسفال","TYPE_2":"Muderiah","ENGTYPE_2":"District","CC_2":"1116","HASC_2":"NA","name":"Dhi_As_Sufal.county"},
"geometry":{"type": "MultiPolygon","coordinates": [[[[44.0194,13.9166,1308.7976],[44.0147,13.9037,1355.1997],[44.0123,13.8843,1466.5679],[44.0118,13.8672,1545.048],[44.0142,13.86,1742.9724],[44.0107,13.8545,1827.5128],[44.0103,13.8453,2109.4219],[44.0061,13.8393,2282.8721],[44.0083,13.8368,2252.4641],[44.0128,13.8363,2298.2183],[44.0131,13.8325,2318.3552],[44.0093,13.8304,2111.6267],[44.0086,13.8262,2133.0847],[43.9995,13.8211,2008.4604],[43.9934,13.8141,2251.8452],[43.9866,13.7968,1976.5074],[44.0004,13.7854,1819.2834],[44.0304,13.7703,1569.8995],[44.0396,13.7675,1700.6334],[44.0581,13.7672,1609.9583],[44.0707,13.7695,1621.4757],[44.0853,13.7773,1554.8114],[44.1128,13.7577,1619.647],[44.1283,13.7501,1558.7596],[44.1558,13.7496,1540.415],[44.1689,13.7514,1676.2833],[44.1634,13.7618,1688.8364],[44.1543,13.7703,1601.6782],[44.1492,13.7894,1667.3922],[44.1445,13.7959,1722.9331],[44.144,13.8036,1773.6848],[44.1347,13.838,2261.2961],[44.1326,13.8689,2661.1919],[44.1203,13.8653,2396.47],[44.1105,13.8644,2373.5386],[44.1088,13.8596,2058.707],[44.1017,13.8544,2240.4268],[44.0899,13.8603,2360.2915],[44.0783,13.87,2529.8284],[44.0741,13.8684,2544.3513],[44.0692,13.8715,2744.9648],[44.0692,13.8772,2789.5364],[44.0626,13.8852,2400.5857],[44.0485,13.8948,1894.605],[44.0378,13.8956,1532.2388],[44.0345,13.9012,1451.1035],[44.0304,13.9028,1480.8237],[44.0279,13.9076,1420.9965],[44.027,13.917,1369.1263],[44.0221,13.9153,1342.3276],[44.0194,13.9166,1308.7976]]]]}}