{"type":"Feature","properties":{"GID_2":"YEM.13.24_1","GID_0":"YEM","country":"Yemen","GID_1":"YEM.13_1","province":"Hajjah","NL_NAME_1":"حجه","county":"Midi","VARNAME_2":"NA","NL_NAME_2":"ميدي","TYPE_2":"Muderiah","ENGTYPE_2":"District","CC_2":"1703","HASC_2":"NA","name":"Midi.county"},
"geometry":{"type": "MultiPolygon","coordinates": [[[[42.6821,15.9596,0.0],[42.6849,15.961,0.0],[42.6849,15.9615,0.0],[42.681,15.9604,0.0],[42.6821,15.9596,0.0]]],
[[[42.6851,15.9626,0.0],[42.6826,15.9632,0.0],[42.6815,15.9615,0.0],[42.6849,15.9621,0.0],[42.6851,15.9626,0.0]]],
[[[42.8262,16.006,0.0],[42.826,16.0071,0.0],[42.8249,16.004,0.0],[42.8257,16.0046,0.0],[42.8262,16.006,0.0]]],
[[[42.7099,16.0199,0.0],[42.7079,16.0207,0.3536],[42.7043,16.0193,0.0],[42.7074,16.0187,0.0],[42.7099,16.0199,0.0]]],
[[[42.6399,15.9665,0.0],[42.6374,15.9665,0.0],[42.6374,15.9654,0.0],[42.6399,15.9654,0.0],[42.6399,15.9665,0.0]]],
[[[42.6335,15.991,0.0],[42.6299,15.9912,0.1983],[42.6293,15.9893,0.8122],[42.6315,15.9871,0.9697],[42.6357,15.9874,0.0],[42.636,15.9893,0.0],[42.6335,15.991,0.0]]],
[[[42.5962,16.0046,0.1564],[42.5938,16.0054,0.7856],[42.5851,16.0018,0.2658],[42.5865,15.9996,0.0],[42.5918,15.9996,0.0],[42.5926,16.0029,0.0],[42.5962,16.0046,0.1564]]],
[[[42.604,16.0254,0.5853],[42.6029,16.0265,0.3114],[42.6018,16.0237,0.0],[42.6029,16.0235,0.0],[42.604,16.0254,0.5853]]],
[[[42.6679,16.1712,0.0],[42.6665,16.171,0.0],[42.6665,16.1688,0.7264],[42.6679,16.1674,0.3615],[42.6721,16.1685,0.0],[42.6715,16.1699,0.0],[42.6693,16.1696,1.4331],[42.6679,16.1712,0.0]]],
[[[42.9139,16.3931,43.7634],[42.9098,16.3925,42.6156],[42.8898,16.3817,32.5817],[42.8717,16.3747,26.6123],[42.8526,16.37,21.6288],[42.8277,16.3688,14.2142],[42.8205,16.3647,10.7103],[42.8156,16.3666,8.808],[42.8075,16.374,4.6676],[42.7995,16.3777,1.6612],[42.7828,16.3787,0.8465],[42.7782,16.3692,0.63],[42.7737,16.3677,0.4372],[42.7746,16.3657,0.0],[42.7788,16.3662,0.2197],[42.7818,16.3646,0.5908],[42.7837,16.3596,0.4491],[42.7863,16.3582,1.7422],[42.7849,16.356,0.2444],[42.7876,16.3515,0.9448],[42.7901,16.3407,0.3173],[42.7957,16.3321,0.5848],[42.7971,16.324,1.1145],[42.7924,16.3143,0.0],[42.7929,16.3035,0.0],[42.7968,16.284,0.1821],[42.8051,16.2671,0.4938],[42.8037,16.2571,0.0],[42.8051,16.2451,1.1892],[42.8015,16.2365,0.0],[42.8107,16.219,1.0396],[42.8112,16.2143,1.2745],[42.8085,16.2121,0.5288],[42.8088,16.2099,0.5244],[42.8129,16.2082,0.8523],[42.8199,16.2001,0.0],[42.8251,16.1804,0.9722],[42.8182,16.1724,0.0],[42.8168,16.1674,1.5299],[42.819,16.1612,0.6921],[42.8176,16.1549,0.0],[42.821,16.1482,0.9454],[42.8201,16.1404,0.0],[42.8179,16.1357,0.0],[42.8182,16.1301,0.0],[42.8249,16.119,0.7612],[42.8276,16.1057,0.0],[42.8293,16.1051,1.5981],[42.8293,16.0963,1.5],[42.826,16.0918,0.0],[42.8257,16.0882,0.0],[42.8354,16.0749,0.5306],[42.8374,16.0582,1.3475],[42.8363,16.0529,0.0],[42.8326,16.049,0.0],[42.8318,16.041,0.2887],[42.8354,16.0324,0.9168],[42.834,16.0287,0.0],[42.8343,16.0185,0.0],[42.8249,16.0021,0.0],[42.8229,15.9918,0.5778],[42.8276,15.9774,0.3568],[42.8274,15.9707,0.0],[42.8235,15.9607,1.46],[42.8232,15.9528,0.4099],[42.8319,15.95,1.7938],[42.8522,15.952,8.4413],[42.8605,15.9539,11.8263],[42.8619,15.9555,11.9594],[42.8957,15.9576,20.0424],[42.9146,15.9696,28.1353],[42.9197,15.9813,31.9612],[42.9196,15.9914,35.1793],[42.922,15.9938,32.5681],[42.9247,16.0036,34.5855],[42.9337,16.0198,39.1813],[42.938,16.0502,41.3356],[42.9341,16.0707,39.6964],[42.9339,16.0922,35.6208],[42.9411,16.1137,37.0282],[42.9419,16.128,44.4901],[42.9418,16.199,35.2733],[42.9505,16.2,42.4617],[42.9499,16.2399,40.2341],[42.9583,16.2535,44.3989],[42.9613,16.2633,51.7662],[42.9538,16.3474,50.0137],[42.9581,16.3519,51.5778],[42.9936,16.3673,63.0733],[42.9959,16.3876,72.9194],[42.9926,16.4077,76.3481],[42.9885,16.4082,75.1633],[42.9565,16.4021,63.0018],[42.9498,16.3995,58.3104],[42.9316,16.3988,50.9728],[42.9233,16.3947,48.5171],[42.9139,16.3931,43.7634]]]]}}