{"type":"Feature","properties":{"GID_2":"YEM.8.3_1","GID_0":"YEM","country":"Yemen","GID_1":"YEM.8_1","province":"AlMahwit","NL_NAME_1":"المحويت","county":"AlMahwaitCity","VARNAME_2":"NA","NL_NAME_2":"مدينةالمحويت","TYPE_2":"Muderiah","ENGTYPE_2":"District","CC_2":"2708","HASC_2":"NA","name":"Al_Mahwait_City.county"},
"geometry":{"type": "MultiPolygon","coordinates": [[[[43.5657,15.4512,1827.2926],[43.563,15.4562,1943.1263],[43.5639,15.4649,1960.5182],[43.5592,15.4774,2074.5259],[43.5594,15.4861,2219.7058],[43.5522,15.4948,1737.4614],[43.5371,15.4857,2202.25],[43.536,15.4696,2001.2876],[43.5269,15.4672,1848.7358],[43.5268,15.4639,1873.0582],[43.542,15.4539,1819.4197],[43.5581,15.4321,1477.4988],[43.5638,15.4332,1527.9185],[43.5657,15.4512,1827.2926]]]]}}