{"type":"Feature","properties":{"GID_1":"YEM.16_1","GID_0":"YEM","country":"Yemen","province":"Ma'rib","VARNAME_1":"Mareb|Marib","NL_NAME_1":"مأرب","TYPE_1":"Muhafazah","ENGTYPE_1":"Governorate","CC_1":"26","HASC_1":"YE.MA","ISO_1":"YE-MA","name":"Ma'rib.province"},
"geometry":{"type": "MultiPolygon","coordinates": [[[[45.3114,14.5328,2117.374],[45.3148,14.5548,2089.7686],[45.3094,14.5576,2093.0425],[45.3023,14.5565,2078.2378],[45.3039,14.5603,2100.4224],[45.2806,14.569,2069.0957],[45.2764,14.5734,2068.2144],[45.2802,14.5861,2042.875],[45.2916,14.5888,2068.0342],[45.3179,14.5765,2172.501],[45.3539,14.577,2084.5691],[45.3647,14.5781,2030.0974],[45.3733,14.5815,2103.1631],[45.3836,14.5965,2134.1035],[45.4025,14.6337,2096.168],[45.4179,14.6352,2066.7742],[45.4229,14.6319,2099.4688],[45.4358,14.5991,1963.5742],[45.4867,14.5974,1806.8997],[45.4901,14.6207,1852.0767],[45.4959,14.6439,1837.8922],[45.5146,14.6679,1773.0673],[45.5246,14.7128,1765.0563],[45.5147,14.714,1899.7565],[45.5009,14.7186,1670.2222],[45.4892,14.7247,1358.2864],[45.48,14.7312,1451.8126],[45.4746,14.7437,1606.8666],[45.482,14.7938,1880.7192],[45.4989,14.8711,1187.5403],[45.5035,14.886,1176.1818],[45.51,14.8932,1179.5294],[45.5124,14.8926,1182.7344],[45.5157,14.8953,1167.2605],[45.5158,14.9091,1160.079],[45.5065,14.9304,1150.7292],[45.5069,14.9379,1150.6959],[45.5117,14.9449,1148.5033],[45.5186,14.9691,1137.0723],[45.5231,14.9793,1136.572],[45.5352,14.9984,1126.1167],[45.5781,15.0805,1098.2087],[45.5999,15.1078,1087.7302],[45.7025,15.1978,1048.0615],[46.306,15.6062,880.1259],[46.4864,15.8018,859.9613],[46.8108,16.1619,883.7923],[45.8221,16.0118,1008.472],[45.7105,15.9726,1091.3499],[45.6295,15.9229,983.1577],[45.5867,15.8773,974.5969],[45.5557,15.8296,983.6352],[45.5278,15.7915,986.265],[45.4642,15.7615,993.4916],[45.2346,15.7677,1047.0583],[44.8414,16.0306,1092.0745],[44.594,16.0303,1592.4934],[44.575,16.0018,1499.1711],[44.607,15.9953,1618.8517],[44.6099,15.9933,1581.0428],[44.663,15.8765,1742.8645],[44.6859,15.7684,1607.3523],[44.6818,15.7553,1417.338],[44.6891,15.7183,1871.2239],[44.6914,15.716,1892.4016],[44.7169,15.6606,1542.902],[44.7436,15.6397,1668.1906],[44.7758,15.6319,1580.0513],[44.7889,15.6266,1514.0911],[44.7944,15.6188,1509.194],[44.798,15.6056,1589.8438],[44.7985,15.5876,1747.7681],[44.793,15.5768,1568.4224],[44.7709,15.5641,2029.4524],[44.7543,15.5607,2163.7676],[44.7372,15.5548,1694.5292],[44.6819,15.5304,1786.8981],[44.6558,15.5137,1862.484],[44.6498,15.504,1899.1104],[44.6281,15.4926,1984.8269],[44.5989,15.4882,2141.8105],[44.5216,15.4713,2460.4229],[44.5144,15.4427,2570.5569],[44.5312,15.4196,2463.7776],[44.5622,15.4058,2633.3894],[44.5932,15.4059,2340.1904],[44.6147,15.4105,2266.5037],[44.6885,15.4476,1995.5763],[44.6889,15.4092,2224.9058],[44.6938,15.388,2211.054],[44.691,15.3493,2264.1721],[44.7016,15.3298,2199.634],[44.71,15.3263,2278.1133],[44.7335,15.3223,2326.168],[44.7656,15.3209,1849.2207],[44.7802,15.323,1778.4253],[44.7908,15.3281,1780.7205],[44.7977,15.3359,1729.4825],[44.8009,15.3433,1747.8877],[44.8053,15.3679,1765.6719],[44.806,15.4154,1860.4103],[44.8396,15.4095,1695.9384],[44.9672,15.3488,1790.6755],[45.1087,15.2857,1243.6711],[45.0801,15.1221,1448.7371],[45.0573,15.0943,1535.0493],[45.0348,15.0764,1425.7959],[44.9737,15.006,1550.2811],[44.951,14.9694,1509.1228],[44.9426,14.9482,1438.9872],[44.9405,14.9297,1653.6908],[44.9299,14.9159,1961.1265],[44.9101,14.8829,1916.1517],[44.9072,14.857,2118.4766],[44.908,14.7945,1810.1196],[44.993,14.8129,1557.8479],[45.031,14.8252,1613.345],[45.0516,14.8206,1616.9912],[45.0547,14.8082,1541.7697],[45.0516,14.799,1517.1875],[45.0531,14.745,1635.0062],[45.0749,14.6053,1852.0858],[45.077,14.6037,1852.0392],[45.082,14.5891,1767.2396],[45.1001,14.5558,1874.3691],[45.1161,14.5324,1835.3376],[45.1869,14.504,1864.9409],[45.1916,14.521,1907.7339],[45.2242,14.5577,2016.6906],[45.2481,14.5603,2147.7405],[45.2569,14.5576,2083.2612],[45.2966,14.5346,2092.1963],[45.3114,14.5328,2117.374]],
[[45.4744,14.6844,1872.1298],[45.4702,14.6554,1872.282],[45.455,14.6568,1905.9773],[45.462,14.6863,1858.6132],[45.4744,14.6844,1872.1298]]]]}}