{"type":"Feature","properties":{"ISO3166-1-Alpha-3":"YEM","country":"Yemen","fill":"#F0F","id":"337","name":"Ma'rib"},
"geometry":{"type": "Polygon","coordinates": [[[46.33974,15.57073,894.4995],[46.83273,16.14969,886.1306],[45.99448,16.00003,972.2621],[45.69285,15.89774,965.603],[45.56423,15.79035,982.0019],[45.44956,15.78007,991.7294],[45.23898,15.81296,1037.2249],[44.9978,15.93554,1076.0704],[44.66097,16.01143,1405.8038],[44.70996,15.91624,1193.567],[44.72738,15.82327,1242.7584],[44.72722,15.75439,1318.3499],[44.74211,15.70837,1381.2731],[44.80696,15.6292,1359.5928],[44.8282,15.59556,1428.1716],[44.80929,15.55763,1825.1423],[44.78185,15.52923,1496.5986],[44.66314,15.4495,1868.381],[44.64247,15.43066,2158.5217],[44.64697,15.41472,2307.6287],[44.66201,15.40862,2754.5935],[44.68454,15.40637,2395.6965],[44.7081,15.39896,2142.6321],[44.74211,15.37141,2103.3101],[44.77611,15.33162,1769.2354],[44.80913,15.31927,1779.0178],[44.84298,15.32971,1723.0326],[44.85538,15.35302,1709.1302],[44.86763,15.37064,1859.8151],[44.88763,15.38307,1745.582],[44.90318,15.37979,1664.8523],[44.92101,15.37413,1832.9746],[44.96509,15.34123,1960.6405],[44.99801,15.30609,1447.0138],[45.0239,15.2832,1319.8293],[45.05914,15.27483,1240.167],[45.10457,15.27041,1225.7705],[45.13469,15.25757,1228.3683],[45.15407,15.23848,1247.6041],[45.1643,15.20398,1325.1702],[45.16461,15.18248,1342.5471],[45.1612,15.16264,1754.0518],[45.16492,15.13915,2263.3491],[45.15361,15.10789,1974.4788],[45.13919,15.08412,1871.2135],[45.08953,15.06262,1550.3921],[45.07247,15.05048,1567.0227],[45.06767,15.03583,1552.5627],[45.05496,15.00792,1643.1311],[45.04266,14.99609,1493.7625],[45.03227,14.98407,1498.3821],[45.01909,14.96216,1547.2476],[45.01196,14.94224,1543.4205],[45.00126,14.93054,1506.2922],[44.99894,14.92224,1517.7518],[45.0039,14.91609,1450.7374],[45.01212,14.90901,1502.4785],[45.01227,14.88989,1522.1456],[45.00684,14.87496,1566.2288],[45.00591,14.81426,1583.7081],[45.05883,14.80426,1546.5413],[45.08612,14.7899,1594.2961],[45.10663,14.76812,1654.1379],[45.11139,14.74112,1920.2374],[45.1117,14.71094,1744.7313],[45.12058,14.65983,1774.2986],[45.12942,14.6266,1858.6765],[45.13082,14.59384,1735.9629],[45.14027,14.57082,1801.4502],[45.14275,14.54958,1809.5374],[45.15144,14.52836,1846.1592],[45.16389,14.5094,1941.874],[45.18311,14.49842,1891.0405],[45.21505,14.49772,2070.6682],[45.25386,14.52516,2076.2444],[45.26549,14.53885,2069.6899],[45.28213,14.54444,2073.2212],[45.32367,14.53542,2117.6807],[45.33049,14.54575,2108.0742],[45.32615,14.55622,2096.918],[45.33453,14.5664,2118.5872],[45.35396,14.56826,2025.2972],[45.38233,14.57826,2074.9832],[45.41509,14.59379,2023.8253],[45.45049,14.59663,1954.0896],[45.47607,14.58888,1848.2476],[45.49875,14.58585,1741.6434],[45.51488,14.59175,1863.7902],[45.51503,14.60955,1765.2349],[45.49684,14.6404,1899.0662],[45.49839,14.65461,1880.6929],[45.50712,14.66569,1795.8887],[45.51736,14.66365,1784.4714],[45.52278,14.65717,1724.8145],[45.5296,14.64642,1876.7878],[45.53968,14.64102,1880.5049],[45.55379,14.64781,1936.3844],[45.5619,14.65639,1928.8735],[45.56857,14.68928,1939.6434],[45.54681,14.70135,1854.8914],[45.53456,14.71559,1690.7733],[45.52542,14.74336,1784.8859],[45.52774,14.79783,1331.4808],[45.53255,14.82754,1209.6586],[45.53953,14.85424,1203.5723],[45.53922,14.86695,1188.874],[45.5372,14.87537,1179.7775],[45.55007,14.88372,1196.213],[45.55487,14.89656,1195.686],[45.55394,14.914,1400.8094],[45.56206,14.95376,1150.3851],[45.58516,14.99593,1530.2751],[45.59337,15.01738,1407.0037],[45.6143,15.06019,1125.3414],[45.75321,15.17342,1038.6638],[46.33974,15.57073,894.4995]]]}}