{"type":"Feature","properties":{"GID_2":"YEM.2.2_1","GID_0":"YEM","country":"Yemen","GID_1":"YEM.2_1","province":"Abyan","NL_NAME_1":"أبين","county":"AlMahfad","VARNAME_2":"NA","NL_NAME_2":"المحفد","TYPE_2":"Muderiah","ENGTYPE_2":"District","CC_2":"1201","HASC_2":"NA","name":"Al_Mahfad.county"},
"geometry":{"type": "MultiPolygon","coordinates": [[[[47.1607,13.9674,703.631],[47.1554,14.0528,1197.0992],[47.1477,14.0659,1276.6365],[47.1277,14.0661,1279.8165],[47.1061,14.074,1218.8329],[47.0923,14.0838,1108.739],[47.0826,14.1031,955.4268],[47.0809,14.1282,921.475],[47.0834,14.186,1189.7009],[47.0796,14.1996,1152.4159],[47.0678,14.2054,950.8142],[47.0381,14.2057,1078.886],[47.0143,14.1963,1174.7499],[46.9963,14.1733,932.3315],[46.9862,14.1483,844.6938],[46.9762,14.1368,854.9239],[46.9664,14.1369,873.0356],[46.9468,14.1583,895.4764],[46.931,14.1622,905.9383],[46.9034,14.1625,776.8459],[46.8639,14.1686,794.396],[46.8304,14.1765,1141.4578],[46.7949,14.1903,1039.946],[46.7624,14.2007,1506.1331],[46.6051,14.1875,1682.576],[46.5678,14.1316,1311.6182],[46.5529,14.1164,1642.4749],[46.5215,14.103,1946.7998],[46.4967,14.0887,1379.8076],[46.4854,14.0772,1182.1995],[46.4737,14.0748,1371.3236],[46.4614,14.0765,1541.2977],[46.4495,14.0856,1724.5587],[46.4348,14.0872,1542.1849],[46.4182,14.0606,1308.3364],[46.3902,14.0264,1449.1715],[46.3733,13.9813,753.7739],[46.3761,13.8275,606.0623],[46.3512,13.7355,430.0825],[46.3792,13.7353,459.6663],[46.4958,13.7473,411.0435],[46.6514,13.777,199.3581],[46.7238,13.8109,407.9153],[46.7704,13.8485,432.0376],[46.7908,13.8694,484.03],[46.9448,13.9542,854.0587],[47.039,13.9577,760.3041],[47.1607,13.9674,703.631]]]]}}