{"type":"Feature","properties":{"GID_2":"YEM.14.11_1","GID_0":"YEM","country":"Yemen","GID_1":"YEM.14_1","province":"Ibb","NL_NAME_1":"إب","county":"AshSha'ir","VARNAME_2":"NA","NL_NAME_2":"الشعر","TYPE_2":"Muderiah","ENGTYPE_2":"District","CC_2":"1105","HASC_2":"NA","name":"Ash_Sha'ir.county"},
"geometry":{"type": "MultiPolygon","coordinates": [[[[44.3915,14.0778,2580.0181],[44.3709,14.0844,2951.1792],[44.3503,14.0879,2817.0701],[44.3153,14.0861,2927.9106],[44.3176,14.0927,2827.6807],[44.3146,14.0945,2857.3823],[44.297,14.0935,2898.8784],[44.2922,14.0903,2791.0957],[44.2872,14.0897,2767.1917],[44.2836,14.0947,2803.7217],[44.28,14.0964,2804.3093],[44.272,14.0917,3067.9966],[44.2783,14.0871,2889.3457],[44.2819,14.072,2951.6733],[44.2881,14.0662,2845.2996],[44.2981,14.0617,2948.0703],[44.3093,14.0503,2955.7056],[44.3105,14.0444,2548.2769],[44.3058,14.0328,2536.7756],[44.31,14.0266,2298.623],[44.3321,14.014,2403.7397],[44.3494,13.9972,2301.2341],[44.3584,13.9908,2153.855],[44.361,13.9867,2125.939],[44.3664,13.9893,2143.0449],[44.3701,13.9948,2222.4922],[44.3736,14.0058,2297.2234],[44.3737,14.0084,2363.3137],[44.3714,14.0079,2290.0715],[44.3704,14.0105,2317.6958],[44.373,14.0111,2459.887],[44.377,14.0085,2323.0867],[44.376,14.0119,2429.259],[44.378,14.0131,2309.7722],[44.3799,14.0107,2288.0396],[44.3901,14.0096,2194.2156],[44.3955,14.006,2201.5227],[44.399,13.9996,2214.1768],[44.4002,13.9878,1902.238],[44.395,13.9743,1853.2388],[44.3916,13.9717,1863.045],[44.3924,13.9692,1820.4407],[44.395,13.9696,1809.8479],[44.3952,13.9715,1827.6782],[44.3966,13.9717,1827.6782],[44.4039,13.9688,1786.3467],[44.4157,13.9673,1744.5193],[44.4382,13.9681,1656.5533],[44.4449,13.9697,1788.2026],[44.4519,13.9741,1662.2753],[44.4441,13.9959,1794.835],[44.436,14.0064,1805.1057],[44.4348,14.0203,1954.5186],[44.4303,14.0247,1919.9902],[44.4235,14.027,1917.7775],[44.4233,14.0297,1942.2245],[44.4279,14.0311,1920.0681],[44.4306,14.0349,1949.2097],[44.4315,14.0462,2285.498],[44.4207,14.0598,2768.5752],[44.3936,14.0648,2877.6616],[44.3918,14.0691,2778.4146],[44.3915,14.0778,2580.0181]]]]}}