{"type":"Feature","properties":{"GID_1":"YEM.3_1","GID_0":"YEM","country":"Yemen","province":"AlBayda'","VARNAME_1":"Albaidah|AlBaidha|Al-Baydha|Al","NL_NAME_1":"البيضاء","TYPE_1":"Muhafazah","ENGTYPE_1":"Governorate","CC_1":"14","HASC_1":"YE.BA","ISO_1":"YE-BA","name":"Al_Bayda'.province"},
"geometry":{"type": "MultiPolygon","coordinates": [[[[45.9756,14.0905,1986.6207],[46.0036,14.1069,1970.7119],[46.0336,14.2351,1610.958],[46.0605,14.2505,1598.1138],[46.0456,14.2768,1627.5234],[46.0292,14.2822,1709.7163],[46.0172,14.2894,1545.0664],[46.005,14.2985,1567.5228],[45.9943,14.3096,1467.1222],[45.9888,14.318,1414.5056],[45.9783,14.3145,1454.3766],[45.9765,14.3178,1504.0245],[45.9762,14.3237,1470.4928],[45.9781,14.3378,1527.5284],[45.9805,14.341,1552.8065],[45.9785,14.3422,1575.5399],[45.9251,14.3424,1752.8192],[45.874,14.3335,1799.4142],[45.8446,14.3238,1875.8101],[45.8473,14.3597,1717.298],[45.8474,14.3834,1717.0916],[45.8441,14.4254,1940.2086],[45.7664,14.5924,1763.5302],[45.6826,14.5953,1490.167],[45.6593,14.5919,1582.8143],[45.6511,14.5949,1255.3206],[45.646,14.6011,1463.0803],[45.6497,14.6203,1408.1248],[45.6502,14.6706,1682.0084],[45.6548,14.676,1551.323],[45.6651,14.6948,1325.9159],[45.6559,14.7159,1488.9136],[45.6516,14.7196,1383.5974],[45.645,14.7201,1239.3535],[45.6284,14.7153,1224.5933],[45.6179,14.7153,1380.448],[45.6089,14.7135,1715.9048],[45.6066,14.709,1722.3831],[45.5544,14.7127,1626.7599],[45.5246,14.7128,1765.0563],[45.5146,14.6679,1773.0673],[45.4959,14.6439,1837.8922],[45.4901,14.6207,1852.0767],[45.4867,14.5974,1806.8997],[45.4358,14.5991,1963.5742],[45.4229,14.6319,2099.4688],[45.4179,14.6352,2066.7742],[45.4025,14.6337,2096.168],[45.3836,14.5965,2134.1035],[45.3733,14.5815,2103.1631],[45.3647,14.5781,2030.0974],[45.3539,14.577,2084.5691],[45.3179,14.5765,2172.501],[45.2916,14.5888,2068.0342],[45.2802,14.5861,2042.875],[45.2764,14.5734,2068.2144],[45.2806,14.569,2069.0957],[45.3039,14.5603,2100.4224],[45.3023,14.5565,2078.2378],[45.3094,14.5576,2093.0425],[45.3148,14.5548,2089.7686],[45.3114,14.5328,2117.374],[45.2966,14.5346,2092.1963],[45.2569,14.5576,2083.2612],[45.2481,14.5603,2147.7405],[45.2242,14.5577,2016.6906],[45.1916,14.521,1907.7339],[45.1869,14.504,1864.9409],[45.1161,14.5324,1835.3376],[45.1001,14.5558,1874.3691],[45.082,14.5891,1767.2396],[45.077,14.6037,1852.0392],[45.0749,14.6053,1852.0858],[45.0531,14.745,1635.0062],[45.0516,14.799,1517.1875],[45.0547,14.8082,1541.7697],[45.0516,14.8206,1616.9912],[45.031,14.8252,1613.345],[44.993,14.8129,1557.8479],[44.8892,14.7904,1748.3057],[44.8363,14.7471,1888.5419],[44.7803,14.7119,2041.3898],[44.7465,14.6843,2268.7751],[44.7353,14.6704,2322.3992],[44.7192,14.6434,2396.0005],[44.7084,14.6136,2506.4255],[44.7062,14.5968,2619.5459],[44.7062,14.5749,2804.7117],[44.7124,14.5545,2617.9243],[44.7319,14.513,2457.1631],[44.742,14.4804,2311.1951],[44.7306,14.4775,2341.562],[44.7141,14.4692,2353.1726],[44.7001,14.4573,2370.3281],[44.7007,14.4478,2393.2837],[44.6844,14.3887,2333.5723],[44.6779,14.377,2418.7463],[44.6696,14.3664,2715.782],[44.665,14.3635,2677.1494],[44.6304,14.3655,2743.8474],[44.6127,14.3622,2749.9148],[44.6119,14.3565,2729.7114],[44.5861,14.3286,2452.5322],[44.5967,14.3008,2467.6602],[44.5976,14.2939,2398.8506],[44.6202,14.2945,2388.8145],[44.6329,14.2905,2374.0632],[44.6343,14.2884,2391.3608],[44.6343,14.2817,2414.8853],[44.6294,14.2675,2584.9846],[44.6175,14.2555,2306.9807],[44.6176,14.2466,2166.9053],[44.6148,14.2386,2097.291],[44.6149,14.2274,2081.3633],[44.6167,14.2253,2088.1372],[44.6185,14.2129,2067.1619],[44.6167,14.2064,2043.8752],[44.6182,14.2009,2052.6187],[44.6231,14.1969,2074.0061],[44.6318,14.197,2277.5164],[44.6413,14.188,2229.6575],[44.6659,14.1774,2264.0713],[44.6815,14.1777,2041.8813],[44.7322,14.1935,2191.1172],[44.7386,14.2077,2302.635],[44.7449,14.2166,2283.1423],[44.7559,14.2184,2538.0264],[44.7631,14.2184,2748.7075],[44.7842,14.2063,2697.0681],[44.8024,14.2015,2825.1111],[44.8204,14.2062,2458.095],[44.8316,14.2119,2319.7622],[44.8651,14.2242,2282.9092],[44.8806,14.2275,2005.4209],[44.9482,14.2348,1871.9021],[44.9704,14.2307,1748.6528],[44.9962,14.2192,1791.4526],[45.0065,14.197,1639.4003],[45.0159,14.1871,1591.5854],[45.0508,14.1671,1772.1519],[45.0565,14.1581,1732.9553],[45.06,14.1471,1689.8683],[45.0648,14.1424,1584.4427],[45.0683,14.1202,1726.0093],[45.06,14.1134,1651.0327],[45.0613,14.1045,1667.6426],[45.0574,14.0972,1481.0819],[45.0663,14.0936,1480.7352],[45.0923,14.09,1472.4907],[45.1049,14.0908,1765.6493],[45.1176,14.0874,1803.6064],[45.1233,14.0814,1745.3967],[45.1307,14.0669,1397.7598],[45.1425,14.0584,1364.7107],[45.1425,14.055,1447.83],[45.1477,14.0529,1453.5225],[45.149,14.0409,1393.2715],[45.156,14.0362,1459.6545],[45.1525,14.0247,1349.7738],[45.1564,14.0085,1278.6633],[45.1509,13.9883,1500.5189],[45.1529,13.9838,1427.653],[45.1508,13.9808,1228.3546],[45.1559,13.977,1345.1349],[45.1634,13.9817,1256.9304],[45.1804,13.9779,1659.8115],[45.1843,13.973,1337.012],[45.2028,13.9727,1520.4182],[45.2198,13.9651,2019.2562],[45.2266,13.9651,1507.536],[45.2343,13.9682,1523.0696],[45.261,14.0025,1551.3691],[45.3297,14.0458,1901.2712],[45.3505,14.0559,1961.5631],[45.3551,14.0559,1952.9165],[45.36,14.0518,1951.9658],[45.3694,14.0394,1980.8859],[45.3844,14.0003,2017.0698],[45.3858,13.9874,2032.093],[45.3837,13.9659,2092.7446],[45.3796,13.9447,2079.074],[45.3782,13.9226,2127.1846],[45.3828,13.909,2152.7988],[45.4013,13.8978,1894.5798],[45.468,13.8894,1960.5717],[45.518,13.9051,1354.2539],[45.56,13.8965,1527.4786],[45.5694,13.8751,1244.8813],[45.5881,13.8456,1145.8759],[45.6182,13.829,1098.9247],[45.6409,13.8455,1181.6315],[45.6559,13.8418,1218.0577],[45.6785,13.8417,1408.8552],[45.7143,13.8545,1428.1179],[45.7635,13.9004,1948.8359],[45.8277,13.9425,1392.0586],[45.8824,13.9736,1324.1028],[45.958,14.0211,1510.4341],[45.9713,14.0413,2203.093],[45.9638,14.0579,2070.9534],[45.9639,14.0708,2078.5051],[45.9715,14.0873,2069.8457],[45.9756,14.0905,1986.6207]]],
[[[45.4601,14.6783,1994.6702],[45.455,14.6568,1905.9773],[45.4702,14.6554,1872.282],[45.4744,14.6844,1872.1298],[45.462,14.6863,1858.6132],[45.4601,14.6783,1994.6702]]]]}}