{"type":"Feature","properties":{"ISO3166-1-Alpha-3":"YEM","country":"Yemen","fill":"#FF0","id":"333","name":"Al Bayda'"},
"geometry":{"type": "Polygon","coordinates": [[[45.21505,14.49772,2070.6682],[45.18311,14.49842,1891.0405],[45.16389,14.5094,1941.874],[45.15144,14.52836,1846.1592],[45.14275,14.54958,1809.5374],[45.14027,14.57082,1801.4502],[45.13082,14.59384,1735.9629],[45.12942,14.6266,1858.6765],[45.12058,14.65983,1774.2986],[45.1117,14.71094,1744.7313],[45.11139,14.74112,1920.2374],[45.10663,14.76812,1654.1379],[45.08612,14.7899,1594.2961],[45.05883,14.80426,1546.5413],[45.00591,14.81426,1583.7081],[44.9637,14.77974,2001.2909],[44.92163,14.76357,1888.4338],[44.86871,14.75623,1704.2262],[44.79254,14.66675,2009.9619],[44.76753,14.56896,2330.1211],[44.74908,14.4276,2233.9482],[44.72397,14.37974,2287.5769],[44.69028,14.34845,2448.3354],[44.65379,14.33024,2609.145],[44.63038,14.2766,2492.9783],[44.66346,14.25665,2755.4404],[44.66263,14.2003,2349.5901],[44.67167,14.18559,2160.1914],[44.68345,14.18265,2048.1953],[44.71803,14.16169,2336.5601],[44.76195,14.17802,2666.603],[44.78092,14.18916,2877.9858],[44.81053,14.19417,2685.3821],[44.83786,14.19412,2432.9207],[44.85476,14.20055,2041.1273],[44.86778,14.21058,2023.8496],[44.88473,14.21384,2014.9489],[44.90659,14.22166,2031.2583],[44.93326,14.21769,1907.6885],[44.9747,14.2167,1796.9294],[45.00747,14.20515,1723.6456],[45.02979,14.17715,1683.5302],[45.04653,14.14787,1585.8807],[45.0748,14.11371,1794.7855],[45.14865,14.04563,1443.4729],[45.17412,14.01478,1672.3864],[45.1797,13.99054,1920.7458],[45.18048,13.96437,1394.1427],[45.23929,13.9639,1751.0441],[45.25541,13.96062,2087.4751],[45.28693,13.97724,2078.8813],[45.3091,13.99648,2041.1932],[45.36093,14.02868,1981.9622],[45.38357,14.03181,1993.3378],[45.39912,14.0232,2015.9351],[45.41168,13.97269,2127.7092],[45.40501,13.89659,1961.4523],[45.41679,13.89127,1780.239],[45.55549,13.87843,1443.7444],[45.58624,13.8682,1310.2009],[45.6019,13.84019,1137.3665],[45.63699,13.8228,1088.4579],[45.65745,13.8228,1114.6481],[45.67781,13.82479,1098.6993],[45.70572,13.83102,1130.1519],[45.73662,13.84414,1138.0964],[45.77755,13.86791,1296.3505],[45.94906,13.99116,1132.7179],[45.98596,14.02364,1288.7037],[46.00224,14.07085,2152.874],[46.02895,14.10831,2083.2383],[46.04384,14.19169,1829.933],[46.02213,14.212,1802.7408],[46.01841,14.22921,1758.3678],[46.00911,14.2465,1702.3228],[46.00787,14.25926,1700.7383],[46.00415,14.27109,1660.9944],[46.00487,14.28254,1701.1223],[46.00162,14.29368,1588.5717],[45.98239,14.30701,1624.2948],[45.94002,14.32409,1735.2279],[45.89428,14.33236,1831.2129],[45.8592,14.35527,1509.7339],[45.83703,14.38941,1775.7882],[45.7807,14.5365,1706.613],[45.7577,14.55495,1727.7529],[45.71471,14.56412,1637.119],[45.6958,14.57958,1373.4255],[45.69704,14.60373,1460.9135],[45.70448,14.62366,1709.3993],[45.71657,14.64451,1480.8386],[45.72184,14.66324,1553.7133],[45.70417,14.67781,1416.395],[45.68091,14.68897,1327.7152],[45.56857,14.68928,1939.6434],[45.5619,14.65639,1928.8735],[45.55379,14.64781,1936.3844],[45.53968,14.64102,1880.5049],[45.5296,14.64642,1876.7878],[45.52278,14.65717,1724.8145],[45.51736,14.66365,1784.4714],[45.50712,14.66569,1795.8887],[45.49839,14.65461,1880.6929],[45.49684,14.6404,1899.0662],[45.51503,14.60955,1765.2349],[45.51488,14.59175,1863.7902],[45.49875,14.58585,1741.6434],[45.47607,14.58888,1848.2476],[45.45049,14.59663,1954.0896],[45.41509,14.59379,2023.8253],[45.38233,14.57826,2074.9832],[45.35396,14.56826,2025.2972],[45.33453,14.5664,2118.5872],[45.32615,14.55622,2096.918],[45.33049,14.54575,2108.0742],[45.32367,14.53542,2117.6807],[45.28213,14.54444,2073.2212],[45.26549,14.53885,2069.6899],[45.25386,14.52516,2076.2444],[45.21505,14.49772,2070.6682]]]}}