{"type":"Feature","properties":{"GID_2":"YEM.4.2_1","GID_0":"YEM","country":"Yemen","GID_1":"YEM.4_1","province":"AlDali'","NL_NAME_1":"الضالع","county":"AlAzariq","VARNAME_2":"NA","NL_NAME_2":"الازارق","TYPE_2":"Muderiah","ENGTYPE_2":"District","CC_2":"3008","HASC_2":"NA","name":"Al_Azariq.county"},
"geometry":{"type": "MultiPolygon","coordinates": [[[[44.715,13.6833,1421.948],[44.7044,13.6824,1519.979],[44.6829,13.6849,1558.1282],[44.663,13.6897,1566.3993],[44.6467,13.697,1785.6617],[44.6238,13.7021,1682.5912],[44.6091,13.7071,1212.266],[44.6022,13.7126,1195.8086],[44.5931,13.7235,1123.4585],[44.5701,13.7387,1377.2725],[44.5603,13.7434,1460.134],[44.5518,13.7224,1846.1787],[44.5408,13.7089,1709.5129],[44.54,13.7002,1808.4799],[44.523,13.6811,1301.7029],[44.5176,13.6774,1191.939],[44.5187,13.6615,1338.556],[44.5203,13.6572,1423.6632],[44.5182,13.6303,957.0188],[44.5128,13.6153,896.0475],[44.5161,13.6019,1049.4253],[44.5148,13.5895,947.092],[44.533,13.582,911.719],[44.5408,13.5768,872.302],[44.5502,13.5749,816.662],[44.5515,13.5711,796.3665],[44.5537,13.5698,781.7886],[44.5632,13.5673,830.6039],[44.5749,13.5595,916.7916],[44.577,13.5501,831.1207],[44.587,13.5508,857.692],[44.5944,13.5568,989.0813],[44.595,13.5609,925.3501],[44.5882,13.57,895.8646],[44.5903,13.579,1121.2081],[44.6006,13.5791,1046.3701],[44.6223,13.5624,985.2096],[44.6404,13.5559,1031.8999],[44.6487,13.5557,1011.9298],[44.7007,13.5732,1552.1409],[44.7197,13.5747,1139.4915],[44.7354,13.5793,1093.6149],[44.7459,13.588,1254.9454],[44.7545,13.6014,1168.8221],[44.7607,13.608,1245.199],[44.7611,13.6242,1590.0491],[44.7473,13.6445,1410.578],[44.715,13.6833,1421.948]]]]}}