{"type":"Feature","properties":{"GID_2":"YEM.18.6_1","GID_0":"YEM","country":"Yemen","GID_1":"YEM.18_1","province":"Sa`dah","NL_NAME_1":"صعدة","county":"Haydan","VARNAME_2":"NA","NL_NAME_2":"حيدان","TYPE_2":"Muderiah","ENGTYPE_2":"District","CC_2":"2208","HASC_2":"NA","name":"Haydan.county"},
"geometry":{"type": "MultiPolygon","coordinates": [[[[43.6656,16.6531,1483.7411],[43.6622,16.6656,1485.8833],[43.6432,16.6857,1523.4299],[43.6357,16.7146,1585.2679],[43.6406,16.7279,1586.5352],[43.6356,16.7398,1606.4305],[43.638,16.7483,1653.9723],[43.627,16.7552,1732.5818],[43.5677,16.7482,1846.3262],[43.5247,16.7355,2027.8481],[43.512,16.7415,2038.3491],[43.4923,16.7717,2388.9971],[43.4646,16.7951,2480.4275],[43.4509,16.7927,2514.3735],[43.4461,16.7955,2351.6655],[43.4358,16.8127,2325.1724],[43.4363,16.8208,2367.7517],[43.4279,16.8242,2455.6418],[43.4207,16.8235,2491.5],[43.4073,16.8178,1937.5813],[43.4021,16.8271,1890.4647],[43.3981,16.829,1872.9858],[43.3979,16.8373,1854.4825],[43.391,16.845,1866.3066],[43.3848,16.8472,1719.5103],[43.3777,16.8466,1483.7739],[43.3472,16.8284,826.7325],[43.3403,16.8279,720.7978],[43.3358,16.7909,865.2442],[43.3176,16.7661,625.1127],[43.3074,16.7491,470.6316],[43.3043,16.7398,641.8368],[43.3068,16.7237,711.7999],[43.313,16.7079,628.11],[43.3123,16.7009,474.3255],[43.321,16.6896,515.103],[43.323,16.6831,695.097],[43.3234,16.6103,705.9236],[43.3491,16.6159,701.4069],[43.363,16.6217,783.3202],[43.3682,16.6282,712.8151],[43.3808,16.6236,710.5516],[43.3881,16.633,977.9357],[43.3981,16.6295,805.0886],[43.3986,16.6403,1090.0286],[43.416,16.6434,1004.2659],[43.4169,16.6448,1058.5854],[43.4741,16.6413,1405.3091],[43.5317,16.6299,1538.5714],[43.5814,16.6434,1604.0308],[43.6656,16.6531,1483.7411]]]]}}