{"type":"Feature","properties":{"GID_2":"YEM.13.12_1","GID_0":"YEM","country":"Yemen","GID_1":"YEM.13_1","province":"Hajjah","NL_NAME_1":"حجه","county":"BaniAlAwam","VARNAME_2":"NA","NL_NAME_2":"بنيالعوام","TYPE_2":"Muderiah","ENGTYPE_2":"District","CC_2":"1727","HASC_2":"NA","name":"Bani_Al_Awam.county"},
"geometry":{"type": "MultiPolygon","coordinates": [[[[43.5737,15.5432,750.0839],[43.5802,15.5426,822.8173],[43.5837,15.5353,875.5979],[43.5924,15.5378,984.4224],[43.596,15.5408,835.375],[43.6067,15.5419,900.7194],[43.6132,15.5408,909.6506],[43.6173,15.535,909.0892],[43.6284,15.5313,937.1274],[43.6337,15.5358,1029.7407],[43.6356,15.543,1065.1536],[43.6476,15.5562,1207.0623],[43.6505,15.5619,1259.8488],[43.6677,15.5782,1836.527],[43.669,15.5858,1938.8495],[43.6656,15.5887,1875.1698],[43.658,15.5896,2092.5854],[43.6509,15.5928,1883.6655],[43.6427,15.5985,1925.1517],[43.6408,15.6046,2014.1241],[43.6406,15.6246,2042.4836],[43.6312,15.6226,1746.9368],[43.6271,15.6111,1542.4825],[43.6213,15.6081,1452.6147],[43.6175,15.6107,1568.9381],[43.6137,15.6105,1534.158],[43.6061,15.6205,1756.8657],[43.5952,15.6261,1693.8136],[43.5897,15.6308,1768.1418],[43.5837,15.6283,1836.2109],[43.5806,15.6252,1669.8506],[43.5804,15.6189,1684.9827],[43.5838,15.6165,1550.5328],[43.5804,15.612,1428.5945],[43.5763,15.6095,1307.562],[43.567,15.6075,1195.9855],[43.5635,15.6029,1045.8042],[43.5635,15.6005,1089.2393],[43.5707,15.5942,1317.1841],[43.5721,15.5901,1259.4528],[43.5611,15.5762,1207.9197],[43.5536,15.5709,920.1056],[43.5502,15.562,846.4992],[43.5504,15.5576,778.7355],[43.5476,15.5563,753.0151],[43.5467,15.5464,691.8903],[43.5663,15.5424,742.8529],[43.5737,15.5432,750.0839]]]]}}