{"type":"Feature","properties":{"GID_2":"YEM.15.14_1","GID_0":"YEM","country":"Yemen","GID_1":"YEM.15_1","province":"Lahij","NL_NAME_1":"لحج","county":"Yafa'a","VARNAME_2":"NA","NL_NAME_2":"يافع","TYPE_2":"Muderiah","ENGTYPE_2":"District","CC_2":"2502","HASC_2":"NA","name":"Yafa'a.county"},
"geometry":{"type": "MultiPolygon","coordinates": [[[[45.2987,13.7975,1953.7181],[45.3236,13.8086,1658.2104],[45.342,13.8085,1464.7473],[45.3455,13.8175,1370.8456],[45.3294,13.831,1649.5112],[45.3237,13.8333,1674.4746],[45.3122,13.8536,1988.9736],[45.306399999999996,13.8671,1971.2483],[45.3065,13.8817,2137.4399],[45.3088,13.885,2078.1335],[45.3113,13.8992,2193.8577],[45.3249,13.909,2366.8433],[45.3307,13.9108,2398.1523],[45.3237,13.9149,2240.1514],[45.2896,13.9257,2093.5386],[45.2665,13.9305,2152.7947],[45.2501,13.9317,2159.0747],[45.2245,13.9287,2172.5212],[45.2038,13.9204,2130.322],[45.1777,13.9044,1761.49],[45.1282,13.9025,1274.2382],[45.1195,13.8962,1107.7571],[45.1175,13.8895,1150.955],[45.1122,13.8875,1029.3953],[45.113,13.8796,1265.6709],[45.111,13.8736,1178.0551],[45.1053,13.8701,1128.5076],[45.1041,13.8645,1138.4636],[45.0572,13.833,1719.553],[45.0772,13.8018,1149.0319],[45.0809,13.8095,907.1762],[45.0894,13.8103,1165.4442],[45.1019,13.8229,995.8677],[45.1291,13.8364,1193.1292],[45.1486,13.8391,1322.6997],[45.169,13.8346,1610.8228],[45.1772,13.8225,2099.3623],[45.1874,13.8201,2132.7759],[45.2012,13.7946,2285.6936],[45.205,13.7924,2194.1128],[45.2157,13.7951,2208.5894],[45.2322,13.8058,1975.7405],[45.2373,13.8109,2102.1899],[45.2465,13.8087,1776.9515],[45.2481,13.8059,1802.5559],[45.2481,13.8015,1968.231],[45.243899999999996,13.793,1920.8192],[45.2506,13.796,1979.3821],[45.2531,13.8013,2209.3857],[45.2563,13.8029,2269.375],[45.2764,13.7974,2269.1831],[45.2987,13.7975,1953.7181]]]]}}