{"type":"Feature","properties":{"GID_2":"YEM.4.4_1","GID_0":"YEM","country":"Yemen","GID_1":"YEM.4_1","province":"AlDali'","NL_NAME_1":"الضالع","county":"AlHussein","VARNAME_2":"NA","NL_NAME_2":"الحصين","TYPE_2":"Muderiah","ENGTYPE_2":"District","CC_2":"3005","HASC_2":"NA","name":"Al_Hussein.county"},
"geometry":{"type": "MultiPolygon","coordinates": [[[[44.8072,13.7243,1366.0691],[44.8166,13.7294,1383.2163],[44.8277,13.7322,1306.6489],[44.8392,13.7323,1492.0876],[44.8513,13.7185,1429.1509],[44.8676,13.718,1846.1704],[44.8802,13.7234,2113.3738],[44.8928,13.7365,1913.374],[44.9085,13.745,1318.5265],[44.9337,13.7504,1720.1384],[44.9416,13.7556,1434.8879],[44.93,13.7644,1474.9574],[44.9051,13.7783,1831.364],[44.8435,13.7968,1797.5333],[44.8276,13.8122,1661.1145],[44.8162,13.832,1892.1025],[44.8058,13.8398,1799.2197],[44.8035,13.8516,2065.127],[44.788,13.851,1840.8234],[44.7653,13.8599,1443.9938],[44.7472,13.8588,1739.6416],[44.7471,13.8553,1544.1637],[44.7395,13.8439,1362.6837],[44.7266,13.8376,1324.4021],[44.7182,13.8314,1304.7979],[44.7153,13.8197,1305.9946],[44.718,13.8124,1297.019],[44.7253,13.8075,1301.2607],[44.7345,13.7963,1315.5969],[44.7391,13.7929,1322.894],[44.7483,13.7907,1344.5286],[44.7518,13.7862,1356.1626],[44.7599,13.7676,1374.5901],[44.7814,13.7515,1442.8788],[44.7978,13.7311,1502.325],[44.8072,13.7243,1366.0691]]]]}}