{"type":"Feature","properties":{"GID_2":"YEM.1.6_1","GID_0":"YEM","country":"Yemen","GID_1":"YEM.1_1","province":"`Adan","NL_NAME_1":"عدن","county":"Craiter","VARNAME_2":"NA","NL_NAME_2":"كريتر","TYPE_2":"Muderiah","ENGTYPE_2":"District","CC_2":"2407","HASC_2":"NA","name":"Craiter.county"},
"geometry":{"type": "MultiPolygon","coordinates": [[[[45.0198,12.7722,170.5801],[45.0196,12.754,0.0],[45.026,12.7537,0.0],[45.0268,12.749,0.0],[45.0307,12.7529,0.0],[45.0346,12.7537,0.0],[45.0363,12.7524,0.0],[45.0371,12.7555,83.9206],[45.0407,12.7571,9.3986],[45.0382,12.7612,17.4446],[45.0429,12.7668,5.1884],[45.0507,12.7657,37.5711],[45.0546,12.761,4.2685],[45.0555,12.7671,0.0],[45.0476,12.7687,41.6054],[45.046,12.7715,3.1016],[45.0479,12.776,0.0],[45.0513,12.7785,0.0],[45.0515,12.7824,0.0],[45.049,12.7824,0.0],[45.0471,12.779,33.0373],[45.0454,12.779,1.0719],[45.0407,12.7887,4.0077],[45.0349,12.789,60.1148],[45.03,12.7963,1.6456],[45.0198,12.783,142.1937],[45.0198,12.7722,170.5801]]]]}}