{"type":"Feature","properties":{"GID_2":"YEM.12.29_1","GID_0":"YEM","country":"Yemen","GID_1":"YEM.12_1","province":"Hadramawt","NL_NAME_1":"حضرموت","county":"Yabuth","VARNAME_2":"NA","NL_NAME_2":"يبعث","TYPE_2":"Muderiah","ENGTYPE_2":"District","CC_2":"1923","HASC_2":"NA","name":"Yabuth.county"},
"geometry":{"type": "MultiPolygon","coordinates": [[[[47.621,14.9548,1400.9913],[47.5652,14.9332,1344.8442],[47.5383,14.9186,1283.6538],[47.4764,14.8903,1360.9641],[47.4518,14.8633,1158.0745],[47.4381,14.8352,1254.0068],[47.4717,14.8069,1181.2336],[47.5216,14.77,1197.8799],[47.5676,14.7151,1097.0155],[47.5941,14.6768,952.3634],[47.5878,14.6371,1103.2628],[47.5854,14.6315,989.6251],[47.7953,14.5171,1086.3394],[47.9123,14.4817,1046.9761],[47.9682,14.5688,862.0724],[48.0104,14.6626,877.0648],[48.0243,14.6878,979.1587],[48.0335,14.7461,1223.1418],[47.986,14.7562,1170.181],[47.8529,14.8108,1242.0442],[47.7827,14.8533,1300.5986],[47.7561,14.8594,1330.2179],[47.7066,14.889099999999999,1429.4454],[47.621,14.9548,1400.9913]]]]}}