{"type":"Feature","properties":{"GID_2":"YEM.2.4_1","GID_0":"YEM","country":"Yemen","GID_1":"YEM.2_1","province":"Abyan","NL_NAME_1":"أبين","county":"Jayshan","VARNAME_2":"NA","NL_NAME_2":"جيشان","TYPE_2":"Muderiah","ENGTYPE_2":"District","CC_2":"1203","HASC_2":"NA","name":"Jayshan.county"},
"geometry":{"type": "MultiPolygon","coordinates": [[[[46.149,14.0183,1690.4751],[46.1798,14.0143,1739.9989],[46.235,14.0464,1372.0886],[46.2905,14.0825,1665.8357],[46.3078,14.1177,2258.7507],[46.3368,14.1707,1818.8588],[46.3411,14.201,2090.2351],[46.3051,14.2552,1942.2112],[46.2948,14.2807,1842.6528],[46.2402,14.3144,1470.8124],[46.1876,14.3182,1665.2052],[46.1071,14.2774,1701.0913],[46.0336,14.2351,1610.958],[46.0036,14.1069,1970.7119],[46.037,14.1231,1976.0317],[46.0625,14.127,2011.1221],[46.092,14.1236,2077.5542],[46.1117,14.1171,1998.8007],[46.1261,14.0977,2187.3708],[46.1304,14.0713,1887.3052],[46.1313,14.0451,2198.3398],[46.149,14.0183,1690.4751]]]]}}