{"type":"Feature","properties":{"GID_1":"YEM.18_1","GID_0":"YEM","country":"Yemen","province":"Sa`dah","VARNAME_1":"Sa'ada|Saadah|Sa'da|Saidah|Sa'ad","NL_NAME_1":"صعدة","TYPE_1":"Muhafazah","ENGTYPE_1":"Governorate","CC_1":"22","HASC_1":"YE.SD","ISO_1":"NA","name":"Sa`dah.province"},
"geometry":{"type": "MultiPolygon","coordinates": [[[[43.2237,16.6476,242.5496],[43.2235,16.6476,242.5496],[43.2262,16.6429,245.245],[43.2237,16.6476,242.5496]]],
[[[43.23052587469487,16.642187794955248,275.0075],[43.2305,16.6422,275.0075],[43.2272,16.6417,231.6396],[43.23052587469487,16.642187794955248,275.0075]]],
[[[43.2347,16.6455,267.0195],[43.2347,16.6428,262.6144],[43.23052587469487,16.642187794955248,275.0075],[43.2464,16.6347,269.8176],[43.2498,16.6355,324.3145],[43.2625,16.6302,445.5381],[43.2697,16.6318,490.5773],[43.2917,16.6161,698.9072],[43.3046,16.609,382.3073],[43.3125,16.6107,471.6378],[43.3235,16.6103,705.9236],[43.3491,16.6159,701.4069],[43.363,16.6217,783.3202],[43.3682,16.6282,712.8151],[43.3808,16.6236,710.5516],[43.3881,16.633,977.9357],[43.3981,16.6295,805.0886],[43.3986,16.6403,1090.0286],[43.416,16.6434,1004.2659],[43.4169,16.6448,1058.5854],[43.4741,16.6413,1405.3091],[43.5317,16.6299,1538.5714],[43.5814,16.6434,1604.0308],[43.6698,16.6536,1465.8301],[43.7144,16.6791,1674.5138],[43.7243,16.6874,1625.4399],[43.7383,16.6912,1771.7872],[43.7854,16.6899,1863.8198],[43.8229,16.676,1819.8317],[43.8652,16.6653,1890.424],[43.9953,16.6534,1631.597],[44.0488,16.6537,1567.272],[44.0666,16.6864,1580.0159],[44.1463,16.7356,2340.6855],[44.1469,16.7386,2349.4211],[44.1826,16.7775,2233.8789],[44.2496,16.8296,1686.1813],[44.3031,16.8837,1646.0941],[44.3701,16.9443,1619.7617],[44.4417,16.9984,1783.2786],[44.5066,17.0374,1531.2509],[44.5842,17.0557,1592.3976],[44.6411,17.0636,1587.8604],[44.8879,17.0639,1256.8765],[44.8886,17.4333,1092.3297],[44.65,17.4333,1139.4192],[44.5667,17.4056,1188.1575],[44.4667,17.4333,1205.347],[44.3661,17.4333,1506.099],[44.227,17.4179,1673.4475],[44.2083,17.4139,1735.6548],[44.1903,17.4146,1856.4673],[44.1381,17.4089,1606.8687],[44.1308,17.3836,1552.3066],[44.1108,17.3664,1484.811],[44.1006,17.3661,1451.5673],[44.0667,17.4058,1543.9696],[44.0496,17.4049,1442.9941],[44.0233,17.3913,1778.4346],[44.0114,17.4025,1373.735],[43.9667,17.3306,1759.4349],[43.9056,17.3417,2127.4092],[43.8319,17.3389,1796.4161],[43.8058,17.3566,1913.3698],[43.7889,17.375,2051.8159],[43.7678,17.3744,1951.4948],[43.6833,17.3667,2008.0308],[43.6178,17.4261,2217.6021],[43.5665,17.4834,2241.4731],[43.5272,17.5142,2381.8755],[43.5203,17.5091,2359.1919],[43.5062,17.524,2413.4814],[43.4957,17.5269,2399.5806],[43.4846,17.5451,2470.0237],[43.4645,17.5524,2477.8535],[43.4454,17.55,2377.4006],[43.4313,17.5639,1915.0734],[43.4196,17.5658,1939.3066],[43.3992,17.5566,1961.0044],[43.3794,17.5554,1941.7073],[43.3756,17.544,1733.4167],[43.3547,17.5564,1631.1317],[43.3359,17.5398,1754.5687],[43.3102,17.5277,1826.3466],[43.3047,17.5319,1794.2954],[43.3027,17.5275,1791.6815],[43.2854,17.5173,1488.3156],[43.2604,17.4899,1362.8212],[43.2408,17.4805,1415.7557],[43.2565,17.4578,1861.0468],[43.2255,17.4262,2340.0425],[43.2471,17.4015,1597.8215],[43.2348,17.3892,1407.4202],[43.228,17.3855,1416.3397],[43.2588,17.3623,1669.24],[43.2768,17.3582,1984.5521],[43.326,17.3284,2309.3047],[43.3365,17.304,2352.8547],[43.313,17.3002,1658.0297],[43.31,17.3011,1497.8232],[43.3098,17.2993,1454.728],[43.3024,17.2932,1932.5623],[43.2722,17.2911,919.0316],[43.2672,17.2922,897.5568],[43.2559,17.2785,938.1995],[43.2448,17.2757,890.5417],[43.2324,17.2689,755.5352],[43.2017,17.2588,628.3273],[43.1999,17.2427,616.0295],[43.2163,17.2104,637.3184],[43.1892,17.1889,696.8569],[43.1929,17.1885,645.6049],[43.1903,17.1855,638.7725],[43.1816,17.1825,613.7847],[43.1708,17.1727,900.8275],[43.1779,17.1307,510.5106],[43.1638,17.1254,511.2217],[43.158,17.1141,515.6385],[43.1602,17.087,530.1049],[43.1853,17.0986,1134.554],[43.2081,17.0783,651.7344],[43.2272,17.0754,733.6674],[43.2288,17.0589,997.8779],[43.2397,17.0474,1060.9497],[43.2486,17.0153,1344.0559],[43.2398,17.0238,1277.9946],[43.2375,17.0293,1243.9757],[43.2309,17.0295,1420.3539],[43.2323,17.0221,1233.0315],[43.2275,17.0207,1072.6027],[43.2254,17.0114,1191.4348],[43.2146,17.0219,1220.9718],[43.2115,17.0226,1131.0093],[43.2073,17.021,1018.9291],[43.2027,17.0101,1079.2163],[43.198,17.0139,1238.9133],[43.1957,17.0135,1251.4719],[43.191,17.0161,1259.666],[43.1919,17.018,1238.4708],[43.1904,17.0248,1151.7123],[43.1921,17.0262,1098.5042],[43.182,17.0304,893.8281],[43.1809,17.0321,810.9847],[43.1795,17.0302,879.2847],[43.179,17.0168,1084.6023],[43.1841,17.0142,1182.0748],[43.18,17.009,1259.5591],[43.177,16.9933,1350.4961],[43.1776,16.9898,1224.3484],[43.1817,16.9839,1226.7345],[43.1812,16.9805,1198.4138],[43.1833,16.979,1213.438],[43.1777,16.978,1040.8667],[43.1781,16.9633,869.8358],[43.1948,16.9551,940.1964],[43.1937,16.9506,956.7027],[43.1947,16.9445,809.2917],[43.1755,16.9369,460.6599],[43.1723,16.9314,421.1721],[43.1542,16.9289,335.0209],[43.1437,16.9246,291.9099],[43.1381,16.9176,419.7208],[43.1375,16.9106,346.7246],[43.1395,16.902,278.976],[43.1454,16.9001,268.6809],[43.1498,16.8903,279.5718],[43.1516,16.8801,262.1411],[43.176,16.8669,405.9148],[43.1751,16.8579,450.1815],[43.18,16.8491,313.2722],[43.19,16.8483,299.1719],[43.1939,16.8516,337.546],[43.1993,16.8533,361.4243],[43.2023,16.8497,337.3531],[43.2213,16.8382,518.307],[43.2246,16.8233,283.2598],[43.2326,16.8069,296.8489],[43.2524,16.8047,306.6881],[43.2616,16.8009,348.6812],[43.2666,16.7949,484.5725],[43.2625,16.787,449.2489],[43.2574,16.7863,439.71],[43.2518,16.7793,326.4944],[43.2594,16.7735,349.7413],[43.2531,16.7697,339.3589],[43.2588,16.7553,334.5087],[43.268,16.7534,362.5476],[43.2755,16.7469,367.0057],[43.2674,16.7443,340.4305],[43.2556,16.7374,371.4037],[43.2514,16.7426,326.435],[43.2479,16.7438,327.082],[43.2397,16.7414,289.9114],[43.2321,16.7427,330.3501],[43.2263,16.7459,355.0444],[43.224,16.7372,336.9133],[43.2305,16.7305,286.2917],[43.2117,16.7097,235.6593],[43.2103,16.7007,250.4118],[43.2192,16.7001,263.0068],[43.2276,16.7019,270.6261],[43.2296,16.6929,264.6726],[43.2332,16.6851,282.8283],[43.2338,16.6761,353.9376],[43.2269,16.6696,280.1517],[43.2364,16.667,386.1867],[43.2347,16.6595,370.3824],[43.2347,16.6455,267.0195]]]]}}