{"type":"Feature","properties":{"ISO3166-1-Alpha-3":"YEM","country":"Yemen","fill":"#000","id":"150","name":"Sa`dah"},
"geometry":{"type": "Polygon","coordinates": [[[43.63845,17.43851,2044.3717],[43.61954,17.45883,2057.1636],[43.57706,17.48296,2192.2427],[43.50337,17.51345,2194.9995],[43.48714,17.51748,2275.3708],[43.45314,17.51878,2422.2004],[43.43495,17.52286,2413.179],[43.41288,17.51997,2235.999],[43.39103,17.51196,1972.7648],[43.34198,17.48245,1703.0383],[43.30307,17.45904,1550.7465],[43.21595,17.38721,1414.9501],[43.16789,17.33052,1051.4666],[43.16504,17.32592,1034.2971],[43.2222,17.30783,823.0854],[43.24184,17.29342,822.9404],[43.25217,17.27197,839.3451],[43.24861,17.25192,773.9946],[43.22618,17.24127,695.9608],[43.20334,17.23631,724.0466],[43.17688,17.22551,734.7114],[43.15616,17.2097,492.13],[43.15006,17.18996,506.6438],[43.15099,17.16686,726.5706],[43.1453,17.14655,675.8428],[43.12432,17.10697,325.7812],[43.11843,17.08625,477.815],[43.12246,17.07012,716.0942],[43.13032,17.05348,927.4047],[43.136,17.03142,622.5596],[43.1359,17.00961,1026.5471],[43.13156,16.99044,773.7736],[43.11544,16.95183,248.3485],[43.10872,16.92698,237.9531],[43.11264,16.91003,259.6866],[43.13373,16.87101,247.8261],[43.14582,16.83448,224.3561],[43.15734,16.82538,222.6662],[43.19445,16.81546,254.1583],[43.20473,16.80771,255.3897],[43.2115,16.79686,256.7534],[43.21285,16.78389,265.4116],[43.20861,16.7734,257.2181],[43.20106,16.76812,391.7672],[43.19186,16.76425,251.9667],[43.18287,16.758,226.6798],[43.16851,16.73722,201.5135],[43.17068,16.72348,191.8051],[43.17977,16.70823,194.8396],[43.18568,16.68485,266.1032],[43.20618,16.67232,221.6901],[43.37423,16.62583,713.9479],[43.39227,16.6164,779.9302],[43.41289,16.6133,1166.8292],[43.48864,16.61785,1262.8385],[43.5999,16.60852,1560.7518],[43.72977,16.63862,1920.9803],[43.7493,16.64627,1895.0452],[43.77741,16.66102,1765.9766],[43.79167,16.67092,1861.7166],[43.81793,16.67898,1787.0032],[43.85684,16.67852,1829.0195],[43.92774,16.66149,1747.7845],[44.03001,16.62064,1701.7253],[44.07517,16.61183,1800.2698],[44.1177,16.6109,1589.6085],[44.18876,16.63147,1548.7721],[44.20286,16.66622,1702.9526],[44.21542,16.7165,2230.1743],[44.23578,16.75298,2114.2021],[44.24849,16.77027,2182.0227],[44.27051,16.78668,2193.2869],[44.28405,16.79295,2162.4277],[44.2949,16.79606,2137.9058],[44.30312,16.80218,2130.4065],[44.31753,16.80869,2123.1401],[44.35898,16.83445,2251.1428],[44.37696,16.85362,2243.415],[44.39128,16.85592,2155.1555],[44.40135,16.86432,2052.6855],[44.41918,16.8944,2010.0061],[44.43251,16.90607,1865.5066],[44.47287,16.96062,1800.5256],[44.49086,16.97922,1909.9581],[44.6231,17.04333,1605.3944],[44.67818,17.0618,1540.1749],[44.7449,17.07614,1537.7085],[44.80882,17.07772,1311.3978],[44.86763,17.07149,1277.8628],[44.95021,17.11144,1199.3809],[44.97247,17.4297,1068.2614],[44.84902,17.43051,1106.9885],[44.64645,17.43181,1140.0234],[44.62465,17.42721,1140.0516],[44.56196,17.40447,1190.8312],[44.5338,17.40287,1191.2631],[44.46517,17.41646,1207.0901],[44.40414,17.41873,1234.9042],[44.30735,17.40896,1588.0747],[44.23056,17.39186,1519.8333],[44.21154,17.39062,1535.3989],[44.16938,17.40235,1793.6259],[44.14902,17.40483,1789.0333],[44.13429,17.3947,1432.5303],[44.11966,17.36995,1579.604],[44.10447,17.35197,1800.4691],[44.08535,17.34344,1860.8622],[44.05936,17.34706,1774.4009],[44.02096,17.36602,1516.5167],[44.00391,17.36783,1694.5133],[43.98231,17.35682,1718.5759],[43.96711,17.33956,1551.2258],[43.9543,17.32003,1939.3177],[43.93869,17.3052,1989.7646],[43.91513,17.30184,1959.1819],[43.90329,17.30432,2091.1233],[43.89735,17.30737,2082.1755],[43.89404,17.31217,2096.4204],[43.89006,17.32018,2126.6389],[43.89265,17.34008,1758.2584],[43.89265,17.35104,1767.4199],[43.88671,17.35367,1535.9194],[43.86324,17.34695,1592.077],[43.84578,17.34618,1743.3542],[43.80619,17.34959,1879.6226],[43.76878,17.34551,1896.4849],[43.75064,17.34566,1953.3723],[43.73064,17.35243,1924.6433],[43.6893,17.38385,1974.6902],[43.63845,17.43851,2044.3717]]]}}