{"type":"Feature","properties":{"GID_2":"YEM.17.2_1","GID_0":"YEM","country":"Yemen","GID_1":"YEM.17_1","province":"Raymah","NL_NAME_1":"ريمة","county":"AlJafariyah","VARNAME_2":"NA","NL_NAME_2":"الجعفرية","TYPE_2":"Muderiah","ENGTYPE_2":"District","CC_2":"3105","HASC_2":"NA","name":"Al_Jafariyah.county"},
"geometry":{"type": "MultiPolygon","coordinates": [[[[43.5347,14.3776,368.1549],[43.5445,14.3697,365.9759],[43.5624,14.371,385.0573],[43.5746,14.3762,426.2502],[43.5741,14.383,418.3274],[43.5765,14.3885,421.9849],[43.5847,14.3941,427.1106],[43.5907,14.4009,438.4178],[43.6013,14.4057,513.2926],[43.6078,14.4038,475.2801],[43.6114,14.4094,473.7705],[43.6175,14.4118,478.1669],[43.6309,14.4214,512.8517],[43.643,14.4326,526.1558],[43.6442,14.4433,575.2614],[43.6485,14.4533,563.4357],[43.6464,14.4557,595.6395],[43.6472,14.4613,589.4641],[43.65,14.4621,618.0547],[43.6558,14.468,673.1247],[43.6423,14.4903,800.7784],[43.6301,14.5008,799.1842],[43.6211,14.5052,1016.1651],[43.6137,14.5203,1160.9199],[43.6102,14.5219,1336.4407],[43.6088,14.5257,1337.9803],[43.6092,14.5373,1516.0342],[43.6123,14.546,1786.6172],[43.6125,14.5516,2044.7462],[43.6094,14.5543,2246.5569],[43.5969,14.5499,1580.5845],[43.5935,14.5541,2032.4796],[43.594,14.5653,1774.377],[43.5976,14.571,1537.3134],[43.6039,14.5744,1362.8005],[43.6048,14.5823,1230.9532],[43.5982,14.5914,1056.1605],[43.5967,14.5987,982.449],[43.5927,14.6008,857.5654],[43.5886,14.606,1105.5669],[43.586,14.6144,832.4645],[43.5867,14.6194,866.0856],[43.6042,14.6324,1059.2852],[43.607,14.6377,1254.8562],[43.6134,14.6409,1531.6616],[43.6134,14.6448,1271.7069],[43.6084,14.6464,1640.563],[43.6006,14.6536,1877.2178],[43.5962,14.6548,1692.3894],[43.5947,14.6583,1494.0852],[43.5953,14.6628,1385.6057],[43.5901,14.6678,1038.4791],[43.5879,14.667,1080.0667],[43.5797,14.6695,1078.599],[43.5741,14.6661,864.7071],[43.5746,14.6597,1166.3165],[43.5876,14.6505,1951.3473],[43.5859,14.6459,1878.438],[43.5803,14.6404,1700.825],[43.5708,14.6395,1372.3591],[43.5669,14.6433,1157.543],[43.5621,14.6445,1075.8531],[43.5573,14.6512,756.6255],[43.5534,14.6512,758.4984],[43.5474,14.6473,807.4402],[43.5509,14.6432,996.1927],[43.5496,14.6389,1143.0602],[43.5527,14.6339,1107.3835],[43.5514,14.6263,885.2625],[43.5423,14.6262,887.1155],[43.5354,14.6287,1146.7422],[43.5179,14.6283,656.6892],[43.5143,14.6185,497.979],[43.5118,14.6016,556.1363],[43.5091,14.5935,318.9213],[43.5076,14.5781,342.1798],[43.5109,14.5528,337.4427],[43.5247,14.5151,420.0401],[43.5337,14.4802,404.7904],[43.5394,14.4691,472.6817],[43.5453,14.4489,378.203],[43.5468,14.4269,437.9064],[43.5416,14.4002,520.972],[43.5347,14.3776,368.1549]]]]}}