{"type":"Feature","properties":{"GID_2":"YEM.8.7_1","GID_0":"YEM","country":"Yemen","GID_1":"YEM.8_1","province":"AlMahwit","NL_NAME_1":"المحويت","county":"Hufash","VARNAME_2":"NA","NL_NAME_2":"حفاش","TYPE_2":"Muderiah","ENGTYPE_2":"District","CC_2":"2706","HASC_2":"NA","name":"Hufash.county"},
"geometry":{"type": "MultiPolygon","coordinates": [[[[43.3813,15.412,912.3652],[43.3872,15.4046,1071.4585],[43.3898,15.3971,1225.8719],[43.3859,15.3962,1208.2948],[43.3847,15.3903,1367.275],[43.3887,15.3811,1256.2988],[43.3883,15.3735,1371.606],[43.3922,15.3556,981.883],[43.3907,15.3468,833.2744],[43.3969,15.324,689.0715],[43.397,15.3048,580.6851],[43.4016,15.2792,513.2496],[43.4219,15.2736,732.0085],[43.4262,15.2849,697.9021],[43.4313,15.2928,697.6788],[43.4369,15.3128,920.2271],[43.4446,15.3105,965.4146],[43.4606,15.319,1379.42],[43.4744,15.3213,1406.0148],[43.4803,15.326,1325.1948],[43.4813,15.3453,971.2084],[43.4767,15.3704,1139.1774],[43.4767,15.3793,1258.1041],[43.4659,15.3821,1333.6882],[43.4607,15.3909,1270.2216],[43.4635,15.4025,1028.5022],[43.4628,15.4052,1047.8026],[43.4608,15.4061,1060.7727],[43.4574,15.4316,966.5499],[43.4511,15.436,845.3267],[43.432,15.43,960.4979],[43.425,15.4317,856.3889],[43.4114,15.4552,749.3221],[43.407,15.4759,594.286],[43.384,15.4746,552.633],[43.378,15.4712,499.364],[43.3744,15.4718,518.9],[43.3727,15.4694,489.8423],[43.3745,15.4665,502.9083],[43.3722,15.464,503.7346],[43.3716,15.4583,794.0931],[43.3775,15.4543,646.9471],[43.384,15.4452,601.2865],[43.3813,15.412,912.3652]]]]}}