{"type":"Feature","properties":{"GID_2":"YEM.11.4_1","GID_0":"YEM","country":"Yemen","GID_1":"YEM.11_1","province":"Dhamar","NL_NAME_1":"ذمار","county":"DawranAness","VARNAME_2":"NA","NL_NAME_2":"ضوراناًنس","TYPE_2":"Muderiah","ENGTYPE_2":"District","CC_2":"2011","HASC_2":"NA","name":"Dawran_Aness.county"},
"geometry":{"type": "MultiPolygon","coordinates": [[[[44.2616,14.655,2291.7075],[44.2955,14.6613,2395.1914],[44.3109,14.6685,2338.1311],[44.324,14.6786,2323.675],[44.3297,14.6881,2316.572],[44.3279,14.6975,2320.5479],[44.3256,14.7017,2320.4998],[44.3148,14.6964,2325.7627],[44.2988,14.6969,2288.1038],[44.2919,14.6991,2351.3674],[44.2885,14.7035,2269.8508],[44.289,14.7186,2416.5098],[44.2838,14.7236,2409.3796],[44.2735,14.728,2360.2581],[44.261,14.7263,2100.7891],[44.254,14.7402,2209.415],[44.2572,14.7574,2281.5881],[44.2359,14.8519,2728.3826],[44.2364,14.8809,2551.0669],[44.227,14.9241,2466.3848],[44.2212,14.9429,2470.5293],[44.214,14.9625,2701.9287],[44.2068,14.9701,2467.8564],[44.1798,14.9692,2008.3696],[44.1758,14.9889,1569.5879],[44.1564,14.9979,1532.7676],[44.1341,15.0027,1584.9946],[44.0924,14.999,1439.2781],[44.0486,14.9988,1320.8068],[44.0321,14.9926,1318.6764],[44.0218,14.9794,1313.9468],[44.0224,14.9714,1256.5356],[44.0165,14.9688,1296.9604],[44.0158,14.9661,1276.3588],[44.0187,14.9642,1251.2451],[44.0182,14.9617,1276.0483],[44.0121,14.9616,1243.2168],[44.0046,14.9543,1227.4865],[44.0018,14.9539,1254.2251],[43.9936,14.9474,1210.6104],[43.9901,14.9469,1200.8478],[43.9875,14.9443,1199.7217],[43.9859,14.939,1193.1877],[43.9804,14.9375,1304.951],[43.9773,14.9325,1181.9197],[43.9692,14.9321,1182.2015],[43.9521,14.9125,1153.2627],[43.9467,14.9093,1162.1179],[43.9308,14.909,1118.157],[43.9267,14.9063,1125.4873],[43.925,14.9081,1125.5669],[43.9241,14.9054,1141.2825],[43.922,14.9046,1118.8687],[43.9203,14.9061,1105.5803],[43.9153,14.9022,1113.0457],[43.9172,14.8999,1127.3779],[43.9131,14.8981,1090.8225],[43.9147,14.89,1138.0007],[43.9052,14.8831,1079.4644],[43.8989,14.8631,1129.4103],[43.9084,14.8418,1203.1572],[43.9147,14.8289,1418.3081],[43.9297,14.8099,1383.9827],[43.9446,14.8062,1530.8738],[43.9501,14.7986,1595.7747],[43.9619,14.7976,1993.1693],[43.9619,14.7956,1960.9072],[43.976,14.7888,1690.5881],[43.9741,14.781,1914.3392],[43.9678,14.7758,2025.1857],[43.9666,14.7732,2153.3257],[43.9678,14.7702,2132.9961],[43.9705,14.7676,1875.1987],[43.974,14.7571,1810.7354],[43.9815,14.7492,1910.7944],[43.9844,14.7492,1945.9047],[43.9924,14.7315,2000.9083],[44.0021,14.7221,1919.7205],[44.0144,14.7195,1763.0592],[44.0198,14.7167,1716.7632],[44.0255,14.7184,1687.0194],[44.0341,14.7101,1618.8668],[44.041,14.7057,1581.6899],[44.0457,14.7047,1616.2762],[44.0484,14.6957,1601.0614],[44.0547,14.689,1627.3872],[44.056399999999996,14.6919,1550.376],[44.0621,14.6947,1537.7745],[44.0678,14.6947,1544.9098],[44.0719,14.6977,1570.1414],[44.0809,14.7003,1579.2179],[44.09,14.7003,1663.3353],[44.0905,14.7092,1649.6729],[44.1009,14.744,1768.2911],[44.1159,14.7498,2025.1187],[44.1254,14.7478,2025.8284],[44.1307,14.7376,2172.9719],[44.1195,14.7276,2358.2827],[44.1201,14.7158,2290.0073],[44.125,14.7116,2219.9028],[44.1441,14.7153,1984.4104],[44.141,14.7039,1838.7866],[44.1375,14.699,1844.4449],[44.1497,14.6878,2270.8584],[44.1558,14.678,1954.5481],[44.1583,14.6802,1848.7559],[44.1664,14.6813,1975.0688],[44.1806,14.6803,1812.9106],[44.192,14.6866,1886.5568],[44.1949,14.6866,1871.0249],[44.2028,14.6901,1874.8729],[44.2063,14.6992,2028.8677],[44.2163,14.7048,2077.98],[44.2268,14.7026,1915.1956],[44.2271,14.6955,1990.6157],[44.2243,14.6909,2102.7988],[44.2185,14.6869,2212.2583],[44.2294,14.6755,2069.9128],[44.2616,14.655,2291.7075]]]]}}