{"type":"Feature","properties":{"GID_2":"YEM.10.10_1","GID_0":"YEM","country":"Yemen","GID_1":"YEM.10_1","province":"Amran","NL_NAME_1":"عمران","county":"HarfSufyan","VARNAME_2":"NA","NL_NAME_2":"حرفسفيان","TYPE_2":"Muderiah","ENGTYPE_2":"District","CC_2":"2901","HASC_2":"NA","name":"Harf_Sufyan.county"},
"geometry":{"type": "MultiPolygon","coordinates": [[[[44.2802,16.4888,1409.1152],[44.2789,16.4888,1408.4753],[44.2765,16.5046,1360.7939],[44.2724,16.5084,1363.6685],[44.2637,16.522,1362.1989],[44.2643,16.5277,1355.2041],[44.2606,16.5349,1358.5491],[44.2573,16.5356,1360.6487],[44.2632,16.5366,1358.9385],[44.2612,16.5385,1360.7983],[44.2673,16.5388,1361.9143],[44.2686,16.5406,1364.5881],[44.2347,16.5567,1401.717],[44.2275,16.5621,1438.5009],[44.2042,16.5874,1481.1029],[44.1865,16.6235,1512.4375],[44.1713,16.6503,1565.6267],[44.1681,16.6511,1547.3538],[44.1489,16.6441,1522.7264],[44.1234,16.6417,1518.3202],[44.109,16.6447,1530.2769],[44.0953,16.6539,1529.2109],[43.9953,16.6534,1631.597],[43.8652,16.6653,1890.424],[43.8229,16.676,1819.8317],[43.7854,16.6899,1863.8198],[43.7383,16.6912,1771.7872],[43.7243,16.6874,1625.4399],[43.7144,16.6791,1674.5138],[43.6698,16.6536,1465.8301],[43.5814,16.6434,1604.0308],[43.5317,16.6299,1538.5714],[43.5322,16.5437,1150.5862],[43.5397,16.445,1068.7056],[43.5185,16.403199999999998,853.1341],[43.5108,16.3739,888.7546],[43.5173,16.3175,1157.2158],[43.529,16.3051,1133.1534],[43.5365,16.3065,1149.3625],[43.6243,16.375,1318.5505],[43.6281,16.3975,1395.2538],[43.6407,16.4078,1439.7905],[43.6453,16.4149,1541.7897],[43.6399,16.4251,1581.0623],[43.6475,16.4456,1449.958],[43.6399,16.4498,1370.0078],[43.6329,16.4611,1294.7239],[43.6328,16.4734,1272.0659],[43.6375,16.4819,1286.605],[43.6531,16.4976,1302.7297],[43.6878,16.519,1399.7534],[43.7086,16.5433,1372.6494],[43.7299,16.5563,1421.3209],[43.7566,16.5565,1446.1306],[43.8292,16.5053,1654.7825],[43.8694,16.4926,1998.8964],[43.8855,16.4746,2073.8884],[43.9419,16.4336,2326.2078],[43.9368,16.3872,1961.3862],[43.9274,16.3755,2027.2104],[44.0049,16.362,2159.561],[44.057,16.3404,1798.5391],[44.0765,16.3216,1692.0139],[44.0831,16.2836,1570.9419],[44.0831,16.2756,1575.8698],[44.0898,16.2622,1567.3862],[44.0898,16.2512,1614.978],[44.0781,16.1953,1820.998],[44.075,16.1534,1919.6556],[44.1179,16.1432,1997.5905],[44.1878,16.0902,2017.8036],[44.2139,16.0433,1771.9105],[44.227,16.0276,1740.204],[44.235,16.0308,1538.8933],[44.2429,16.0372,1577.1825],[44.2496,16.034,1525.4794],[44.2658,16.0309,1518.2307],[44.3258,16.0311,1452.9495],[44.3379,16.0366,1384.9775],[44.3495,16.0455,1741.8979],[44.3414,16.0915,1634.3715],[44.2846,16.1338,1557.6853],[44.2711,16.1891,1363.3799],[44.285,16.2351,1513.9177],[44.2984,16.288,1263.9771],[44.3055,16.296,1267.8696],[44.3004,16.3068,1279.3196],[44.283,16.3058,1308.5468],[44.2789,16.2929,1288.5129],[44.2708,16.2939,1335.1782],[44.2656,16.3018,1363.1891],[44.2601,16.4035,1667.5214],[44.2732,16.453,1488.7219],[44.2802,16.4888,1409.1152]]]]}}