{"type":"Feature","properties":{"GID_1":"YEM.7_1","GID_0":"YEM","country":"Yemen","province":"AlMahrah","VARNAME_1":"AlGhaydah|Al-Mahara|Almaharah|a","NL_NAME_1":"المهره","TYPE_1":"Muhafazah","ENGTYPE_1":"Governorate","CC_1":"28","HASC_1":"YE.MR","ISO_1":"YE-MR","name":"Al_Mahrah.province"},
"geometry":{"type": "MultiPolygon","coordinates": [[[[51.1318,15.1793,0.4943],[51.1321,15.181,0.0],[51.1315,15.1812,0.578],[51.1312,15.1782,0.1519],[51.1318,15.1793,0.4943]]],
[[[51.6485,15.3357,95.8489],[51.6524,15.3368,52.4719],[51.6554,15.3351,0.0],[51.6599,15.3365,0.0],[51.6643,15.3393,7.7088],[51.6643,15.3415,8.6074],[51.6615,15.3443,0.0],[51.6585,15.3449,26.3597],[51.6587,15.3485,0.0],[51.6526,15.3501,16.307],[51.649,15.3493,2.2694],[51.6437,15.3538,0.0],[51.6379,15.3554,43.2087],[51.636,15.3685,0.0],[51.6421,15.3874,2.0998],[51.6451,15.3918,1.2972],[51.6532,15.3979,1.0288],[51.6821,15.4143,1.4093],[51.7524,15.4421,1.3004],[51.7793,15.4507,2.6607],[51.7988,15.4546,0.0],[51.821,15.4613,3.2424],[51.8346,15.4537,0.0],[51.8374,15.4488,5.7988],[51.8429,15.4468,0.0],[51.844,15.4438,37.5521],[51.846,15.4429,0.0],[51.8499,15.4468,14.7067],[51.8599,15.446,2.8107],[51.8599,15.4474,0.0],[51.8576,15.4476,38.8564],[51.8501,15.4543,0.0],[51.8493,15.4582,31.9504],[51.8526,15.4613,0.0],[51.8543,15.4654,0.0],[51.8471,15.4707,3.437],[51.8554,15.4821,17.3177],[51.8638,15.4865,0.0],[51.8646,15.4899,0.0],[51.8682,15.4929,1.5139],[51.9326,15.5204,0.0],[51.9376,15.5196,1.1219],[51.9418,15.5257,5.0274],[51.9468,15.5285,3.9721],[52.0332,15.5593,1.9416],[52.034,15.5607,5.109],[52.0432,15.5626,2.4869],[52.0812,15.5765,3.1228],[52.0951,15.5801,0.0],[52.0982,15.5832,4.2276],[52.1012,15.5826,1.4908],[52.1157,15.5885,0.9934],[52.1207,15.5888,1.972],[52.1738,15.6076,4.0383],[52.1768,15.6074,1.1556],[52.1843,15.6107,2.1073],[52.1865,15.6085,0.0],[52.196,15.609,0.0],[52.1985,15.6132,2.7123],[52.2024,15.6143,14.0578],[52.2073,15.619,36.5886],[52.2101,15.6249,7.486],[52.2143,15.6265,0.0],[52.2226,15.634,54.8489],[52.2254,15.6338,5.1262],[52.2243,15.6407,3.0413],[52.2171,15.6507,1.0602],[52.2171,15.6585,0.2806],[52.2157,15.6626,0.0],[52.2126,15.6646,77.5161],[52.2115,15.6763,265.1887],[52.2082,15.6824,113.2527],[52.2079,15.689,131.313],[52.2049,15.6943,81.1248],[52.206,15.6965,0.0],[52.1963,15.7193,0.0],[52.1968,15.7232,0.0],[52.1946,15.7321,11.6535],[52.1963,15.7354,0.0],[52.194,15.7371,0.0],[52.1937,15.7426,0.0],[52.1912,15.7463,15.6539],[52.194,15.7487,0.0],[52.1918,15.7507,21.9694],[52.1926,15.7529,59.3016],[52.1912,15.7574,54.4876],[52.1882,15.7599,67.5005],[52.1896,15.7738,5.5938],[52.1951,15.7782,0.0],[52.1951,15.7804,0.0],[52.2007,15.7804,0.0],[52.2035,15.7832,74.3801],[52.2024,15.7846,21.3396],[52.1976,15.7846,138.9634],[52.1951,15.789,8.2449],[52.1949,15.7913,0.0],[52.1982,15.7951,0.0],[52.2001,15.8012,0.0],[52.1965,15.8024,0.0],[52.1946,15.811,0.0],[52.1899,15.8171,0.9132],[52.1901,15.8207,2.1905],[52.1924,15.8226,3.6449],[52.1954,15.821,1.1651],[52.1965,15.8218,2.1983],[52.1971,15.8196,0.1751],[52.2007,15.8196,7.1354],[52.2024,15.8176,0.342],[52.2026,15.8188,1.5276],[52.1993,15.8218,15.0375],[52.2001,15.824,0.0],[52.1963,15.8251,5.4045],[52.1954,15.8285,9.1442],[52.1868,15.8407,0.0],[52.1815,15.8435,3.4709],[52.1738,15.844,0.7883],[52.1651,15.8504,15.7232],[52.1601,15.8565,2.2784],[52.1618,15.8713,0.0],[52.1601,15.8732,1.2229],[52.1601,15.8776,1.5038],[52.1626,15.8829,7.0574],[52.1615,15.8888,5.7112],[52.1635,15.8946,0.0],[52.1626,15.8968,6.2332],[52.164,15.8976,7.2737],[52.1637,15.9071,1.8999],[52.1676,15.9104,0.2822],[52.1688,15.9226,1.4806],[52.1718,15.9232,0.0],[52.1674,15.926,0.0],[52.1657,15.9251,3.698],[52.1618,15.9268,1.5623],[52.159,15.9304,0.2719],[52.1593,15.9343,0.0],[52.156,15.9343,3.5472],[52.1546,15.9374,0.0],[52.151,15.939,0.0],[52.1476,15.9588,1.8572],[52.1482,15.9629,1.3174],[52.1465,15.9651,0.6778],[52.1468,15.9724,1.4438],[52.1501,15.9801,2.8887],[52.1499,15.9851,2.5378],[52.1526,15.9926,0.0],[52.1649,16.0118,0.0],[52.1693,16.0263,0.0],[52.181,16.0499,0.0807],[52.1865,16.0654,1.4139],[52.196,16.0751,0.0],[52.2024,16.0976,2.2887],[52.2046,16.1332,0.5899],[52.2221,16.1646,1.324],[52.2376,16.2024,0.5],[52.2468,16.2101,0.0],[52.2532,16.2182,0.0],[52.2804,16.2565,0.0],[52.2932,16.2687,0.0],[52.3229,16.3046,0.0],[52.3718,16.3571,0.7902],[52.4082,16.3874,0.6072],[52.4368,16.4079,0.0],[52.4762,16.4312,0.0],[52.5096,16.446,2.3336],[52.5812,16.4737,0.0],[52.6465,16.4954,0.0],[52.6629,16.4993,0.0],[52.6763,16.5054,0.9042],[52.6951,16.5099,0.0],[52.7021,16.5143,51.7085],[52.7071,16.514,0.8472],[52.7221,16.5226,8.535],[52.7299,16.5251,0.0],[52.7346,16.5301,3.9984],[52.7407,16.5304,0.0],[52.754,16.5376,5.5081],[52.7649,16.5393,0.0],[52.796,16.5513,6.3072],[52.8101,16.5529,0.0],[52.8165,16.5562,60.1032],[52.8218,16.5565,0.0],[52.8243,16.559,89.6144],[52.8387,16.5649,0.0],[52.839,16.5696,2.2551],[52.8432,16.5729,18.019],[52.8801,16.586,29.7046],[52.8862,16.5865,0.0],[52.8968,16.5918,0.0],[52.9029,16.5915,2.5462],[52.9137,16.5974,121.4503],[52.9221,16.5996,1.7193],[52.9224,16.599,1.7193],[52.9221,16.5985,0.0],[52.9251,16.5985,0.0],[52.9301,16.5996,17.2808],[52.9393,16.6071,97.242],[52.9449,16.609,4.8107],[52.9476,16.6129,17.6127],[52.9562,16.6138,1.9039],[52.9632,16.6176,63.4124],[52.9804,16.6213,0.776],[52.9854,16.621,0.3059],[53.0026,16.6265,0.0],[53.0199,16.6282,0.0],[53.0285,16.631,1.3091],[53.0385,16.6313,0.0],[53.0588,16.6362,0.0],[53.0629,16.636,0.0],[53.0701,16.6401,0.0],[53.0801,16.6401,0.0],[53.0823,16.6424,18.1781],[53.0786,16.6459,349.9207],[53.0956,16.6494,151.0127],[53.107,16.6544,167.4828],[53.0379,16.8028,1012.9907],[52.9704,16.7948,1091.4285],[52.9479,16.8007,1026.2279],[52.7126,17.0803,839.0937],[52.7356,17.2445,692.9534],[52.8277,17.2525,676.6827],[52.8123,17.2855,669.191],[52.7458,17.2944,656.2955],[52.7437,17.3024,644.2079],[52.7514,17.3042,666.6371],[52.7506,17.3058,646.7543],[52.7822,17.3497,646.1498],[52.0,19.0,311.3847],[51.9103,18.9078,334.0526],[51.677,18.6149,347.4111],[51.5952,18.4067,371.1977],[51.5003,18.2715,393.1469],[51.4946,18.2435,400.8752],[51.4741,17.8997,534.379],[51.4474,17.8108,575.7091],[51.37,17.6111,707.9772],[51.3192,17.5004,769.9373],[51.2193,17.3163,901.407],[51.098,17.1851,971.5366],[51.0601,17.1131,1046.5487],[50.9643,17.0812,988.5638],[50.8695,17.0352,946.0404],[50.7795,16.9711,919.2931],[50.7115,16.9268,928.1623],[50.6731,16.892,900.003],[50.6498,16.8259,933.0569],[50.608,16.7629,943.0142],[50.5297,16.7265,946.3995],[50.3852,16.7047,1018.2401],[50.3096,16.6681,1031.5178],[50.2897,16.6449,1013.1846],[50.2701,16.6398,1014.5034],[50.2566,16.629,1009.22],[50.2559,16.6039,1015.886],[50.2447,16.5709,1029.677],[50.2438,16.5376,1027.9789],[50.2675,16.5203,1031.4167],[50.2702,16.4936,937.2761],[50.2381,16.4544,958.2874],[50.2333,16.4046,990.8798],[50.2176,16.335,769.1012],[50.1771,16.236,679.1041],[50.1579,16.1632,629.3641],[50.1915,16.129,665.6604],[50.2254,16.1082,623.8138],[50.2556,16.0775,579.3193],[50.2517,16.0576,574.6061],[50.223,16.0149,536.6743],[50.1983,15.9922,580.1476],[50.1688,15.9196,591.1141],[50.1498,15.8468,468.6501],[50.1448,15.7869,534.8111],[50.1439,15.7502,567.7133],[50.1322,15.6972,793.3898],[50.1287,15.6517,769.9434],[50.1433,15.623,754.2435],[50.1679,15.6097,637.0031],[50.2192,15.5985,633.9187],[50.2362,15.5914,623.6126],[50.2606,15.5883,661.9804],[50.2657,15.5694,645.3886],[50.2573,15.5169,673.3645],[50.2468,15.4688,1142.6569],[50.3378,15.4485,1078.0667],[50.5395,15.3718,936.0571],[50.5704,15.3667,900.506],[50.5901,15.3329,829.1979],[50.6213,15.3421,686.7068],[50.6384,15.3417,616.498],[50.6619,15.3211,563.9669],[50.691,15.2571,884.5409],[50.7144,15.2332,848.0778],[50.7273,15.2029,234.6886],[50.7496,15.1424,43.6911],[50.7724,15.0915,3.6678],[50.7736,15.0832,2.0821],[50.8074,15.0918,1.5268],[50.8165,15.0896,0.2068],[50.8951,15.1149,1.6927],[50.904,15.1171,2.7499],[50.9154,15.1174,2.4859],[50.9965,15.1404,0.0],[51.0015,15.1404,0.0],[51.0243,15.1485,2.8079],[51.0832,15.1607,1.7001],[51.1229,15.166,0.5827],[51.1265,15.1676,0.0],[51.1296,15.1732,0.9143],[51.1299,15.1801,0.4943],[51.1318,15.1838,1.4928],[51.1329,15.181,0.0],[51.1329,15.1704,0.0],[51.1457,15.1713,0.0],[51.1754,15.1801,0.0],[51.2065,15.1921,1.3181],[51.2201,15.1924,3.2409],[51.2282,15.1949,0.0],[51.2354,15.1993,2.0936],[51.2901,15.221,1.525],[51.2976,15.2254,0.0],[51.3029,15.2246,0.0],[51.3112,15.2304,0.0],[51.3221,15.2343,13.5485],[51.3315,15.2332,0.0],[51.3376,15.2379,8.9806],[51.3418,15.2379,5.823],[51.3435,15.2351,0.0],[51.3479,15.2329,4.1465],[51.3501,15.2329,0.0],[51.3504,15.2346,0.0],[51.3557,15.2332,0.0],[51.3626,15.2351,0.0],[51.369,15.234,21.5335],[51.3707,15.2365,0.0],[51.3688,15.2401,10.0935],[51.3693,15.2443,20.9567],[51.374,15.2471,8.4868],[51.406,15.2599,0.0],[51.4204,15.2546,0.0],[51.4185,15.2635,0.0],[51.4218,15.2662,1.544],[51.4365,15.2735,0.0],[51.439,15.2735,0.0],[51.4396,15.2715,0.0],[51.4435,15.2718,0.0],[51.444,15.2754,9.6621],[51.4493,15.2779,5.1785],[51.4557,15.274,12.9338],[51.4568,15.2813,40.1296],[51.4629,15.2851,2.6464],[51.4707,15.2871,1.7285],[51.4757,15.2935,0.0],[51.4762,15.2965,0.0],[51.5112,15.3104,0.0],[51.539,15.3204,0.0],[51.5754,15.3307,24.6792],[51.5788,15.3299,0.0],[51.5829,15.3321,27.5107],[51.6021,15.334,36.2555],[51.6043,15.3299,0.0],[51.6113,15.329,0.0],[51.6124,15.3304,0.0],[51.6254,15.331,23.9987],[51.629,15.3293,0.0],[51.6365,15.3321,1.7473],[51.6415,15.3363,1.0153],[51.6485,15.3357,95.8489]]]]}}