{"type":"Feature","properties":{"ISO3166-1-Alpha-3":"YEM","country":"Yemen","fill":"#FF0","id":"332","name":"Al Mahrah"},
"geometry":{"type": "Polygon","coordinates": [[[53.09035,16.64241,0.0],[53.0279,16.77748,990.1263],[52.96527,16.91292,978.5963],[52.90274,17.04826,820.1148],[52.84032,17.18371,705.1733],[52.80156,17.26742,658.6525],[52.79102,17.28122,645.6219],[52.77386,17.28711,655.8909],[52.73624,17.28918,678.8374],[52.72146,17.29817,691.5288],[52.72301,17.29869,675.5076],[52.72828,17.29936,674.9984],[52.73015,17.29988,679.7589],[52.69842,17.37145,670.9429],[52.65563,17.46798,676.8534],[52.61284,17.56456,699.6483],[52.57021,17.66109,602.405],[52.52742,17.75763,568.6904],[52.48453,17.85416,556.5469],[52.44174,17.95064,531.4616],[52.399,18.04727,498.9485],[52.35616,18.14378,457.2679],[52.31332,18.24028,437.167],[52.27069,18.33687,391.0708],[52.2278,18.43342,363.8422],[52.18501,18.52993,340.006],[52.14233,18.62651,314.856],[52.09954,18.72304,280.8655],[52.05675,18.81963,262.7001],[52.01396,18.91616,280.8577],[51.98569,18.97973,298.5546],[51.98564,18.97967,298.5546],[51.71228,18.5962,331.2393],[51.54097,18.1839,430.244],[51.47921,17.88436,544.7407],[51.38485,17.60027,687.0786],[51.26243,17.33812,869.4012],[51.13241,17.15275,1023.0172],[50.73006,16.83474,856.7672],[50.65337,16.7467,939.7002],[50.57224,16.69464,967.5612],[50.3969,16.62374,947.5242],[50.35453,16.59899,957.2873],[50.33034,16.57982,976.5019],[50.30967,16.55395,955.1211],[50.29247,16.51481,932.3429],[50.29371,16.49251,850.1243],[50.30502,16.47119,935.3598],[50.31324,16.43473,823.7266],[50.23536,16.14558,621.6602],[50.23335,16.10832,627.6809],[50.24854,16.08886,591.5526],[50.2628,16.07457,594.6522],[50.28471,16.06297,649.2442],[50.29634,16.03633,644.2688],[50.30192,16.00174,613.4431],[50.26358,15.89955,618.31],[50.24668,15.87146,640.2815],[50.22994,15.85337,572.3724],[50.22172,15.81816,436.109],[50.22157,15.79338,527.6479],[50.21144,15.7647,514.9021],[50.21288,15.73783,654.8051],[50.21691,15.71403,646.0491],[50.217529999999996,15.69527,709.499],[50.20834,15.67481,720.9564],[50.20058,15.64923,741.4604],[50.19237,15.60931,605.5775],[50.2012,15.57476,658.1891],[50.21877,15.55251,640.5668],[50.25009,15.54347,681.7529],[50.27882,15.54029,698.2105],[50.32084,15.529,660.1803],[50.33034,15.51872,632.0198],[50.33639,15.4996,664.1396],[50.33189,15.45908,953.2618],[50.3213,15.4442,955.7755],[50.30518,15.43146,930.8111],[50.28657,15.39965,1137.8435],[50.27086,15.38113,1249.2032],[50.25939,15.36377,1233.647],[50.25691,15.34656,1214.4922],[50.25707,15.32775,1195.3899],[50.26404,15.31126,1299.0303],[50.27913,15.29398,1176.1633],[50.34135,15.27351,1103.6632],[50.39163,15.27183,1306.9875],[50.46904,15.27927,1421.1255],[50.494,15.28537,1347.6873],[50.51746,15.29382,1274.6539],[50.58449,15.29741,1123.8989],[50.65089,15.27966,885.2395],[50.70583,15.27183,933.7598],[50.72836,15.26116,1119.4351],[50.7468,15.23633,746.0309],[50.75564,15.21672,551.3618],[50.76665,15.19788,361.8459],[50.77409,15.17207,74.951],[50.78468,15.15424,51.7414],[50.79212,15.13698,31.8477],[50.80065,15.12226,31.7462],[50.80189,15.10368,13.698],[50.80499,15.09738,10.8735],[50.85133,15.10993,2.5892],[51.06983,15.14964,0.0],[51.26881,15.20181,0.0],[51.28842,15.21027,0.0],[51.31446,15.22671,0.0],[51.34246,15.2377,5.823],[51.36785,15.22972,0.0],[51.38201,15.23802,0.0],[51.43247,15.25967,0.0],[51.44361,15.2602,0.0],[51.44654,15.26642,0.0],[51.45427,15.26952,0.0],[51.47429,15.2707,0.0],[51.4983,15.29804,0.0],[51.51344,15.30805,0.0],[51.53053,15.31684,0.0],[51.54949,15.32298,1.6248],[51.65528,15.33275,0.0],[51.67644,15.34028,0.0],[51.676519999999996,15.34699,0.0],[51.66774,15.35765,0.0],[51.66212,15.37714,0.0],[51.66725,15.39142,0.0],[51.67994,15.40347,0.0],[51.7588,15.44562,1.9891],[51.80942,15.45576,0.0],[51.81666,15.45942,0.0],[51.82927,15.4687,48.7767],[51.83872,15.46629,98.8487],[51.84653,15.45954,92.4588],[51.85385,15.45572,0.0],[51.85987,15.45331,0.0],[51.86541,15.4501,0.0],[51.86866,15.45156,0.0],[51.86817,15.46312,0.0],[51.8694,15.46377,0.0],[51.87184,15.46377,0.0],[51.8742,15.46503,0.0],[51.87501,15.46939,0.0],[51.8742,15.49152,0.0],[51.9131,15.51533,3.2096],[51.99171,15.54507,2.9972],[52.00164,15.54727,2.5895],[52.01694,15.54865,0.0],[52.02573,15.55121,0.0],[52.0315,15.55581,0.0],[52.03875,15.56314,4.23],[52.04713,15.57001,13.1342],[52.19899,15.61148,0.0],[52.22071,15.61396,0.0],[52.22836,15.61612,0.0],[52.23357,15.62177,0.0],[52.23658,15.62934,0.0],[52.23748,15.63752,0.0],[52.23854,15.64252,0.0],[52.24383,15.65156,0.0],[52.24488,15.6577,0.0],[52.24285,15.66348,0.0],[52.23829,15.66865,0.0],[52.23121,15.67475,0.0],[52.22145,15.71699,0.0],[52.21705,15.76073,0.0],[52.22527,15.83194,0.0],[52.22438,15.84675,0.0],[52.19158,15.86298,0.0],[52.17547,15.87792,0.0],[52.18653,15.91909,0.0],[52.17742,15.94237,0.0],[52.16342,15.96479,0.0],[52.15553,15.98387,0.0],[52.16,16.0021,0.0],[52.18409,16.02945,0.0],[52.19435,16.0703,0.0],[52.21681,16.09516,0.0],[52.22438,16.11359,0.0],[52.22267,16.1164,0.0],[52.21957,16.12596,0.0],[52.21705,16.13809,0.0],[52.21705,16.14838,0.0],[52.22145,16.16087,0.0],[52.22869,16.17194,0.0],[52.2614,16.20897,0.0],[52.27947,16.24388,0.0],[52.29274,16.26382,0.0],[52.31861,16.29116,0.0],[52.42042,16.37124,0.0],[52.53256,16.44725,0.0],[52.59767,16.47671,0.0],[52.73683,16.51195,0.0],[52.75213,16.5183,0.0],[52.78883,16.5397,0.0],[52.80909,16.54833,0.0],[52.85108,16.55614,0.0],[52.88526,16.57543,0.0],[52.90992,16.58308,0.0],[52.92115,16.59113,0.0],[52.94028,16.61017,152.257],[52.95053,16.61563,67.9654],[52.96217,16.61628,0.0],[52.97389,16.61831,0.0],[52.98487,16.62816,85.3257],[53.02182,16.61945,0.0],[53.06918,16.63182,0.0],[53.09002,16.64224,0.0],[53.09034,16.6424,0.0],[53.09035,16.64241,0.0]]]}}