{"type":"Feature","properties":{"GID_2":"YEM.21.11_1","GID_0":"YEM","country":"Yemen","GID_1":"YEM.21_1","province":"Ta`izz","NL_NAME_1":"تعز","county":"Dhubab","VARNAME_2":"NA","NL_NAME_2":"ذباب","TYPE_2":"Muderiah","ENGTYPE_2":"District","CC_2":"1507","HASC_2":"NA","name":"Dhubab.county"},
"geometry":{"type": "MultiPolygon","coordinates": [[[[43.461,12.6751,0.0],[43.4585,12.6746,0.0],[43.459,12.6729,0.0],[43.4596,12.6729,0.0],[43.461,12.6751,0.0]]],
[[[43.6978,13.0462,607.6921],[43.6949,13.0767,604.8041],[43.6006,13.0782,240.1995],[43.5852,13.1165,235.8303],[43.5916,13.1314,228.1587],[43.6345,13.1555,439.9769],[43.6371,13.1697,336.057],[43.594,13.2154,286.0123],[43.5574,13.2493,241.2247],[43.5494,13.2527,235.1001],[43.5203,13.2583,206.1876],[43.4879,13.2528,173.2529],[43.4717,13.2528,156.7973],[43.4682,13.2557,152.8344],[43.3857,13.2566,81.3409],[43.3274,13.2616,39.6625],[43.2435,13.2553,0.2351],[43.2457,13.2507,0.7551],[43.2487,13.2307,0.7001],[43.2538,13.216,0.6458],[43.2818,13.1626,0.7093],[43.2946,13.1421,1.0839],[43.3013,13.1354,0.0],[43.309,13.1218,0.0],[43.3446,13.0818,0.2946],[43.3765,13.0126,0.8995],[43.3849,13.0035,0.3699],[43.3865,12.9993,0.0],[43.3951,12.9893,0.4463],[43.3949,12.9868,0.166],[43.3974,12.9857,1.0534],[43.3988,12.9815,0.0],[43.401,12.9801,0.8374],[43.4012,12.9751,0.0],[43.4104,12.956,0.8427],[43.4104,12.9476,3.418],[43.4074,12.9463,4.2921],[43.406,12.9426,0.0],[43.4079,12.9399,0.0],[43.4101,12.941,1.139],[43.4138,12.9379,0.0],[43.419,12.9368,0.5268],[43.4268,12.9282,0.6932],[43.4351,12.9018,0.0],[43.4385,12.8985,0.0],[43.4396,12.8924,0.0],[43.4435,12.8849,0.0],[43.446,12.8813,0.0],[43.4549,12.8746,0.2463],[43.4551,12.8685,0.0],[43.4615,12.8635,0.0],[43.4754,12.8454,0.0],[43.4896,12.8321,1.289],[43.494,12.8243,0.1792],[43.4946,12.8174,0.0],[43.4874,12.8049,1.0576],[43.4818,12.786,0.6344],[43.4738,12.7671,0.0],[43.4746,12.7532,0.0],[43.4685,12.7293,0.0],[43.4682,12.7204,0.0],[43.4704,12.7171,0.6533],[43.474,12.719,2.1153],[43.4785,12.7188,2.1236],[43.4832,12.7138,0.0],[43.4863,12.7143,1.1122],[43.491,12.7082,0.0],[43.4901,12.7065,0.0],[43.4871,12.7065,0.0],[43.484,12.7087,0.4319],[43.4751,12.7079,0.0],[43.4724,12.7115,0.8307],[43.4738,12.7146,0.3079],[43.4674,12.7171,0.0],[43.4663,12.7107,0.0],[43.4521,12.694,0.0],[43.4535,12.6918,0.0],[43.4588,12.6901,3.3471],[43.4574,12.6849,0.0],[43.4604,12.6815,0.0],[43.4621,12.676,0.396],[43.464,12.6749,0.0],[43.4685,12.6801,9.7051],[43.471,12.681,2.146],[43.4715,12.6788,11.7176],[43.4676,12.6746,0.0],[43.4682,12.6735,0.0],[43.4712,12.6754,0.0],[43.4765,12.6726,2.3988],[43.476,12.6779,5.7659],[43.479,12.6799,1.4354],[43.4807,12.6793,1.7704],[43.4813,12.6754,0.0],[43.4846,12.6751,0.0],[43.4851,12.6732,0.0],[43.4874,12.6754,2.6407],[43.4901,12.6743,0.0],[43.4924,12.6799,0.9384],[43.4943,12.6785,0.0],[43.4938,12.6724,1.7893],[43.4957,12.6721,0.0],[43.4987,12.6779,7.2828],[43.501,12.679,12.416],[43.5029,12.6746,0.0],[43.5054,12.674,6.086],[43.5051,12.6768,2.9941],[43.5068,12.679,2.6436],[43.5171,12.6868,1.1515],[43.5218,12.686,1.635],[43.5226,12.681,0.0],[43.5257,12.6818,0.0],[43.5304,12.689,4.1578],[43.539,12.6974,0.0],[43.5232,12.7098,22.0486],[43.647,12.9524,211.0101],[43.7058,12.9671,422.2265],[43.7,12.9986,360.8462],[43.7004,13.0204,688.9583],[43.6978,13.0462,607.6921]]]]}}