{"type":"Feature","properties":{"GID_2":"YEM.16.14_1","GID_0":"YEM","country":"Yemen","GID_1":"YEM.16_1","province":"Ma'rib","NL_NAME_1":"مأرب","county":"Sirwah","VARNAME_2":"NA","NL_NAME_2":"صرواح","TYPE_2":"Muderiah","ENGTYPE_2":"District","CC_2":"2606","HASC_2":"NA","name":"Sirwah.county"},
"geometry":{"type": "MultiPolygon","coordinates": [[[[45.3096,15.3133,1123.5472],[45.3096,15.3272,1116.3955],[45.3004,15.3472,1415.3812],[45.2799,15.3653,1318.4751],[45.2261,15.39,1136.0],[45.2242,15.4014,1474.8428],[45.232,15.4156,1313.2625],[45.2604,15.4403,1173.6885],[45.3098,15.4773,1113.3707],[45.3153,15.4858,1104.2678],[45.3177,15.5034,1122.5497],[45.3146,15.5072,1118.5493],[45.3057,15.5077,1124.4535],[45.2115,15.532,1319.0406],[45.0369,15.5707,1245.1818],[44.986,15.5755,1238.1472],[44.8637,15.5716,1424.4624],[44.7985,15.5882,1747.7681],[44.793,15.5768,1568.4224],[44.7709,15.5641,2029.4524],[44.7543,15.5607,2163.7676],[44.7372,15.5548,1694.5292],[44.7055,15.5412,1664.1785],[44.7054,15.5139,1625.0669],[44.7163,15.4709,1771.2817],[44.7552,15.4753,1808.0239],[44.7789,15.4625,1673.8174],[44.806,15.4154,1860.4103],[44.8396,15.4095,1695.9384],[44.9672,15.3488,1790.6755],[45.1087,15.2857,1243.6711],[45.129,15.2856,1166.9543],[45.3096,15.3133,1123.5472]]]]}}