{"type":"Feature","properties":{"GID_2":"YEM.11.8_1","GID_0":"YEM","country":"Yemen","GID_1":"YEM.11_1","province":"Dhamar","NL_NAME_1":"ذمار","county":"MaghiribAns","VARNAME_2":"NA","NL_NAME_2":"مغربعنس","TYPE_2":"Muderiah","ENGTYPE_2":"District","CC_2":"2004","HASC_2":"NA","name":"Maghirib_Ans.county"},
"geometry":{"type": "MultiPolygon","coordinates": [[[[44.0523,14.5574,1556.105],[44.0572,14.5473,1593.2731],[44.0706,14.5386,1849.3043],[44.0697,14.5372,1849.3043],[44.0635,14.5371,1894.6031],[44.0635,14.5333,2140.2507],[44.0707,14.5287,2302.6768],[44.0725,14.518,2506.2266],[44.0763,14.5146,2512.7319],[44.0826,14.5174,2398.189],[44.0865,14.5175,2358.2461],[44.0883,14.514,2505.2051],[44.0865,14.5024,2590.1504],[44.0762,14.4956,1927.0583],[44.0774,14.491,1862.11],[44.0748,14.4701,1539.8854],[44.0695,14.4682,1588.2192],[44.0644,14.4695,1575.3201],[44.061,14.4673,1548.754],[44.0531,14.4689,1557.2921],[44.0504,14.4678,1598.562],[44.051,14.4613,1498.2566],[44.0474,14.4531,1417.1135],[44.0484,14.4471,1396.1367],[44.0532,14.4489,1482.447],[44.0573,14.453,1526.8118],[44.063,14.4545,1436.9924],[44.0666,14.458,1470.7476],[44.0672,14.463,1533.5284],[44.0693,14.4656,1597.3882],[44.0741,14.4647,1477.304],[44.0768,14.4577,1601.0502],[44.0772,14.4442,1785.0032],[44.0805,14.43,1396.3877],[44.0782,14.4113,1279.5543],[44.08,14.3976,1342.6394],[44.0755,14.3773,1286.8339],[44.0856,14.3738,1316.2849],[44.0876,14.3704,1340.8857],[44.086,14.3642,1333.1484],[44.088,14.364,1335.1692],[44.0931,14.3683,1313.0142],[44.0931,14.3643,1303.7604],[44.0951,14.3641,1308.46],[44.1038,14.3688,1391.5934],[44.1128,14.3679,1445.3384],[44.1254,14.3706,1493.2225],[44.1308,14.3738,1562.2734],[44.1383,14.3739,1527.1116],[44.1449,14.3715,1498.6692],[44.1523,14.3732,1668.0386],[44.1519,14.3776,1763.0798],[44.1568,14.3829,1851.1144],[44.1793,14.3886,1894.4392],[44.1815,14.3973,1869.9617],[44.1866,14.4049,2115.8557],[44.1892,14.415,2039.3307],[44.1946,14.4593,1674.5839],[44.1993,14.475,1839.2556],[44.1988,14.4797,1867.1287],[44.1915,14.4895,1832.79],[44.1732,14.4909,1866.1993],[44.1749,14.497,1864.8049],[44.1722,14.5117,2214.5469],[44.1807,14.5389,2278.3491],[44.1797,14.5549,2316.8438],[44.1743,14.5629,2326.51],[44.17,14.5666,2221.0615],[44.1647,14.5652,2261.792],[44.1618,14.5619,2182.8672],[44.1574,14.5605,2198.3862],[44.1523,14.5617,2145.3018],[44.1359,14.5565,1998.8466],[44.1301,14.5607,2000.6622],[44.1043,14.5592,1671.9939],[44.0995,14.5602,1677.8394],[44.095,14.5564,1742.8938],[44.0917,14.5605,1626.2659],[44.0893,14.5564,1646.235],[44.0837,14.5561,1604.0302],[44.0792,14.5636,1815.9026],[44.0738,14.5624,1687.5718],[44.0702,14.5592,1541.0215],[44.0657,14.5639,1588.8101],[44.0613,14.563,1504.356],[44.0592,14.5592,1503.697],[44.0547,14.5598,1501.8417],[44.0523,14.5574,1556.105]]]]}}