{"type":"Feature","properties":{"GID_2":"YEM.6.11_1","GID_0":"YEM","country":"Yemen","GID_1":"YEM.6_1","province":"AlJawf","NL_NAME_1":"الجوف","county":"KharabAlMarashi","VARNAME_2":"NA","NL_NAME_2":"خرابالمراشى","TYPE_2":"Muderiah","ENGTYPE_2":"District","CC_2":"1612","HASC_2":"NA","name":"Kharab_Al_Marashi.county"},
"geometry":{"type": "MultiPolygon","coordinates": [[[[44.4021,16.5663,1642.9498],[44.3937,16.5949,1768.5433],[44.3824,16.6078,2009.7573],[44.3623,16.6207,1956.3694],[44.3398,16.64,1766.4417],[44.2547,16.6699,2055.1289],[44.2076,16.6892,1934.2839],[44.1413,16.7326,2257.3799],[44.0666,16.6864,1580.0159],[44.0488,16.6537,1567.272],[44.0953,16.6539,1529.2109],[44.109,16.6447,1530.2769],[44.1234,16.6417,1518.3202],[44.1489,16.6441,1522.7264],[44.1681,16.6511,1547.3538],[44.1713,16.6503,1565.6267],[44.1865,16.6235,1512.4375],[44.2042,16.5874,1481.1029],[44.2275,16.5621,1438.5009],[44.2347,16.5567,1401.717],[44.2686,16.5406,1364.5881],[44.2673,16.5388,1361.9143],[44.2612,16.5385,1360.7983],[44.2632,16.5366,1358.9385],[44.2573,16.5356,1360.6487],[44.2606,16.5349,1358.5491],[44.2643,16.5277,1355.2041],[44.2637,16.522,1362.1989],[44.2724,16.5084,1363.6685],[44.2765,16.5046,1360.7939],[44.2789,16.4888,1408.4753],[44.3075,16.4889,1374.1311],[44.3179,16.4942,1309.5481],[44.3256,16.5066,1328.8361],[44.3311,16.5107,1333.7587],[44.3572,16.522,1366.4879],[44.3646,16.5279,1389.8046],[44.3743,16.5467,1859.5227],[44.3812,16.5539,1795.2291],[44.4021,16.5663,1642.9498]]]]}}