{"type":"Feature","properties":{"GID_2":"YEM.1.3_1","GID_0":"YEM","country":"Yemen","GID_1":"YEM.1_1","province":"`Adan","NL_NAME_1":"عدن","county":"AlMualla","VARNAME_2":"NA","NL_NAME_2":"المعلا","TYPE_2":"Muderiah","ENGTYPE_2":"District","CC_2":"2406","HASC_2":"NA","name":"Al_Mualla.county"},
"geometry":{"type": "MultiPolygon","coordinates": [[[[43.4124,12.671,0.8838],[43.4074,12.671,1.53],[43.401,12.6674,0.9239],[43.3918,12.6651,3.9253],[43.3893,12.6607,2.5633],[43.3879,12.6612,0.0],[43.3887,12.6582,2.3642],[43.3868,12.6554,0.0],[43.3901,12.6549,0.0],[43.3926,12.6488,0.6424],[43.3963,12.649,5.1745],[43.3987,12.6449,0.0],[43.4029,12.6454,0.0],[43.4071,12.6437,5.0251],[43.4076,12.6412,0.5448],[43.4118,12.6412,0.0],[43.4121,12.6426,0.0],[43.4074,12.644,0.0],[43.4054,12.6479,0.0],[43.4032,12.6476,0.0],[43.3993,12.654,6.3519],[43.404,12.6538,10.1301],[43.4068,12.6513,0.0],[43.4107,12.6515,0.0],[43.4132,12.6499,0.0],[43.4132,12.6543,13.6322],[43.4154,12.654,0.0],[43.4171,12.6562,2.122],[43.4232,12.6543,1.1085],[43.4224,12.6526,4.1718],[43.4185,12.6521,2.8211],[43.4193,12.6496,0.0],[43.4229,12.6493,2.1749],[43.4204,12.6454,0.0],[43.4243,12.6449,7.1153],[43.4226,12.6407,0.0],[43.419,12.6401,0.0],[43.4188,12.6365,0.0],[43.421,12.6357,1.6963],[43.4246,12.6371,15.1813],[43.4265,12.6426,0.0],[43.4282,12.6435,4.7857],[43.4287,12.6404,0.0],[43.4313,12.6393,0.5966],[43.4274,12.6335,0.0],[43.4326,12.6315,0.0],[43.4407,12.6399,0.9191],[43.4385,12.6449,0.0],[43.4404,12.6471,0.0],[43.4365,12.6535,0.3404],[43.4365,12.6557,0.8872],[43.4396,12.659,2.4464],[43.439,12.6615,0.0],[43.4329,12.6657,0.0],[43.4304,12.664,0.0],[43.4251,12.6643,4.2921],[43.4124,12.671,0.8838]]],
[[[45.0237,12.7975,11.2038],[45.0237,12.8001,5.843],[45.0221,12.8007,0.0],[45.0218,12.7965,1.2924],[45.0171,12.7937,2.1495],[45.006,12.8001,0.0],[45.004,12.7974,2.2972],[45.0013,12.7988,0.0],[44.9987,12.7957,0.0],[44.9949,12.7962,2.5808],[44.9929,12.7935,3.2511],[44.9938,12.7813,147.9321],[45.0062,12.7755,230.0213],[45.0198,12.7722,170.5801],[45.0198,12.783,142.1937],[45.03,12.7963,1.6456],[45.0237,12.7975,11.2038]]]]}}