{"type":"Feature","properties":{"GID_2":"YEM.13.13_1","GID_0":"YEM","country":"Yemen","GID_1":"YEM.13_1","province":"Hajjah","NL_NAME_1":"حجه","county":"BaniQa'is","VARNAME_2":"NA","NL_NAME_2":"بنيقيس","TYPE_2":"Muderiah","ENGTYPE_2":"District","CC_2":"1724","HASC_2":"NA","name":"Bani_Qa'is.county"},
"geometry":{"type": "MultiPolygon","coordinates": [[[[43.241,15.508,195.0892],[43.241,15.5113,188.27],[43.2428,15.5139,189.438],[43.2766,15.5148,605.79],[43.2966,15.5126,413.926],[43.3022,15.5186,634.8904],[43.3082,15.5216,790.9357],[43.3204,15.5318,351.2059],[43.3824,15.5351,724.447],[43.4028,15.5338,741.4724],[43.4151,15.5386,749.2465],[43.4376,15.5419,998.8744],[43.4318,15.5592,605.3021],[43.4262,15.5673,450.339],[43.4438,15.5727,439.6627],[43.4512,15.5796,484.3837],[43.4519,15.5854,515.7769],[43.4484,15.595,499.5651],[43.4448,15.6003,510.8557],[43.4445,15.6062,617.5662],[43.4516,15.6165,733.7903],[43.4509,15.6235,714.3154],[43.4496,15.6261,620.6102],[43.4429,15.629,544.5874],[43.4349,15.6273,458.8501],[43.4378,15.6353,493.3943],[43.4411,15.6379,482.6734],[43.4388,15.6566,628.7659],[43.4409,15.6594,549.8931],[43.4497,15.6591,588.5916],[43.4471,15.6642,629.4893],[43.4388,15.6732,589.5841],[43.4274,15.6828,617.9265],[43.4227,15.6897,620.561],[43.421,15.6989,617.5375],[43.4242,15.7034,507.0014],[43.4373,15.7115,494.7221],[43.4415,15.7282,483.6658],[43.444,15.7308,553.9383],[43.3926,15.7585,466.002],[43.3736,15.7612,560.3978],[43.3698,15.7566,555.3451],[43.3698,15.7523,623.5648],[43.3743,15.742,426.9344],[43.3741,15.7357,571.8139],[43.367,15.7319,473.0443],[43.3584,15.7327,451.5525],[43.3361,15.7463,431.2126],[43.3329,15.7506,430.4733],[43.3203,15.7529,497.2546],[43.2913,15.7427,459.3354],[43.2737,15.729,510.4003],[43.2697,15.6944,457.5264],[43.2673,15.6889,362.5364],[43.2686,15.6841,306.0532],[43.2663,15.6789,237.6163],[43.2386,15.6812,186.4907],[43.2225,15.6204,183.7704],[43.2245,15.5902,241.9814],[43.2279,15.5703,319.4662],[43.2236,15.539,189.4986],[43.2233,15.5133,147.7805],[43.241,15.508,195.0892]]]]}}