{"type":"Feature","properties":{"GID_2":"YEM.2.6_1","GID_0":"YEM","country":"Yemen","GID_1":"YEM.2_1","province":"Abyan","NL_NAME_1":"أبين","county":"Lawdar","VARNAME_2":"NA","NL_NAME_2":"لودر","TYPE_2":"Muderiah","ENGTYPE_2":"District","CC_2":"1204","HASC_2":"NA","name":"Lawdar.county"},
"geometry":{"type": "MultiPolygon","coordinates": [[[[46.0297,13.8385,799.384],[46.0364,13.8441,801.6713],[46.0345,13.857,804.2972],[46.0101,13.8645,826.7142],[46.0045,13.8829,835.6246],[46.0066,13.9363,1070.7886],[46.0519,13.9802,1308.3967],[46.1286,14.0104,1541.4376],[46.1356,14.011,1743.6799],[46.149,14.0183,1690.4751],[46.1313,14.0451,2198.3398],[46.1304,14.0713,1887.3052],[46.1261,14.0977,2187.3708],[46.1117,14.1171,1998.8007],[46.092,14.1236,2077.5542],[46.0625,14.127,2011.1221],[46.037,14.1231,1976.0317],[46.0025,14.1064,1970.7119],[45.9756,14.0905,1986.6207],[45.9715,14.0873,2069.8457],[45.9639,14.0708,2078.5051],[45.9638,14.0579,2070.9534],[45.9713,14.0413,2203.093],[45.958,14.0211,1510.4341],[45.8824,13.9736,1324.1028],[45.8277,13.9425,1392.0586],[45.7635,13.9004,1948.8359],[45.7143,13.8545,1428.1179],[45.6785,13.8417,1408.8552],[45.6559,13.8418,1218.0577],[45.6409,13.8455,1181.6315],[45.6182,13.829,1098.9247],[45.5881,13.8456,1145.8759],[45.5694,13.8751,1244.8813],[45.56,13.8965,1527.4786],[45.518,13.9051,1354.2539],[45.468,13.8894,1960.5717],[45.4927,13.8495,1366.8525],[45.5059,13.8166,1649.8909],[45.4973,13.7865,1661.2592],[45.4525,13.756,1273.368],[45.4768,13.7336,1129.6592],[45.5068,13.6967,945.5879],[45.5217,13.6305,855.7845],[45.51,13.58,844.47],[45.5844,13.6065,798.5988],[45.6411,13.5998,609.1362],[45.6491,13.601,714.6672],[45.699,13.581,657.1504],[45.7213,13.5498,803.8965],[45.7328,13.5393,603.1833],[45.7409,13.5173,700.4589],[45.7686,13.4984,792.9445],[45.7754,13.5083,818.6741],[45.7885,13.5065,863.8281],[45.8106,13.4848,1049.439],[45.894,13.5466,1136.4072],[45.9261,13.5906,1021.733],[45.9225,13.6127,980.4902],[45.9038,13.6459,908.6302],[45.8756,13.6497,904.7182],[45.8624,13.6498,897.0916],[45.8492,13.659,886.2507],[45.8587,13.6755,888.2583],[45.87,13.6755,887.7045],[45.8701,13.7013,906.8363],[45.8664,13.7252,937.1089],[45.8759,13.7454,1041.5217],[45.9533,13.7948,813.3],[45.9835,13.8149,858.4695],[46.0024,13.8296,830.328],[46.0212,13.8313,813.8241],[46.0297,13.8385,799.384]]]]}}