{"type":"Feature","properties":{"GID_2":"YEM.3.3_1","GID_0":"YEM","country":"Yemen","GID_1":"YEM.3_1","province":"AlBayda'","NL_NAME_1":"البيضاء","county":"AlBaydaCity","VARNAME_2":"NA","NL_NAME_2":"مدينةالبيضاء","TYPE_2":"Muderiah","ENGTYPE_2":"District","CC_2":"1409","HASC_2":"NA","name":"Al_Bayda_City.county"},
"geometry":{"type": "MultiPolygon","coordinates": [[[[45.5887,13.9955,2038.328],[45.5244,13.9939,1970.4177],[45.5288,13.9784,2027.3613],[45.536,13.9745,2010.7855],[45.5886,13.9743,2073.7971],[45.5887,13.9955,2038.328]]]]}}