{"type":"Feature","properties":{"GID_2":"YEM.4.3_1","GID_0":"YEM","country":"Yemen","GID_1":"YEM.4_1","province":"AlDali'","NL_NAME_1":"الضالع","county":"AlHusha","VARNAME_2":"NA","NL_NAME_2":"الحشاء","TYPE_2":"Muderiah","ENGTYPE_2":"District","CC_2":"3009","HASC_2":"NA","name":"Al_Husha.county"},
"geometry":{"type": "MultiPolygon","coordinates": [[[[44.5682,13.8154,1200.7372],[44.5671,13.8166,1204.2925],[44.567,13.8372,1245.729],[44.5642,13.8469,1252.4227],[44.5486,13.8604,1289.6492],[44.5365,13.8624,1303.8577],[44.5294,13.8655,1331.7025],[44.5096,13.8817,1380.4891],[44.4947,13.8838,1431.7222],[44.4834,13.8675,1600.087],[44.4816,13.8578,1482.4453],[44.4763,13.8524,1363.3241],[44.4728,13.8526,1437.9027],[44.4686,13.8557,1444.625],[44.4636,13.8637,1525.9611],[44.4593,13.866,1572.4406],[44.4565,13.8701,1563.8666],[44.4492,13.8727,1617.8682],[44.4347,13.872,1588.574],[44.4091,13.8635,1517.6018],[44.4054,13.8588,1471.4954],[44.4055,13.8472,1443.6333],[44.4073,13.8433,1436.1401],[44.4117,13.8405,1429.8882],[44.4128,13.8352,1399.9136],[44.4077,13.8302,1407.9532],[44.396,13.8323,1442.2471],[44.3822,13.8296,1441.0066],[44.3688,13.8238,1588.5564],[44.3688,13.8081,1573.5619],[44.3702,13.8036,1580.2169],[44.3763,13.8004,1586.9652],[44.3809,13.7937,1699.92],[44.3806,13.7874,1660.0354],[44.3727,13.773,1587.0081],[44.3794,13.771,1608.1289],[44.3889,13.7614,1574.339],[44.3913,13.7451,1654.6846],[44.3925,13.7431,1573.667],[44.4017,13.7391,1502.604],[44.4046,13.7266,1425.8755],[44.4072,13.7246,1424.0389],[44.4085,13.7201,1463.6971],[44.4055,13.7159,1419.6014],[44.4002,13.7155,1489.9255],[44.3948,13.7041,1405.8789],[44.3999,13.6961,1408.2961],[44.3963,13.6892,1372.2029],[44.3767,13.6713,1723.0026],[44.3721,13.6625,1598.0872],[44.3719,13.6513,1301.3606],[44.3742,13.6438,1189.7708],[44.3781,13.6376,1233.7151],[44.3907,13.6316,1184.421],[44.4311,13.6208,1088.5847],[44.4318,13.64,1247.1517],[44.435,13.6451,1201.6719],[44.44,13.6467,1324.7738],[44.5128,13.6153,896.0475],[44.5182,13.6303,957.0188],[44.5203,13.6572,1423.6632],[44.5187,13.6615,1338.556],[44.5176,13.6774,1191.939],[44.523,13.6811,1301.7029],[44.54,13.7002,1808.4799],[44.5408,13.7089,1709.5129],[44.5518,13.7224,1846.1787],[44.5603,13.7434,1460.134],[44.5589,13.7441,1537.6974],[44.5608,13.7488,1471.5625],[44.5596,13.7881,1207.5806],[44.5642,13.8039,1201.6396],[44.5676,13.8095,1186.915],[44.5682,13.8154,1200.7372]]]]}}