{"type":"Feature","properties":{"GID_2":"YEM.14.16_1","GID_0":"YEM","country":"Yemen","GID_1":"YEM.14_1","province":"Ibb","NL_NAME_1":"إب","county":"Hubaysh","VARNAME_2":"NA","NL_NAME_2":"حبيش","TYPE_2":"Muderiah","ENGTYPE_2":"District","CC_2":"1108","HASC_2":"NA","name":"Hubaysh.county"},
"geometry":{"type": "MultiPolygon","coordinates": [[[[44.0147,14.0689,1626.5294],[44.0194,14.0689,1649.5043],[44.0239,14.0709,1689.1917],[44.0245,14.0919,1548.8831],[44.028,14.0954,1543.5509],[44.0279,14.1002,1518.8901],[44.0139,14.1015,1504.4515],[44.0104,14.1049,1392.6521],[44.0104,14.109,1357.3689],[44.0026,14.1097,1347.8802],[44.0085,14.0972,1434.3756],[44.0057,14.0936,1474.4324],[44.0057,14.0886,1437.9105],[44.0084,14.0823,1516.1704],[44.0119,14.0816,1568.0752],[44.0147,14.0782,1641.9443],[44.0147,14.0689,1626.5294]]],
[[[44.135,14.1873,1292.1055],[44.1364,14.19,1349.9426],[44.1153,14.1935,1318.6731],[44.1024,14.1928,1314.6775],[44.0942,14.188,1355.418],[44.0806,14.1869,1356.2198],[44.0815,14.2241,1200.5303],[44.0616,14.2231,1175.9807],[44.0501,14.2279,1086.886],[44.0502,14.2127,1251.0981],[44.0463,14.2092,1195.4674],[44.0408,14.1915,1271.7993],[44.0405,14.1792,1258.6035],[44.0429,14.1756,1350.0278],[44.0347,14.17,1317.3767],[44.0122,14.1631,1307.1982],[44.0095,14.1556,1300.8916],[44.0159,14.1337,1633.4836],[44.0159,14.1172,1396.7065],[44.0293,14.1159,1501.7065],[44.0328,14.1132,1468.7858],[44.0384,14.1151,1454.1667],[44.0383,14.1434,1776.2723],[44.0463,14.1491,1578.3014],[44.046,14.1536,1508.265],[44.0417,14.1625,1614.5117],[44.0473,14.1694,1506.2156],[44.0488,14.1673,1485.672],[44.0561,14.1639,1448.0364],[44.0544,14.1503,1522.9528],[44.0601,14.138,1561.1318],[44.058,14.1318,1644.4078],[44.0436,14.1208,1484.1744],[44.0443,14.1125,1468.1367],[44.0593,14.0891,1629.7009],[44.0608,14.0799,1755.7614],[44.0509,14.0697,1889.6194],[44.0393,14.0679,1779.2408],[44.0338,14.0541,1791.2881],[44.0336,14.0498,1756.5557],[44.0284,14.0481,1819.9497],[44.0267,14.0406,1887.038],[44.0203,14.0412,1958.7805],[44.015,14.0393,1908.9564],[44.0076,14.0426,1668.4116],[44.0072,14.0449,1702.2688],[44.0038,14.0463,1630.9771],[44.0016,14.0424,1705.5566],[44.0002,14.0328,2054.54],[44.0041,14.0317,1982.0537],[44.0069,14.0288,2090.1482],[44.0179,14.0353,2008.0964],[44.0215,14.0351,2175.9395],[44.0252,14.0315,2066.4126],[44.0276,14.0207,1940.646],[44.0416,14.0094,1577.1407],[44.0412,14.0066,1562.0229],[44.044,14.0042,1532.1812],[44.0474,14.0056,1656.1578],[44.0462,14.0078,1589.6376],[44.0497,14.0079,1666.6658],[44.0493,14.011,1682.3148],[44.0579,14.0146,1791.3433],[44.0617,14.0124,1992.8982],[44.0621,14.0144,1901.8716],[44.0605,14.015,1859.0896],[44.0613,14.0185,1896.7151],[44.0647,14.0149,1917.9971],[44.0677,14.0139,2171.2139],[44.0753,14.0157,2480.4238],[44.0779,14.0224,2640.749],[44.0776,14.0257,2639.3994],[44.0839,14.0304,2508.0339],[44.0921,14.0303,2464.3579],[44.1047,14.0404,2218.6382],[44.1062,14.0477,2149.9077],[44.1102,14.0542,1981.0189],[44.1165,14.0571,1860.4775],[44.1202,14.0571,1952.3959],[44.1191,14.0618,1806.1489],[44.1209,14.064,1746.6344],[44.1353,14.0702,1685.8948],[44.1316,14.0745,1596.0842],[44.143,14.0864,1531.4897],[44.1507,14.1031,1492.4746],[44.1551,14.1068,1460.4216],[44.1613,14.1068,1450.9333],[44.164,14.1188,1465.689],[44.1649,14.1341,1567.4473],[44.1606,14.142,1536.5923],[44.1513,14.1478,1406.5081],[44.1475,14.1569,1356.2604],[44.1474,14.1625,1351.7915],[44.1434,14.1702,1313.0679],[44.1381,14.1721,1311.4846],[44.1389,14.1814,1295.7498],[44.1346,14.1835,1288.1084],[44.135,14.1873,1292.1055]]]]}}