{"type":"Feature","properties":{"GID_2":"YEM.16.1_1","GID_0":"YEM","country":"Yemen","GID_1":"YEM.16_1","province":"Ma'rib","NL_NAME_1":"مأرب","county":"AlAbdiyah","VARNAME_2":"NA","NL_NAME_2":"العبدية","TYPE_2":"Muderiah","ENGTYPE_2":"District","CC_2":"2611","HASC_2":"NA","name":"Al_Abdiyah.county"},
"geometry":{"type": "MultiPolygon","coordinates": [[[[45.4358,14.5991,1963.5742],[45.4867,14.5974,1806.8997],[45.4901,14.6207,1852.0767],[45.4959,14.6439,1837.8922],[45.5146,14.6679,1773.0673],[45.5246,14.7128,1765.0563],[45.5147,14.714,1899.7565],[45.5009,14.7186,1670.2222],[45.4892,14.7247,1358.2864],[45.48,14.7312,1451.8126],[45.4746,14.7437,1606.8666],[45.482,14.7938,1880.7192],[45.4933,14.8499,1383.5626],[45.486,14.8498,1603.9028],[45.4411,14.8574,1488.8094],[45.3533,14.8448,1488.1262],[45.3358,14.8328,1515.7891],[45.3067,14.805,1721.7876],[45.2927,14.784,1827.2294],[45.2913,14.7785,1897.2118],[45.2921,14.7733,1969.6962],[45.294,14.772,1977.3063],[45.307,14.778,1952.175],[45.3074,14.7742,1858.9224],[45.2939,14.763,1889.0521],[45.2841,14.7516,1862.0505],[45.2767,14.7236,1906.5764],[45.2626,14.7242,1818.2007],[45.2637,14.6509,2019.4498],[45.2668,14.6077,2012.0034],[45.2814,14.5863,2042.875],[45.2916,14.5888,2068.0342],[45.3179,14.5765,2172.501],[45.3647,14.5781,2030.0974],[45.3733,14.5815,2103.1631],[45.3836,14.5965,2134.1035],[45.4025,14.6337,2096.168],[45.4179,14.6352,2066.7742],[45.4229,14.6319,2099.4688],[45.4358,14.5991,1963.5742]],
[[45.4721,14.6686,1842.141],[45.4702,14.6554,1872.282],[45.455,14.6568,1905.9773],[45.462,14.6863,1858.6132],[45.4744,14.6844,1872.1298],[45.4721,14.6686,1842.141]]]]}}