{"type":"Feature","properties":{"GID_2":"YEM.14.18_1","GID_0":"YEM","country":"Yemen","GID_1":"YEM.14_1","province":"Ibb","NL_NAME_1":"إب","county":"Jiblah","VARNAME_2":"NA","NL_NAME_2":"جبلة","TYPE_2":"Muderiah","ENGTYPE_2":"District","CC_2":"1112","HASC_2":"NA","name":"Jiblah.county"},
"geometry":{"type": "MultiPolygon","coordinates": [[[[44.1198,13.9753,2126.6584],[44.1135,13.9683,2245.9648],[44.1121,13.9677,2268.104],[44.111,13.9717,2240.1836],[44.1083,13.9661,2391.8838],[44.1074,13.9676,2387.9268],[44.1055,13.9672,2386.6409],[44.0938,13.954,1858.6875],[44.091,13.9485,1997.8516],[44.0818,13.9472,1601.5715],[44.0772,13.943,1712.7137],[44.0781,13.9405,1753.9867],[44.093,13.93,2089.2563],[44.0944,13.9272,2007.0961],[44.0916,13.9237,1877.9414],[44.0718,13.9191,1551.1282],[44.0677,13.9197,1528.6384],[44.0671,13.9214,1495.3983],[44.0532,13.9275,1444.3907],[44.0493,13.9267,1403.0245],[44.0384,13.9289,1351.2635],[44.0335,13.9277,1327.0548],[44.0301,13.9247,1329.1716],[44.027,13.917,1369.1263],[44.0279,13.9076,1420.9965],[44.0304,13.9028,1480.8237],[44.0345,13.9012,1451.1035],[44.0378,13.8956,1532.2388],[44.0485,13.8948,1894.605],[44.0626,13.8852,2400.5857],[44.0692,13.8772,2789.5364],[44.0692,13.8715,2744.9648],[44.0741,13.8684,2544.3513],[44.0783,13.87,2529.8284],[44.0899,13.8603,2360.2915],[44.1017,13.8544,2240.4268],[44.1088,13.8596,2058.707],[44.1105,13.8644,2373.5386],[44.1203,13.8653,2396.47],[44.1326,13.8689,2661.1919],[44.1386,13.8752,2616.0227],[44.1457,13.8742,2715.6006],[44.1589,13.8837,2437.7568],[44.164,13.8832,2404.8701],[44.167,13.8792,2311.2019],[44.1654,13.8753,2393.2434],[44.1668,13.874,2404.7451],[44.1684,13.873,2367.5977],[44.1715,13.8743,2307.7964],[44.174,13.8805,2268.8467],[44.1718,13.8928,2334.3013],[44.1718,13.9002,2167.6702],[44.1737,13.9032,2167.7756],[44.1768,13.9059,2181.4495],[44.1939,13.9093,2082.8022],[44.2155,13.9272,1848.6012],[44.1949,13.9402,1872.9922],[44.1719,13.9325,1915.9492],[44.1696,13.927,1952.652],[44.1561,13.9303,1946.7292],[44.1457,13.9375,2118.8179],[44.1409,13.9483,2230.79],[44.1376,13.9486,2225.5249],[44.1254,13.9635,2189.4028],[44.1243,13.9693,2137.7219],[44.1198,13.9753,2126.6584]]]]}}