{"type":"Feature","properties":{"GID_2":"YEM.8.6_1","GID_0":"YEM","country":"Yemen","GID_1":"YEM.8_1","province":"AlMahwit","NL_NAME_1":"المحويت","county":"BaniSa'd","VARNAME_2":"NA","NL_NAME_2":"بنيسعد","TYPE_2":"Muderiah","ENGTYPE_2":"District","CC_2":"2707","HASC_2":"NA","name":"Bani_Sa'd.county"},
"geometry":{"type": "MultiPolygon","coordinates": [[[[43.4022,15.1734,571.8531],[43.4106,15.1657,452.1465],[43.4208,15.1516,408.145],[43.4291,15.133,382.2388],[43.4327,15.1124,361.1545],[43.4391,15.0969,351.8922],[43.452,15.0824,367.9212],[43.49,15.0567,468.1031],[43.4962,15.0501,580.3832],[43.5061,15.0496,477.2907],[43.5082,15.0572,498.2727],[43.5194,15.065,520.4988],[43.5321,15.0924,1096.5676],[43.5344,15.0944,1098.5099],[43.5518,15.0973,877.9895],[43.5527,15.1059,882.9578],[43.5561,15.1112,858.2517],[43.563,15.1104,788.3602],[43.567,15.1116,741.082],[43.5692,15.1149,729.2823],[43.5685,15.1184,698.625],[43.5705,15.1208,743.0333],[43.5711,15.1272,766.8279],[43.5687,15.1357,688.2948],[43.5573,15.1495,674.0837],[43.543,15.1586,864.4593],[43.5446,15.2,575.3307],[43.5544,15.2049,545.183],[43.5655,15.2189,569.4688],[43.5774,15.2234,679.2322],[43.5836,15.2343,642.5264],[43.6145,15.2391,677.8976],[43.6219,15.2433,755.9655],[43.6314,15.2519,742.9482],[43.6436,15.2522,775.4593],[43.6461,15.2619,864.2683],[43.6425,15.27,848.9665],[43.6434,15.2797,826.6412],[43.6272,15.2968,940.8743],[43.618899999999996,15.3074,1009.0685],[43.6158,15.315,1041.8059],[43.6075,15.323,1112.0383],[43.6017,15.3256,1154.7537],[43.6001,15.3284,1126.7175],[43.5692,15.322,971.1802],[43.5654,15.3242,947.0624],[43.5518,15.3469,971.191],[43.5391,15.3593,1156.4189],[43.5376,15.3892,1091.8486],[43.5188,15.409,1039.1428],[43.5195,15.4141,1019.9854],[43.4957,15.4215,939.3624],[43.4906,15.4181,1022.8322],[43.4911,15.3993,1008.2354],[43.483,15.3817,1084.0173],[43.4767,15.3793,1258.1041],[43.4767,15.3704,1139.1774],[43.4813,15.3453,971.2084],[43.4803,15.326,1325.1948],[43.4744,15.3213,1406.0148],[43.4606,15.319,1379.42],[43.4446,15.3105,965.4146],[43.4369,15.3128,920.2271],[43.4351,15.3033,773.4069],[43.4313,15.2928,697.6788],[43.4262,15.2849,697.9021],[43.4242,15.277,650.8523],[43.3995,15.2386,405.6421],[43.3948,15.2075,351.5685],[43.3909,15.1977,347.3983],[43.3851,15.1934,311.5923],[43.4022,15.1734,571.8531]]]]}}