{"type":"Feature","properties":{"GID_2":"YEM.3.19_1","GID_0":"YEM","country":"Yemen","GID_1":"YEM.3_1","province":"AlBayda'","NL_NAME_1":"البيضاء","county":"Sabah","VARNAME_2":"NA","NL_NAME_2":"صباح","TYPE_2":"Muderiah","ENGTYPE_2":"District","CC_2":"1417","HASC_2":"NA","name":"Sabah.county"},
"geometry":{"type": "MultiPolygon","coordinates": [[[[44.6715,14.3688,2610.7349],[44.665,14.3635,2677.1494],[44.6304,14.3655,2743.8474],[44.6127,14.3622,2749.9148],[44.6119,14.3565,2729.7114],[44.5861,14.3286,2452.5322],[44.5967,14.3008,2467.6602],[44.5976,14.2939,2398.8506],[44.6202,14.2945,2388.8145],[44.6329,14.2905,2374.0632],[44.6343,14.2884,2391.3608],[44.6343,14.2817,2414.8853],[44.6294,14.2675,2584.9846],[44.6175,14.2555,2306.9807],[44.6176,14.2466,2166.9053],[44.6148,14.2386,2097.291],[44.6149,14.2274,2081.3633],[44.6167,14.2253,2088.1372],[44.6185,14.2129,2067.1619],[44.6167,14.2064,2043.8752],[44.6182,14.2009,2052.6187],[44.6231,14.1969,2074.0061],[44.6318,14.197,2277.5164],[44.6413,14.188,2229.6575],[44.6539,14.1831,2207.4502],[44.6679,14.1913,2246.5146],[44.6933,14.2173,2292.6365],[44.7041,14.2316,2327.2786],[44.7193,14.2644,2671.1711],[44.754,14.3078,2678.9958],[44.7496,14.3163,2631.8083],[44.7453,14.3189,2537.1392],[44.7328,14.3221,2464.8167],[44.7143,14.3231,2404.0437],[44.7067,14.3305,2497.51],[44.704,14.34,2627.8596],[44.6855,14.3596,2441.3147],[44.6715,14.3688,2610.7349]]]]}}