{"type":"Feature","properties":{"GID_2":"YEM.20.7_1","GID_0":"YEM","country":"Yemen","GID_1":"YEM.20_1","province":"Shabwah","NL_NAME_1":"شبوة","county":"Bayhan","VARNAME_2":"NA","NL_NAME_2":"بيحان","TYPE_2":"Muderiah","ENGTYPE_2":"District","CC_2":"2107","HASC_2":"NA","name":"Bayhan.county"},
"geometry":{"type": "MultiPolygon","coordinates": [[[[45.7664,14.5924,1763.5302],[45.7685,14.5924,1766.9052],[45.7784,14.6211,1567.8511],[45.8201,14.6985,1223.4536],[45.8618,14.7636,1116.7112],[45.9137,14.8305,1085.363],[45.8421,14.8771,1093.4246],[45.7698,14.9101,1082.552],[45.7519,14.915,1075.1423],[45.747,14.9121,1082.3945],[45.742,14.9131,1083.3838],[45.741,14.9179,1084.7213],[45.6786,14.9321,1977.9158],[45.6417,14.8363,1988.23],[45.5828,14.7107,1927.5533],[45.6066,14.709,1722.3831],[45.6089,14.7135,1715.9048],[45.6179,14.7153,1380.448],[45.6284,14.7153,1224.5933],[45.645,14.7201,1239.3535],[45.6516,14.7196,1383.5974],[45.6559,14.7159,1488.9136],[45.6651,14.6948,1325.9159],[45.6548,14.676,1551.323],[45.6502,14.6706,1682.0084],[45.6497,14.6203,1408.1248],[45.646,14.6011,1463.0803],[45.6511,14.5949,1255.3206],[45.6557,14.5922,1286.8727],[45.6644,14.5916,1394.7734],[45.6826,14.5953,1490.167],[45.7664,14.5924,1763.5302]]]]}}