{"type":"Feature","properties":{"GID_2":"YEM.21.10_1","GID_0":"YEM","country":"Yemen","GID_1":"YEM.21_1","province":"Ta`izz","NL_NAME_1":"تعز","county":"AtTa'iziyah","VARNAME_2":"NA","NL_NAME_2":"التعزية","TYPE_2":"Muderiah","ENGTYPE_2":"District","CC_2":"1502","HASC_2":"NA","name":"At_Ta'iziyah.county"},
"geometry":{"type": "MultiPolygon","coordinates": [[[[44.1689,13.7514,1676.2833],[44.1558,13.7496,1540.415],[44.1283,13.7501,1558.7596],[44.1128,13.7577,1619.647],[44.0853,13.7773,1554.8114],[44.0707,13.7695,1621.4757],[44.0581,13.7672,1609.9583],[44.0396,13.7675,1700.6334],[44.0304,13.7703,1569.8995],[44.0004,13.7854,1819.2834],[43.9817,13.8005,1876.5879],[43.9734,13.7899,1532.5608],[43.9673,13.7907,1601.87],[43.9661,13.7941,1757.8577],[43.9616,13.7954,1767.7737],[43.953,13.7948,1590.6022],[43.9529,13.7793,1404.3158],[43.9594,13.7696,1529.2825],[43.9782,13.7286,1464.2515],[43.9824,13.7076,1296.7574],[43.9784,13.6939,1214.9561],[43.9697,13.6835,1203.9211],[43.9493,13.6755,1134.5562],[43.9457,13.692,1119.2373],[43.9492,13.6943,1191.4928],[43.9492,13.7006,1234.6589],[43.9451,13.7063,1368.1759],[43.9416,13.7062,1175.4316],[43.9369,13.7034,1169.1497],[43.9299,13.7056,1214.7712],[43.9235,13.7107,1135.3687],[43.923,13.7143,1137.9905],[43.9158,13.7198,1242.4768],[43.9139,13.7231,1226.4849],[43.9139,13.7273,1251.1412],[43.9046,13.7247,1212.2463],[43.8978,13.7208,1140.7537],[43.8945,13.7156,1134.4597],[43.8882,13.6956,1209.3121],[43.8832,13.6859,1060.3778],[43.8759,13.6818,985.5004],[43.8741,13.6779,975.2982],[43.8671,13.6798,1125.7297],[43.8615,13.6834,989.6126],[43.8605,13.6978,1056.0963],[43.857,13.7054,1053.8413],[43.8488,13.7048,1029.6265],[43.8479,13.7028,1011.9731],[43.8514,13.6992,1011.3165],[43.8505,13.6966,992.8368],[43.8257,13.6976,1076.0934],[43.8211,13.6958,1114.7299],[43.8197,13.6925,1156.3617],[43.8222,13.6874,1137.4529],[43.8223,13.6771,1040.8846],[43.8293,13.6653,1046.8198],[43.8403,13.6554,899.7817],[43.8602,13.6542,892.5083],[43.8642,13.636,938.5518],[43.8499,13.6349,997.40239999999994],[43.8434,13.6262,1013.1248],[43.8435,13.616,1081.1631],[43.8522,13.6075,1113.1836],[43.8627,13.6024,1075.1632],[43.8611,13.58,1097.6902],[43.8657,13.5717,1067.6918],[43.8665,13.567,1145.9182],[43.874,13.5676,1153.9706],[43.8859,13.5754,1155.6901],[43.8937,13.5678,1241.2911],[43.9349,13.568,1108.5449],[43.9403,13.5781,1106.2872],[43.9635,13.5939,1157.2009],[43.9911,13.6058,1155.0164],[44.0162,13.61,1196.7772],[44.0251,13.6095,1214.2622],[44.0415,13.6007,1266.8081],[44.0507,13.6007,1330.8857],[44.0603,13.5967,1329.012],[44.0695,13.5854,1580.2615],[44.0717,13.5849,1571.3883],[44.0736,13.5863,1432.2346],[44.0737,13.5904,1356.3088],[44.0663,13.5954,1309.0684],[44.0663,13.5972,1291.9059],[44.0714,13.6024,1298.802],[44.0821,13.6043,1319.1863],[44.0902,13.6036,1345.2603],[44.0963,13.607,1358.5178],[44.099,13.6108,1347.8416],[44.0993,13.6179,1348.0662],[44.1016,13.6239,1361.9105],[44.1051,13.6243,1368.1484],[44.1074,13.6232,1365.7283],[44.1112,13.6243,1389.5547],[44.1131,13.6221,1405.8346],[44.1127,13.6179,1391.446],[44.1036,13.6085,1353.7568],[44.1009,13.6021,1367.0117],[44.1021,13.5988,1370.5541],[44.1082,13.5992,1373.8833],[44.1148,13.5913,1411.9901],[44.1222,13.5872,1533.0763],[44.1268,13.5918,1553.4761],[44.1324,13.61,1422.4392],[44.1382,13.6147,1393.8405],[44.1419,13.6103,1396.1625],[44.1544,13.6071,1403.4795],[44.1926,13.6127,1363.0721],[44.1981,13.6218,1381.1119],[44.1991,13.6286,1372.1938],[44.1953,13.6449,1395.2556],[44.1879,13.6507,1372.2252],[44.1763,13.6507,1392.6978],[44.1704,13.6592,1409.7698],[44.1756,13.6644,1399.3627],[44.1715,13.678,1433.9042],[44.1709,13.69,1452.4971],[44.1919,13.7197,1440.9546],[44.1781,13.7406,1675.5109],[44.1689,13.7514,1676.2833]]]]}}