{"type":"Feature","properties":{"GID_2":"YEM.9.8_1","GID_0":"YEM","country":"Yemen","GID_1":"YEM.9_1","province":"AmanatAlAsimah","NL_NAME_1":"أمانةالعاصمة","county":"Ma'ain","VARNAME_2":"NA","NL_NAME_2":"معين","TYPE_2":"Muderiah","ENGTYPE_2":"District","CC_2":"1308","HASC_2":"NA","name":"Ma'ain.county"},
"geometry":{"type": "MultiPolygon","coordinates": [[[[44.1903,15.3445,2268.5991],[44.1886,15.352,2265.9099],[44.1922,15.3523,2261.2515],[44.193,15.3554,2260.7812],[44.1914,15.3636,2256.4209],[44.1794,15.3736,2273.582],[44.1716,15.3906,2300.1748],[44.1716,15.3934,2300.9656],[44.1804,15.4017,2272.0947],[44.155,15.3999,2308.9114],[44.1457,15.3957,2334.437],[44.1399,15.3774,2540.6504],[44.1388,15.3644,2663.2437],[44.1436,15.3517,2611.5942],[44.1598,15.3395,2362.5288],[44.1617,15.341,2344.553],[44.1903,15.3445,2268.5991]]]]}}