{"type":"Feature","properties":{"GID_2":"YEM.14.12_1","GID_0":"YEM","country":"Yemen","GID_1":"YEM.14_1","province":"Ibb","NL_NAME_1":"إب","county":"Ba'dan","VARNAME_2":"NA","NL_NAME_2":"بعدان","TYPE_2":"Muderiah","ENGTYPE_2":"District","CC_2":"1113","HASC_2":"NA","name":"Ba'dan.county"},
"geometry":{"type": "MultiPolygon","coordinates": [[[[44.4608,13.961,1634.0017],[44.4519,13.9741,1662.2753],[44.4449,13.9697,1788.2026],[44.4382,13.9681,1656.5533],[44.4157,13.9673,1744.5193],[44.4039,13.9688,1786.3467],[44.3966,13.9717,1827.6782],[44.3952,13.9715,1827.6782],[44.395,13.9696,1809.8479],[44.3924,13.9692,1820.4407],[44.3916,13.9717,1863.045],[44.395,13.9743,1853.2388],[44.4002,13.9878,1902.238],[44.399,13.9996,2214.1768],[44.3955,14.006,2201.5227],[44.3901,14.0096,2194.2156],[44.3799,14.0107,2288.0396],[44.378,14.0131,2309.7722],[44.376,14.0119,2429.259],[44.377,14.0085,2323.0867],[44.373,14.0111,2459.887],[44.3704,14.0105,2317.6958],[44.3714,14.0079,2290.0715],[44.3737,14.0084,2363.3137],[44.3736,14.0058,2297.2234],[44.3701,13.9948,2222.4922],[44.3664,13.9893,2143.0449],[44.361,13.9867,2125.939],[44.3584,13.9908,2153.855],[44.3494,13.9972,2301.2341],[44.3321,14.014,2403.7397],[44.31,14.0266,2298.623],[44.3058,14.0328,2536.7756],[44.3105,14.0444,2548.2769],[44.3093,14.0503,2955.7056],[44.2981,14.0617,2948.0703],[44.2881,14.0662,2845.2996],[44.2819,14.072,2951.6733],[44.2783,14.0871,2889.3457],[44.272,14.0917,3067.9966],[44.2607,14.0847,2607.1047],[44.2466,14.081,2341.1484],[44.2366,14.0769,2571.8984],[44.2348,14.0759,2541.9888],[44.2345,14.0734,2514.4907],[44.2333,14.0737,2471.8503],[44.2354,14.0713,2526.5156],[44.2387,14.0713,2653.3049],[44.2436,14.0666,2646.5427],[44.2434,14.0615,2459.4902],[44.2526,14.0551,2459.334],[44.2533,14.0518,2456.6819],[44.2395,14.049,2234.8904],[44.2363,14.0441,2229.9858],[44.218,14.0406,2135.5623],[44.2,14.0406,1927.1582],[44.1877,14.0457,1607.9375],[44.1867,14.0438,1618.4806],[44.1863,14.0412,1598.4684],[44.1886,14.0371,1625.4426],[44.2053,14.0297,1857.8894],[44.216,14.0158,2213.0923],[44.2401,13.9917,2400.5515],[44.237,13.9866,2542.8772],[44.2388,13.9823,2511.8413],[44.2444,13.9781,2588.584],[44.2458,13.9735,2738.7678],[44.2419,13.9684,2654.9622],[44.23,13.9594,2358.5073],[44.2242,13.9513,2039.9436],[44.2259,13.9481,2017.8853],[44.2325,13.9465,2327.9395],[44.2345,13.9445,2384.9536],[44.2356,13.937,2116.1501],[44.2399,13.9358,2249.9622],[44.2509,13.9462,2137.9854],[44.2575,13.9469,2060.7827],[44.2652,13.9375,2366.9097],[44.2713,13.9228,2112.0066],[44.2803,13.9134,1994.3577],[44.2988,13.9091,2011.8772],[44.3116,13.9191,2124.4333],[44.3128,13.9289,2012.0337],[44.3072,13.9395,2082.3518],[44.3032,13.943,2180.2942],[44.2952,13.9461,2251.8779],[44.2791,13.9488,2461.1685],[44.2763,13.9523,2507.6528],[44.2755,13.9589,2520.4568],[44.2719,13.9652,2460.0359],[44.2718,13.9726,2504.4983],[44.2738,13.9757,2611.979],[44.2798,13.9765,2374.9751],[44.2871,13.9738,2403.1208],[44.3011,13.9719,2487.5642],[44.3079,13.9743,2365.1172],[44.3127,13.9794,2089.3181],[44.3171,13.9806,2035.2845],[44.3187,13.9786,2006.0939],[44.3255,13.9767,1994.2173],[44.3315,13.9704,1978.1257],[44.3379,13.9669,2043.6512],[44.3428,13.9564,1923.4668],[44.3472,13.9556,1972.8169],[44.3488,13.9517,1911.576],[44.3512,13.9537,1927.2383],[44.3644,13.9514,1991.2346],[44.3632,13.9451,1878.7234],[44.36,13.9447,1861.6138],[44.3649,13.9267,1788.8536],[44.3749,13.9236,1732.2454],[44.3777,13.9197,1754.1094],[44.3825,13.9189,1697.9724],[44.3889,13.9209,1732.5422],[44.3917,13.919,1697.3911],[44.3957,13.9202,1692.6382],[44.3969,13.9178,1660.4238],[44.3953,13.9166,1670.4662],[44.3949,13.9108,1622.2518],[44.3986,13.9057,1607.9888],[44.4118,13.8999,1661.2123],[44.4306,13.8948,1665.3386],[44.4322,13.8917,1691.0994],[44.4356,13.8917,1650.2814],[44.4361,13.8886,1670.1799],[44.4425,13.8857,1657.9777],[44.4444,13.887,1634.6104],[44.4487,13.9047,1628.2047],[44.4596,13.9185,1494.3075],[44.46,13.923,1504.9343],[44.4532,13.9307,1554.1997],[44.4499,13.9462,1563.4952],[44.4503,13.95,1612.217],[44.453,13.9541,1610.1638],[44.4608,13.961,1634.0017]]]]}}