{"type":"Feature","properties":{"GID_2":"YEM.13.27_1","GID_0":"YEM","country":"Yemen","GID_1":"YEM.13_1","province":"Hajjah","NL_NAME_1":"حجه","county":"QaflShamer","VARNAME_2":"NA","NL_NAME_2":"قفلشمر","TYPE_2":"Muderiah","ENGTYPE_2":"District","CC_2":"1713","HASC_2":"NA","name":"Qafl_Shamer.county"},
"geometry":{"type": "MultiPolygon","coordinates": [[[[43.3907,15.9381,1148.8796],[43.375,15.9437,619.0508],[43.3603,15.9467,437.683],[43.3573,15.9512,403.0402],[43.3446,15.9597,373.0923],[43.344,15.9565,371.9143],[43.3458,15.9526,394.8633],[43.3444,15.9437,396.456],[43.3472,15.9346,407.4388],[43.3371,15.932,376.4919],[43.328,15.9387,348.5455],[43.3196,15.941,344.8386],[43.3027,15.9513,317.7319],[43.3014,15.9314,338.3101],[43.3019,15.9056,539.8995],[43.305,15.8917,451.5179],[43.3114,15.8844,465.1789],[43.3235,15.8826,550.2939],[43.3255,15.879,522.946],[43.3358,15.8765,597.3219],[43.3416,15.8691,602.0162],[43.3607,15.8579,1115.538],[43.366,15.8577,1147.229],[43.374,15.86,857.7153],[43.375,15.8637,807.2709],[43.3714,15.8844,1193.778],[43.3748,15.8907,1195.5098],[43.3828,15.8939,1216.2572],[43.3848,15.8973,1155.0242],[43.3948,15.8957,1162.2175],[43.4009,15.8908,1142.9583],[43.4111,15.891,1150.6871],[43.4225,15.8944,1144.9407],[43.4222,15.9056,1173.5342],[43.4267,15.9208,1215.9843],[43.4119,15.9215,1146.2495],[43.4112,15.9301,1154.6167],[43.4071,15.9354,1174.2917],[43.4033,15.9372,1221.7285],[43.3907,15.9381,1148.8796]]]]}}