{"type":"Feature","properties":{"GID_2":"YEM.10.4_1","GID_0":"YEM","country":"Yemen","GID_1":"YEM.10_1","province":"Amran","NL_NAME_1":"عمران","county":"Amran","VARNAME_2":"NA","NL_NAME_2":"عمران","TYPE_2":"Muderiah","ENGTYPE_2":"District","CC_2":"2915","HASC_2":"NA","name":"Amran.county"},
"geometry":{"type": "MultiPolygon","coordinates": [[[[43.9902,15.7192,2206.3904],[43.9908,15.7245,2205.0181],[43.973,15.725,2208.0962],[43.9679,15.7279,2208.8254],[43.9578,15.7279,2212.3665],[43.9487,15.7259,2216.6311],[43.9406,15.718,2224.5012],[43.9306,15.7032,2393.1841],[43.9165,15.6786,2291.5522],[43.9105,15.6648,2248.3772],[43.9044,15.6648,2251.6055],[43.8904,15.6706,2259.123],[43.887,15.6678,2264.635],[43.8861,15.6627,2286.457],[43.8894,15.658,2269.2617],[43.8778,15.638,2301.2964],[43.8884,15.6284,2568.3735],[43.8985,15.6255,2619.8228],[43.9178,15.6286,2488.4536],[43.9279,15.6375,2387.332],[43.9329,15.6453,2304.062],[43.941,15.6503,2241.584],[43.946,15.6503,2274.2932],[43.9501,15.6484,2280.7969],[43.9552,15.6425,2296.0066],[43.9623,15.6435,2313.9207],[43.9662,15.6582,2269.6145],[43.9682,15.6749,2229.7664],[43.9742,15.6897,2218.5615],[43.9863,15.7045,2211.9614],[43.9902,15.7192,2206.3904]]],
[[[43.7941,15.6675,3037.3455],[43.7956,15.6678,3037.3455],[43.7939,15.678,2863.5166],[43.7888,15.6897,2862.3247],[43.7887,15.7005,2779.4441],[43.7816,15.7132,2449.4424],[43.7643,15.7239,2618.4817],[43.7602,15.7298,2284.5093],[43.7612,15.7386,2061.2566],[43.768,15.742,2144.2881],[43.7672,15.7455,2010.5741],[43.7611,15.7494,1752.5012],[43.756,15.7494,1703.2292],[43.7511,15.7426,1785.9871],[43.754,15.7341,1975.9285],[43.7531,15.73,2009.9318],[43.7373,15.7186,2161.3401],[43.729,15.7075,2546.7495],[43.7267,15.702,2368.8884],[43.7266,15.6945,2194.1465],[43.7287,15.6928,2069.9919],[43.7274,15.6817,2142.092],[43.7286,15.6696,2171.4312],[43.7341,15.6627,2361.3218],[43.7374,15.6512,2006.0586],[43.7465,15.6434,2416.092],[43.7749,15.6435,2939.603],[43.7799,15.6465,3093.7156],[43.7819,15.6612,3108.6582],[43.7879,15.6662,2971.1277],[43.7941,15.6675,3037.3455]]]]}}