{"type":"Feature","properties":{"GID_2":"YEM.5.20_1","GID_0":"YEM","country":"Yemen","GID_1":"YEM.5_1","province":"AlHudaydah","NL_NAME_1":"الحديده","county":"Bajil","VARNAME_2":"NA","NL_NAME_2":"باجل","TYPE_2":"Muderiah","ENGTYPE_2":"District","CC_2":"1810","HASC_2":"NA","name":"Bajil.county"},
"geometry":{"type": "MultiPolygon","coordinates": [[[[42.9304,14.9179,0.0],[42.934,14.9204,0.0],[42.9274,14.9174,0.0],[42.926,14.911,0.2606],[42.9218,14.9065,0.0],[42.9268,14.9101,0.0],[42.9285,14.9135,0.0],[42.9279,14.916,0.0],[42.9304,14.9179,0.0]]],
[[[42.9141,14.9438,0.0],[42.9137,14.936,0.0],[42.9168,14.9346,0.0],[42.9223,14.9416,0.0],[42.921,14.9456,0.0],[42.9186,14.947,0.0],[42.9141,14.9438,0.0]]],
[[[42.8949,14.9932,0.0],[42.896,14.9932,0.0],[42.8968,14.9954,0.0],[42.8954,14.9946,0.0],[42.8949,14.9932,0.0]]],
[[[42.9421,14.8926,0.433],[42.9385,14.8924,0.0],[42.9388,14.8907,0.0],[42.941,14.8912,0.0],[42.941,14.8871,0.0],[42.9388,14.8868,0.0],[42.9382,14.8849,0.0],[42.9401,14.884,0.0],[42.9382,14.8838,0.0],[42.9379,14.8807,0.0],[42.9401,14.8763,0.0],[42.9429,14.8751,0.0],[42.9413,14.8829,0.0],[42.9443,14.881,0.0],[42.9449,14.8843,0.0],[42.9432,14.8851,0.0],[42.9421,14.8926,0.433]]],
[[[42.9351,14.9179,0.0],[42.9326,14.9185,0.0],[42.9332,14.9168,0.0],[42.9357,14.9171,0.0],[42.9351,14.9179,0.0]]],
[[[42.9991,15.1533,46.4893],[42.9857,15.1532,44.3578],[42.985,15.1582,43.508],[42.9772,15.1544,41.5367],[42.9706,15.1537,39.6634],[42.9672,15.158,39.0358],[42.9619,15.1591,37.9597],[42.9242,15.1556,28.9721],[42.8989,15.1584,24.2054],[42.8722,15.1645,16.7785],[42.8682,15.1641,15.586],[42.8457,15.1532,9.4319],[42.8576,15.1399,0.7276],[42.8604,15.129,4.9402],[42.8676,15.1204,0.0],[42.8713,15.1124,0.0],[42.8715,15.1071,0.0],[42.8662,15.0943,1.5073],[42.8668,15.0899,0.0],[42.861,15.0821,0.0],[42.861,15.0801,0.2508],[42.8635,15.079,1.5728],[42.8676,15.0726,0.0],[42.8671,15.0674,0.3465],[42.8657,15.0693,0.0],[42.8643,15.0671,0.0],[42.8649,15.0582,0.0],[42.8662,15.0571,2.3955],[42.8638,15.0571,0.0],[42.8638,15.0551,0.0],[42.8662,15.054,1.0997],[42.8643,15.0513,0.0],[42.8665,15.0493,1.1211],[42.8654,15.0424,0.0],[42.8715,15.0363,0.2763],[42.8713,15.029,0.0],[42.8688,15.029,0.0],[42.8693,15.0215,0.0],[42.876,15.0163,0.5653],[42.8796,15.0071,0.0],[42.8849,15.0021,1.0856],[42.8901,15.0021,1.7951],[42.8946,15.0001,0.0],[42.8976,14.9954,0.0],[42.9099,14.989,6.995],[42.9096,14.9868,0.0],[42.914,14.9846,1.5754],[42.921,14.9715,0.0],[42.9232,14.9712,0.0],[42.926,14.9671,4.799],[42.9301,14.9571,4.4917],[42.931,14.9501,0.8605],[42.9301,14.9474,1.3668],[42.926,14.9443,0.0],[42.9304,14.944,0.8086],[42.9351,14.9407,3.5062],[42.9362,14.9349,3.2746],[42.9351,14.9329,0.5969],[42.9313,14.9315,0.0],[42.9332,14.931,0.0],[42.9332,14.9293,0.0],[42.9351,14.9313,0.0],[42.939,14.9301,0.0],[42.9382,14.9271,0.0],[42.941,14.9265,0.0],[42.9407,14.9224,0.0],[42.9449,14.9163,0.0],[42.9432,14.9137,0.0],[42.9451,14.9101,0.0],[42.9432,14.9026,0.0],[42.9451,14.9015,0.0],[42.9429,14.9013,0.0],[42.9446,14.8968,0.0],[42.9437,14.8882,0.0],[42.9454,14.884,0.0],[42.9471,14.884,0.0],[42.946,14.8785,0.0],[42.9507,14.8721,0.0],[42.9494,14.8647,1.1502],[42.9547,14.8608,5.9018],[42.9852,14.871,11.4189],[42.9897,14.8685,16.6408],[43.0981,14.9421,62.552],[43.1698,14.9631,101.8281],[43.1964,14.9621,110.0948],[43.235,14.9736,128.065],[43.2551,14.9741,139.3496],[43.272,14.9766,137.2729],[43.2805,14.9731,140.465],[43.2902,14.9779,146.0202],[43.3204,14.9805,169.9984],[43.3374,14.9795,192.366],[43.3483,14.9725,204.4188],[43.3802,14.9739,245.7948],[43.3939,14.9673,279.2077],[43.4018,14.9659,288.348],[43.413,14.9712,321.1112],[43.4272,14.9736,355.2445],[43.4338,14.9788,403.6443],[43.4379,14.9759,522.7852],[43.4429,14.9748,493.3842],[43.4474,14.977,454.0368],[43.4526,14.9763,418.7883],[43.4628,14.9804,444.2025],[43.4657,14.9795,450.2554],[43.47,14.9743,498.8635],[43.4755,14.9763,542.2294],[43.4836,14.9736,739.9528],[43.498,14.9803,601.4142],[43.5008,15.0122,439.8195],[43.5023,15.0144,439.3238],[43.5004,15.0264,446.1321],[43.5042,15.0353,533.5502],[43.5011,15.0448,558.3803],[43.5025,15.0498,509.6619],[43.4962,15.0501,580.3832],[43.49,15.0567,468.1031],[43.452,15.0824,367.9212],[43.4391,15.0969,351.8922],[43.4327,15.1124,361.1545],[43.4291,15.133,382.2388],[43.4208,15.1516,408.145],[43.4106,15.1657,452.1465],[43.4022,15.1734,571.8531],[43.3916,15.1627,496.7484],[43.3779,15.1627,332.3484],[43.3604,15.1651,476.0346],[43.3494,15.1719,339.163],[43.3242,15.1968,272.0938],[43.2835,15.2086,228.2268],[43.2623,15.2206,203.6346],[43.2623,15.2274,201.0926],[43.2599,15.2312,196.7355],[43.2528,15.2319,190.0884],[43.2419,15.228,182.1338],[43.2358,15.2196,180.6305],[43.1758,15.1888,128.2236],[43.154,15.1856,112.7066],[43.1079,15.1874,85.0162],[43.0703,15.1947,70.3585],[43.0555,15.1908,65.0853],[43.0391,15.1797,59.9664],[43.034,15.1739,58.3082],[43.0291,15.1616,56.6307],[43.0174,15.1542,50.4272],[42.9991,15.1533,46.4893]]]]}}