{"type":"Feature","properties":{"GID_2":"YEM.13.8_1","GID_0":"YEM","country":"Yemen","GID_1":"YEM.13_1","province":"Hajjah","NL_NAME_1":"حجه","county":"AshShaghadirah","VARNAME_2":"NA","NL_NAME_2":"الشغادرة","TYPE_2":"Muderiah","ENGTYPE_2":"District","CC_2":"1725","HASC_2":"NA","name":"Ash_Shaghadirah.county"},
"geometry":{"type": "MultiPolygon","coordinates": [[[[43.4844,15.5456,534.2367],[43.5049,15.5458,614.5803],[43.5064,15.5471,601.8475],[43.507,15.5535,650.8949],[43.5467,15.5464,691.8903],[43.5476,15.5563,753.0151],[43.5504,15.5576,778.7355],[43.5502,15.562,846.4992],[43.5536,15.5709,920.1056],[43.5611,15.5762,1207.9197],[43.5721,15.5901,1259.4528],[43.5707,15.5942,1317.1841],[43.5635,15.6005,1089.2393],[43.5635,15.6029,1045.8042],[43.567,15.6075,1195.9855],[43.5651,15.608,1366.1707],[43.5617,15.614,1125.5596],[43.5463,15.6141,1123.5498],[43.5373,15.6101,1149.5266],[43.5345,15.6128,1183.9026],[43.5275,15.6323,1132.1395],[43.5235,15.6359,1057.5348],[43.5243,15.6522,839.8467],[43.5147,15.6576,817.7746],[43.5142,15.6633,706.8722],[43.5076,15.6678,642.9623],[43.5004,15.663,653.3043],[43.4914,15.6666,666.9146],[43.486,15.6709,610.7272],[43.4813,15.6713,612.6458],[43.4709,15.6667,649.0707],[43.4695,15.6638,631.3408],[43.4716,15.6533,603.3165],[43.4666,15.6464,562.0804],[43.4639,15.6453,631.7681],[43.4541,15.6484,603.8307],[43.4497,15.6591,588.5916],[43.4409,15.6594,549.8931],[43.4388,15.6566,628.7659],[43.4411,15.6379,482.6734],[43.4378,15.6353,493.3943],[43.4349,15.6273,458.8501],[43.4429,15.629,544.5874],[43.4496,15.6261,620.6102],[43.4509,15.6235,714.3154],[43.4516,15.6165,733.7903],[43.4445,15.6062,617.5662],[43.4448,15.6003,510.8557],[43.4492,15.5933,496.3999],[43.4517,15.5826,516.4353],[43.4512,15.5796,484.3837],[43.4438,15.5727,439.6627],[43.4262,15.5673,450.339],[43.4318,15.5592,605.3021],[43.4376,15.5419,998.8744],[43.4477,15.5409,762.5458],[43.4606,15.5514,481.7672],[43.4719,15.5498,512.6625],[43.4844,15.5456,534.2367]]]]}}