{"type":"Feature","properties":{"featurecla":"Range/mtn","name":"Hadhramaut","namealt":null,"region":"Asia","subregion":null,"min_label":5.3,"max_label":9.0,"scalerank":4},
"geometry":{"type": "Polygon","coordinates": [[[50.191183000523182,14.924032628445843,27.7267],[49.657969597271261,14.846930242962799,74.4969],[49.487193230083705,14.800726629681606,59.8457],[49.331553581646205,14.724005438275299,75.4393],[49.194468620708761,14.617926336712856,37.4816],[49.079112175396205,14.483771063275299,0.0],[48.978404167583705,14.340399481244106,50.048],[48.867686394146205,14.208685614056591,0.0],[48.733164909771261,14.106268621869106,4.0064],[48.561289909771205,14.050482489056606,3.2508],[48.164805534771205,14.019659735150341,5.6064],[48.156857096274535,14.017429375899809,4.3645],[48.331309441021261,14.000555731244063,0.0],[48.467539909771205,13.994818426556549,0.0],[48.598643425396205,14.01654694218162,0.0],[48.855601433208705,14.184149481244077,0.0],[49.292857292583705,14.671026922650356,34.4991],[49.545542839458705,14.792486883587799,45.0546],[49.917491081646205,14.842779852337856,0.0],[50.099742058208705,14.886725164837827,66.1328],[50.191183000523182,14.924032628445843,27.7267]]]}}