{"type":"Feature","properties":{"ISO3166-1-Alpha-3":"YEM","country":"Yemen","id":"99?","name":null},
"geometry":{"type": "MultiPolygon","coordinates": [[[[42.18491,15.04121,32.2897],[42.19239,15.04499,14.8559],[42.18865,15.06053,21.7944],[42.18865,15.07335,6.4209],[42.17872,15.08234,0.0],[42.1657,15.07241,0.0],[42.1587,15.06497,0.0],[42.16114,15.05618,0.0],[42.17872,15.03376,181.0408],[42.18491,15.04121,32.2897]]],
[[[42.47991,15.7165,0.6599],[42.47234,15.71841,0.0],[42.46079,15.71906,0.0],[42.43312,15.72415,1.3067],[42.43092,15.72696,0.9972],[42.38844,15.74848,0.809],[42.38193,15.74787,0.0],[42.37713,15.7425,0.0],[42.38152,15.72659,0.0],[42.37949,15.70995,0.0],[42.3873,15.7062,10.5545],[42.40805,15.7093,4.6848],[42.47145,15.70177,1.6877],[42.47958,15.70856,2.3237],[42.47991,15.7165,0.6599]]]]}}