{"type":"Feature","properties":{"GID_2":"YEM.19.12_1","GID_0":"YEM","country":"Yemen","GID_1":"YEM.19_1","province":"San`a'","NL_NAME_1":"صنعاء","county":"Khwlan","VARNAME_2":"NA","NL_NAME_2":"خولان","TYPE_2":"Muderiah","ENGTYPE_2":"District","CC_2":"2312","HASC_2":"NA","name":"Khwlan.county"},
"geometry":{"type": "MultiPolygon","coordinates": [[[[44.691,15.3493,2264.1721],[44.6773,15.3493,2257.4089],[44.6773,15.3398,2262.9814],[44.6732,15.3399,2237.6277],[44.6724,15.335,2336.2922],[44.6439,15.3461,2387.8794],[44.6089,15.351,2531.0933],[44.6056,15.3413,2461.29],[44.6057,15.3334,2396.418],[44.5927,15.3112,2286.3081],[44.5902,15.2856,2380.0242],[44.5976,15.2797,2367.3406],[44.5976,15.267,2205.3315],[44.5814,15.2512,2254.8159],[44.5733,15.2512,2208.9622],[44.57,15.2401,2190.5601],[44.5732,15.2272,2309.8806],[44.5945,15.207,2129.5576],[44.618899999999996,15.1991,2205.0134],[44.6352,15.1897,2226.9358],[44.6548,15.1739,2124.3911],[44.6613,15.1534,2064.1484],[44.6634,15.1344,2135.3967],[44.6863,15.1351,2201.4568],[44.7342,15.1546,1988.9745],[44.7576,15.159,2056.0862],[44.7709,15.1785,2271.9009],[44.7653,15.2163,2203.6345],[44.7575,15.2423,2080.4785],[44.7652,15.2661,1983.5863],[44.7847,15.2833,2038.4332],[44.8176,15.265,1860.6256],[44.8444,15.2542,1702.6362],[44.8744,15.2543,1627.1842],[44.9056,15.2705,1781.4502],[44.9335,15.2997,1675.4513],[44.9504,15.3225,1696.2898],[44.9522,15.3221,1696.2898],[44.9672,15.3488,1790.6755],[44.8396,15.4095,1695.9384],[44.806,15.4154,1860.4103],[44.8053,15.3679,1765.6719],[44.8009,15.3433,1747.8877],[44.7977,15.3359,1729.4825],[44.7908,15.3281,1780.7205],[44.7802,15.323,1778.4253],[44.7656,15.3209,1849.2207],[44.7335,15.3223,2326.168],[44.71,15.3263,2278.1133],[44.7016,15.3298,2199.634],[44.691,15.3493,2264.1721]]]]}}