{"type":"Feature","properties":{"GID_2":"YEM.10.16_1","GID_0":"YEM","country":"Yemen","GID_1":"YEM.10_1","province":"Amran","NL_NAME_1":"عمران","county":"Maswar","VARNAME_2":"NA","NL_NAME_2":"مسور","TYPE_2":"Muderiah","ENGTYPE_2":"District","CC_2":"2916","HASC_2":"NA","name":"Maswar.county"},
"geometry":{"type": "MultiPolygon","coordinates": [[[[43.647,15.5316,1126.3601],[43.668,15.5426,1352.4666],[43.668,15.5466,1398.0977],[43.675,15.5534,1272.4735],[43.6926,15.5484,1302.8115],[43.7016,15.548,1570.8591],[43.7142,15.5326,1524.22],[43.7296,15.532,1513.7584],[43.7322,15.5348,1554.2141],[43.732,15.5452,1892.9586],[43.7346,15.5469,1719.4149],[43.7501,15.542,1780.0413],[43.7518,15.5567,1802.4811],[43.7451,15.5708,2247.2322],[43.7404,15.5929,2504.8042],[43.7403,15.6011,2592.0803],[43.743,15.6127,2754.0986],[43.7344,15.6205,2747.6748],[43.7332,15.6257,2782.21],[43.7332,15.6313,2798.3069],[43.7359,15.6362,2736.551],[43.7459,15.6439,2381.2717],[43.7374,15.6512,2006.0586],[43.7352,15.6577,2248.946],[43.7254,15.6566,2137.8264],[43.7206,15.6531,1882.0381],[43.709,15.6558,1807.139],[43.7002,15.6607,1494.4521],[43.692,15.6577,1730.2589],[43.6863,15.6639,1397.8021],[43.6756,15.6656,1387.9492],[43.6656,15.6635,1377.2566],[43.6588,15.6573,1457.5977],[43.6558,15.6566,1491.0553],[43.6469,15.6476,1601.8413],[43.6401,15.6309,1986.1338],[43.6413,15.6005,1831.3363],[43.6509,15.5928,1883.6655],[43.658,15.5896,2092.5854],[43.6656,15.5887,1875.1698],[43.669,15.5858,1938.8495],[43.6677,15.5782,1836.527],[43.6569,15.5691,1433.4128],[43.6476,15.5562,1207.0623],[43.6356,15.543,1065.1536],[43.6337,15.5358,1029.7407],[43.647,15.5316,1126.3601]]]]}}