{"type":"Feature","properties":{"GID_2":"YEM.12.5_1","GID_0":"YEM","country":"Yemen","GID_1":"YEM.12_1","province":"Hadramawt","NL_NAME_1":"حضرموت","county":"AlMukallaCity","VARNAME_2":"NA","NL_NAME_2":"مدينةالمكلا","TYPE_2":"Muderiah","ENGTYPE_2":"District","CC_2":"1929","HASC_2":"NA","name":"Al_Mukalla_City.county"},
"geometry":{"type": "MultiPolygon","coordinates": [[[[48.9957,14.4872,41.1721],[48.9932,14.4817,99.3308],[48.9885,14.4322,28.4791],[48.9995,14.411,9.115],[49.0032,14.4084,0.0],[49.0068,14.4168,1.0355],[49.0135,14.4196,0.0],[49.0146,14.4226,0.0],[49.0121,14.4229,0.2456],[49.0151,14.4238,0.0],[49.0146,14.4315,0.0],[49.0224,14.4443,3.1737],[49.0607,14.4924,5.3145],[49.0838,14.5143,5.2284],[49.0985,14.5251,6.2084],[49.1126,14.5315,3.8959],[49.1338,14.5296,4.8835],[49.1379,14.5238,0.0],[49.1399,14.5268,2.9466],[49.1435,14.5279,39.2449],[49.1482,14.526,52.3037],[49.1482,14.5235,0.0],[49.1499,14.524,0.8333],[49.1504,14.5218,6.115],[49.1474,14.5207,0.4251],[49.1496,14.5188,1.3169],[49.1535,14.5188,12.5455],[49.1543,14.5149,0.0],[49.1576,14.5107,0.9679],[49.161,14.5115,3.5951],[49.1699,14.5082,0.0],[49.1718,14.5124,0.0],[49.1693,14.5146,0.0],[49.1712,14.5185,0.0],[49.1668,14.5212,0.6154],[49.1682,14.5313,9.8497],[49.1726,14.5424,9.7428],[49.1785,14.5482,1.0955],[49.2193,14.569,4.0563],[49.2468,14.5876,8.1158],[49.3332,14.6346,4.1393],[49.3654,14.6487,0.0],[49.3939,14.6568,0.0],[49.3828,14.6738,16.0595],[49.3628,14.6742,27.7423],[49.3092,14.6678,39.6154],[49.2279,14.6496,25.2414],[49.2164,14.6389,29.4162],[49.1887,14.6032,31.3217],[49.1561,14.6016,149.5128],[49.095,14.5895,469.6333],[49.0221,14.5458,61.0171],[48.9957,14.4872,41.1721]]]]}}