{"type":"Feature","properties":{"GID_1":"YEM.12_1","GID_0":"YEM","country":"Yemen","province":"Hadramawt","VARNAME_1":"Hadhramaut|Hadhramawt|Hadhramout","NL_NAME_1":"حضرموت","TYPE_1":"Muhafazah","ENGTYPE_1":"Governorate","CC_1":"19","HASC_1":"YE.HD","ISO_1":"YE-HD","name":"Hadramawt.province"},
"geometry":{"type": "MultiPolygon","coordinates": [[[[49.0026,14.4065,0.0],[49.0068,14.4168,1.0355],[49.0135,14.4196,0.0],[49.0146,14.4226,0.0],[49.0121,14.4229,0.2456],[49.0151,14.4238,0.0],[49.0146,14.4315,0.0],[49.0218,14.4435,0.0],[49.0546,14.4849,3.4416],[49.0815,14.5124,3.1918],[49.0985,14.5251,6.2084],[49.1126,14.5315,3.8959],[49.1338,14.5296,4.8835],[49.1379,14.5238,0.0],[49.1399,14.5268,2.9466],[49.1435,14.5279,39.2449],[49.1482,14.526,52.3037],[49.1482,14.5235,0.0],[49.1499,14.524,0.8333],[49.1504,14.5218,6.115],[49.1474,14.5207,0.4251],[49.1496,14.5188,1.3169],[49.1535,14.5188,12.5455],[49.1543,14.5149,0.0],[49.1576,14.5107,0.9679],[49.161,14.5115,3.5951],[49.1699,14.5082,0.0],[49.1718,14.5124,0.0],[49.1693,14.5146,0.0],[49.1712,14.5185,0.0],[49.1668,14.5212,0.6154],[49.1682,14.5313,9.8497],[49.1718,14.541,3.826],[49.1771,14.5471,1.0955],[49.2193,14.569,4.0563],[49.2624,14.5965,1.738],[49.3485,14.6421,6.0979],[49.3671,14.6493,4.2417],[49.4185,14.6651,0.0],[49.4429,14.6782,0.5138],[49.4679,14.6876,2.1994],[49.4818,14.6921,12.8662],[49.4885,14.6888,0.0],[49.4896,14.6904,0.0],[49.4885,14.6946,4.5834],[49.4929,14.6932,0.0],[49.4951,14.6979,6.4204],[49.5088,14.7046,0.0],[49.5257,14.716,2.1503],[49.5346,14.7188,2.7425],[49.5604,14.7343,3.7476],[49.571,14.7374,1.7939],[49.5924,14.7474,3.0524],[49.6321,14.7604,0.0],[49.6349,14.759,0.0],[49.6465,14.7638,2.6424],[49.6949,14.7757,2.4113],[49.7443,14.7826,0.5086],[49.7985,14.7985,0.0],[49.8215,14.8087,0.0],[49.8315,14.8085,0.0],[49.8396,14.8124,2.6886],[49.8507,14.8137,0.0],[49.8988,14.8374,3.4413],[49.9162,14.8426,0.0],[49.9343,14.8504,0.0],[49.9415,14.8507,2.9028],[49.9521,14.846,0.3446],[49.9562,14.8479,2.1747],[49.9618,14.8462,0.2595],[49.9668,14.8488,3.7113],[49.9854,14.8529,2.1006],[49.9888,14.8515,0.0],[49.9976,14.8532,2.9394],[50.0093,14.8515,3.776],[50.0151,14.8457,7.4362],[50.019,14.8393,30.728],[50.0185,14.8374,0.0],[50.0235,14.834,31.4073],[50.0226,14.8282,0.0],[50.0257,14.8246,0.0],[50.0213,14.8215,1.9242],[50.0215,14.8193,3.7819],[50.0235,14.8193,3.5677],[50.0251,14.8218,1.5712],[50.0374,14.8224,0.0],[50.046,14.8268,0.0],[50.0571,14.8276,0.0],[50.0876,14.8421,4.0561],[50.1085,14.8499,0.0],[50.1207,14.8485,0.0],[50.1246,14.8457,3.0698],[50.1285,14.8465,0.0],[50.1287,14.8485,4.4853],[50.1365,14.8485,0.0],[50.1396,14.8454,0.0],[50.1488,14.8413,0.0],[50.1524,14.8424,13.2728],[50.1626,14.8415,0.0],[50.1688,14.8443,22.4563],[50.1774,14.8446,0.0],[50.1826,14.8507,12.0317],[50.181,14.8526,48.6993],[50.1807,14.8585,0.5271],[50.1882,14.8657,1.3316],[50.2385,14.8946,0.6727],[50.246,14.9007,2.9231],[50.2549,14.9043,2.0069],[50.261,14.9096,3.1644],[50.269,14.9107,1.6894],[50.2799,14.9168,3.2249],[50.3154,14.9274,1.6065],[50.3182,14.9274,2.325],[50.3187,14.9235,0.0],[50.324,14.9224,1.3768],[50.3265,14.9179,0.0],[50.329,14.9176,0.0],[50.3315,14.9265,2.8617],[50.3387,14.9301,0.0],[50.3393,14.9368,4.8032],[50.3518,14.9487,2.5318],[50.3835,14.9724,1.0822],[50.4085,14.9879,0.8828],[50.4212,14.9937,0.0],[50.4249,14.9976,3.0661],[50.4315,14.9988,0.8837],[50.4743,15.0232,0.5628],[50.4957,15.0271,0.838],[50.5507,15.0443,2.9119],[50.5615,15.0446,0.0],[50.586,15.051,1.6844],[50.619,15.0571,3.3375],[50.6637,15.0624,1.1148],[50.7035,15.0721,2.029],[50.7101,15.0724,2.8422],[50.721,15.0699,0.0],[50.7736,15.0832,2.0821],[50.7724,15.0915,3.6678],[50.7496,15.1424,43.6911],[50.7273,15.2029,234.6886],[50.7144,15.2332,848.0778],[50.691,15.2571,884.5409],[50.6619,15.3211,563.9669],[50.6384,15.3417,616.498],[50.6213,15.3421,686.7068],[50.5901,15.3329,829.1979],[50.5704,15.3667,900.506],[50.5395,15.3718,936.0571],[50.3378,15.4485,1078.0667],[50.2468,15.4688,1142.6569],[50.2573,15.5169,673.3645],[50.2657,15.5694,645.3886],[50.2606,15.5883,661.9804],[50.2362,15.5914,623.6126],[50.2192,15.5985,633.9187],[50.1679,15.6097,637.0031],[50.1433,15.623,754.2435],[50.1287,15.6517,769.9434],[50.1322,15.6972,793.3898],[50.1439,15.7502,567.7133],[50.1448,15.7869,534.8111],[50.1498,15.8468,468.6501],[50.1688,15.9196,591.1141],[50.1983,15.9922,580.1476],[50.223,16.0149,536.6743],[50.2517,16.0576,574.6061],[50.2556,16.0775,579.3193],[50.2254,16.1082,623.8138],[50.1915,16.129,665.6604],[50.1579,16.1632,629.3641],[50.1771,16.236,679.1041],[50.2176,16.335,769.1012],[50.2333,16.4046,990.8798],[50.2381,16.4544,958.2874],[50.2702,16.4936,937.2761],[50.2675,16.5203,1031.4167],[50.2438,16.5376,1027.9789],[50.2447,16.5709,1029.677],[50.2559,16.6039,1015.886],[50.2566,16.629,1009.22],[50.2701,16.6398,1014.5034],[50.2897,16.6449,1013.1846],[50.3096,16.6681,1031.5178],[50.3852,16.7047,1018.2401],[50.5297,16.7265,946.3995],[50.608,16.7629,943.0142],[50.6498,16.8259,933.0569],[50.6731,16.892,900.003],[50.7115,16.9268,928.1623],[50.7795,16.9711,919.2931],[50.8695,17.0352,946.0404],[50.9643,17.0812,988.5638],[51.0601,17.1131,1046.5487],[51.098,17.1851,971.5366],[51.2193,17.3163,901.407],[51.3192,17.5004,769.9373],[51.37,17.6111,707.9772],[51.4474,17.8108,575.7091],[51.4741,17.8997,534.379],[51.4946,18.2435,400.8752],[51.5003,18.2715,393.1469],[51.5952,18.4067,371.1977],[51.677,18.6149,347.4111],[51.9103,18.9078,334.0526],[52.0,19.0,311.3847],[50.7833,18.7889,299.0103],[49.1167,18.6167,396.2437],[48.1833,18.1667,537.7889],[47.6,17.45,761.2773],[47.4667,17.1167,870.7324],[47.1833,16.95,874.1187],[47.0,16.95,851.1688],[46.9971,16.3699,972.6913],[46.4864,15.8018,859.9613],[46.306,15.6062,880.1259],[47.0532,15.6725,824.9332],[47.371,15.6874,747.1635],[47.6017,15.7149,721.1158],[47.6991,15.7196,721.7542],[47.6975,15.7185,722.2165],[47.7474,15.7179,719.5518],[47.8062,15.7225,709.708],[47.8209,15.7188,707.1255],[47.8268,15.7113,708.8052],[47.868899999999996,15.712,715.4579],[47.8203,15.6278,787.4448],[47.7752,15.5634,1260.92],[47.7216,15.4977,1286.2346],[47.6376,15.4046,1335.1101],[47.6213,15.3674,1378.421],[47.624,15.3425,1370.1162],[47.6067,15.2749,1414.9447],[47.5983,15.2513,1404.1282],[47.598,15.2315,1421.6183],[47.6088,15.2154,1398.7673],[47.5921,15.1894,1437.2151],[47.5796,15.1658,1431.6304],[47.5631,15.1514,1491.1226],[47.5589,15.1383,1479.9639],[47.5696,15.1276,1476.936],[47.5872,15.1261,1488.3992],[47.6075,15.1153,1483.9159],[47.6196,15.1033,1486.1387],[47.6492,15.0871,1478.4275],[47.6612,15.0698,1478.2144],[47.6651,15.0527,1465.4141],[47.6466,14.9856,1411.0458],[47.621,14.9548,1400.9913],[47.5652,14.9332,1344.8442],[47.5383,14.9186,1283.6538],[47.4764,14.8903,1360.9641],[47.4518,14.8633,1158.0745],[47.4381,14.8352,1254.0068],[47.4717,14.8069,1181.2336],[47.5216,14.77,1197.8799],[47.5676,14.7151,1097.0155],[47.5941,14.6768,952.3634],[47.5878,14.6371,1103.2628],[47.5854,14.6315,989.6251],[47.7953,14.5171,1086.3394],[47.9123,14.4817,1046.9761],[47.9332,14.455,1125.8756],[47.981,14.4127,1035.538],[48.0989,14.3259,861.0732],[48.117,14.2539,294.4012],[48.2218,14.2064,299.1922],[48.335,14.194,535.3069],[48.404,14.2112,564.8395],[48.4485,14.2162,812.8802],[48.4511,14.1944,835.7061],[48.498,14.1633,546.8895],[48.5456,14.1203,188.9775],[48.578,14.0474,1.4146],[48.6074,14.0482,0.5249],[48.6671,14.0446,0.5171],[48.6774,14.0471,1.1067],[48.6796,14.0457,0.4398],[48.6818,14.0546,1.5299],[48.6826,14.0482,1.0702],[48.6857,14.0465,0.0],[48.6963,14.0501,0.0],[48.6993,14.0538,1.4132],[48.7101,14.0601,0.0],[48.7107,14.0626,0.6842],[48.7182,14.0676,0.0],[48.7296,14.079,0.0],[48.7304,14.0818,0.4146],[48.734,14.084,0.0],[48.734,14.0862,0.0],[48.7393,14.0913,0.0],[48.7454,14.1035,0.0],[48.7501,14.1079,0.0],[48.7546,14.1154,0.0],[48.764,14.1196,0.0],[48.7713,14.1288,22.7243],[48.7779,14.1321,39.7774],[48.7815,14.1321,31.0107],[48.7868,14.1349,2.5295],[48.7943,14.1349,0.0],[48.8115,14.1587,0.0],[48.8157,14.1607,30.5557],[48.8182,14.1587,0.0],[48.8251,14.1649,14.1364],[48.8293,14.166,0.0],[48.8293,14.1685,0.0],[48.8343,14.1729,0.0],[48.8374,14.1796,4.6129],[48.8429,14.1832,4.7512],[48.8435,14.1862,8.9849],[48.8501,14.1935,0.0],[48.8521,14.2001,0.4595],[48.8554,14.2024,0.5897],[48.8565,14.2057,8.5157],[48.8618,14.2071,12.8275],[48.8635,14.211,0.0],[48.8626,14.2135,0.0],[48.8668,14.2154,0.0],[48.8624,14.2299,0.0],[48.8638,14.2388,4.737],[48.8676,14.2446,4.6931],[48.8704,14.2446,9.0042],[48.8715,14.2429,0.0],[48.8732,14.2465,0.0],[48.8771,14.2496,0.6612],[48.8835,14.2504,0.0],[48.8862,14.2532,1.0101],[48.8899,14.2518,0.0],[48.8935,14.2551,0.0],[48.8963,14.2549,0.0],[48.9015,14.2604,0.0],[48.906,14.2596,5.6888],[48.9085,14.2565,0.0],[48.9101,14.2574,0.0],[48.9113,14.2618,1.1588],[48.9185,14.2632,0.0],[48.9193,14.2662,3.0159],[48.9243,14.2707,0.0],[48.9301,14.289,2.0493],[48.9346,14.2932,0.0],[48.9326,14.2968,0.3957],[48.9368,14.2982,0.0],[48.9376,14.3001,1.172],[48.9415,14.3001,0.0],[48.9435,14.3046,0.9012],[48.9465,14.3051,0.0],[48.9487,14.3085,0.0],[48.959,14.3101,2.5816],[48.9635,14.3076,0.0],[48.9679,14.3088,0.0],[48.9715,14.3118,0.0],[48.9746,14.3101,0.0],[48.9807,14.3107,7.6868],[48.9874,14.316,1.3401],[48.9888,14.3199,0.793],[48.9938,14.3221,25.8311],[48.9963,14.3265,0.0],[48.9951,14.3351,0.0],[48.9987,14.3368,0.0],[48.9949,14.3399,0.5181],[48.9938,14.3457,0.8144],[48.9829,14.3504,11.9672],[48.9826,14.3596,1.5765],[48.9843,14.3649,3.5025],[48.9885,14.3676,0.0],[48.9882,14.3788,6.2135],[48.9918,14.3857,21.7988],[48.9938,14.3865,21.7988],[49.0026,14.4065,0.0]]],
[[[53.2707,12.1282,1.7437],[53.2449,12.1221,0.0],[53.2474,12.119,21.0327],[53.2482,12.119,21.0327],[53.2474,12.1218,84.5669],[53.2515,12.1182,2.4946],[53.2543,12.1199,56.9049],[53.2565,12.1146,88.3124],[53.2588,12.1132,15.8268],[53.2627,12.1137,9.8163],[53.2643,12.1121,138.7735],[53.2779,12.1149,110.9625],[53.2826,12.1129,0.1085],[53.2829,12.1115,0.0],[53.2857,12.1127,2.4204],[53.2907,12.1113,0.0],[53.291,12.1093,0.0],[53.294,12.1104,0.0],[53.2946,12.1126,237.1702],[53.2969,12.1124,360.6217],[53.3007,12.1085,17.5538],[53.3032,12.1082,28.3778],[53.3071,12.1088,69.4259],[53.3101,12.1113,0.0],[53.309,12.1132,0.0],[53.2943,12.1193,1.5335],[53.2868,12.1265,1.652],[53.279,12.1285,0.8024],[53.2707,12.1282,1.7437]]],
[[[53.0379,12.179,0.0],[53.0279,12.179,0.0],[53.0257,12.1768,23.8607],[53.0207,12.1785,27.4728],[53.011,12.1774,1.5819],[53.0087,12.1788,0.0],[53.0085,12.1737,25.0005],[53.0038,12.1737,6.4674],[52.9987,12.1704,9.4061],[52.9965,12.1724,0.0],[52.9899,12.1685,3.1234],[52.9813,12.1704,0.5916],[52.9782,12.1657,2.2989],[52.9849,12.1649,2.2238],[52.9857,12.1604,0.0],[52.9882,12.1615,2.199],[52.9927,12.1599,0.0],[52.9927,12.1613,1.6387],[52.9957,12.1612,1.9586],[52.9996,12.1582,3.7201],[53.0124,12.154,8.7291],[53.0265,12.1393,3.9834],[53.0371,12.1371,106.0132],[53.0474,12.1324,25.9479],[53.054,12.1324,64.9123],[53.0554,12.1282,0.0],[53.0585,12.1251,0.5067],[53.0613,12.1263,2.6155],[53.0615,12.1285,20.2151],[53.0651,12.1285,0.0],[53.0665,12.1301,18.245],[53.069,12.1287,0.0],[53.0743,12.1313,18.6251],[53.084,12.1313,-0.0737],[53.0846,12.1332,18.5529],[53.0868,12.1335,0.0],[53.0885,12.1407,51.097],[53.0899,12.1412,0.0],[53.0882,12.1496,0.0],[53.0901,12.1532,0.0],[53.0863,12.1618,6.0492],[53.0743,12.169,0.745],[53.0738,12.174,0.0],[53.0565,12.1743,0.0],[53.0515,12.1782,0.0],[53.0443,12.1791,0.0],[53.0396,12.1779,0.0],[53.0379,12.179,0.0]]],
[[[52.0839,12.2443,0.0],[52.0827,12.2449,0.0],[52.0818,12.2418,1.5705],[52.0807,12.2435,0.0],[52.0781,12.2435,0.0],[52.0774,12.2405,0.2246],[52.0738,12.2412,0.0],[52.0715,12.2382,2.3703],[52.0632,12.2401,0.3002],[52.0638,12.2371,0.0901],[52.0624,12.2368,0.2477],[52.0615,12.2335,0.0],[52.0674,12.236,0.1823],[52.0685,12.2321,0.5847],[52.0615,12.2285,0.0],[52.0633,12.2276,1.3025],[52.064,12.2238,6.9246],[52.071,12.224,3.9223],[52.0713,12.221,0.0],[52.0741,12.2207,8.6494],[52.079,12.2171,5.2803],[52.0841,12.2171,15.4215],[52.0857,12.214,1.2422],[52.091,12.2157,35.395],[52.0904,12.2124,0.0],[52.0949,12.2127,27.5383],[52.0938,12.2082,0.0],[52.0996,12.2065,8.1377],[52.0976,12.2024,0.0],[52.1032,12.204,0.0],[52.1037,12.2054,0.0],[52.1024,12.206,23.7693],[52.1046,12.206,30.1139],[52.1065,12.2054,0.0],[52.1043,12.204,0.0],[52.1063,12.2024,0.0],[52.1076,12.2024,0.0],[52.1071,12.2049,0.0],[52.1082,12.2049,12.7522],[52.1226,12.2015,0.0],[52.1213,12.2057,4.1446],[52.126,12.2012,0.0],[52.1293,12.2029,0.0],[52.1296,12.2051,3.1535],[52.1351,12.2046,0.6641],[52.1354,12.2015,0.0],[52.1424,12.2004,0.0],[52.1451,12.2018,6.6713],[52.1465,12.1979,6.0028],[52.1443,12.1971,3.5445],[52.146,12.1954,0.0],[52.1474,12.1963,3.109],[52.1479,12.1924,0.0],[52.1501,12.191,0.0],[52.1518,12.1868,0.0],[52.1632,12.1829,0.0],[52.1649,12.1851,0.0],[52.1674,12.1849,0.0],[52.1704,12.1874,0.0],[52.1757,12.1857,10.3518],[52.1785,12.1821,9.1884],[52.1801,12.1826,0.0],[52.1801,12.1846,4.0586],[52.1838,12.1843,11.3428],[52.1843,12.1824,2.0826],[52.1865,12.1818,0.0],[52.1921,12.1829,21.47],[52.1982,12.1818,0.963],[52.2007,12.1793,0.0],[52.2079,12.1807,6.121],[52.2126,12.1782,0.0],[52.2146,12.1804,0.0],[52.221,12.1799,0.0],[52.2232,12.1821,3.5635],[52.2271,12.1804,0.0],[52.2282,12.1821,12.4092],[52.2293,12.1732,3.6556],[52.2376,12.1571,0.0],[52.2451,12.1557,1.8317],[52.2493,12.1579,2.4642],[52.2524,12.156,1.7679],[52.2577,12.1565,3.5404],[52.2629,12.1549,0.0],[52.2663,12.1568,1.0804],[52.2743,12.154,3.2746],[52.2776,12.1546,6.839],[52.284,12.1501,0.0],[52.294,12.151,0.9777],[52.296,12.1471,1.6433],[52.2982,12.149,42.5411],[52.2999,12.1485,0.0],[52.2999,12.1504,0.0],[52.3019,12.1513,0.0],[52.3104,12.1499,0.0],[52.3179,12.1515,31.1839],[52.324,12.1482,0.0],[52.3254,12.1504,0.0],[52.3312,12.1501,0.0],[52.3357,12.1524,12.8223],[52.3415,12.1507,0.0],[52.3418,12.1543,4.2941],[52.3563,12.1596,0.0],[52.3701,12.1563,1.5596],[52.3729,12.154,10.4385],[52.379,12.1554,0.0],[52.3807,12.1585,0.0],[52.3801,12.1615,0.0],[52.3699,12.1646,45.111],[52.3671,12.1685,22.3874],[52.3676,12.1788,10.0357],[52.3704,12.1804,0.9785],[52.3699,12.1827,15.0608],[52.3729,12.1835,0.0],[52.3726,12.1846,5.0343],[52.3788,12.1849,0.0],[52.3796,12.1879,1.0175],[52.3824,12.1876,0.998],[52.3829,12.1893,4.1227],[52.3876,12.1904,0.0],[52.389,12.1949,5.9348],[52.3943,12.1949,0.0],[52.3951,12.1974,0.0],[52.391,12.1985,3.9354],[52.3754,12.1888,0.6717],[52.3585,12.191,0.0],[52.3537,12.1901,2.4565],[52.3399,12.1951,1.0455],[52.3376,12.1932,3.8858],[52.3329,12.1946,0.0],[52.3318,12.1913,4.7502],[52.3204,12.1888,0.0],[52.3129,12.1907,1.3268],[52.2991,12.2013,0.0],[52.296,12.1982,1.5036],[52.2932,12.1982,1.8499],[52.2882,12.2015,0.4835],[52.2843,12.2001,4.9839],[52.2793,12.2063,0.1462],[52.2746,12.2049,7.4073],[52.2699,12.201,3.2256],[52.2668,12.2024,0.0],[52.2654,12.199,2.5883],[52.2635,12.1999,6.2559],[52.2632,12.2021,0.0],[52.2604,12.2012,3.2667],[52.2601,12.2032,0.0],[52.2576,12.2043,0.0],[52.2487,12.2012,1.1086],[52.2441,12.2049,0.0],[52.2424,12.2032,1.4547],[52.2349,12.204,0.0],[52.2329,12.2029,2.1804],[52.2315,12.2046,0.0],[52.2247,12.2046,0.0],[52.2204,12.2007,1.6616],[52.2154,12.206,0.0],[52.2124,12.206,0.0],[52.2107,12.2043,0.4465],[52.2088,12.206,0.0],[52.2071,12.2026,1.0324],[52.2026,12.2024,2.1967],[52.191,12.2076,0.3176],[52.1807,12.2149,0.9555],[52.1785,12.214,0.1936],[52.176,12.2176,0.0],[52.1726,12.2151,0.9118],[52.1704,12.2154,1.877],[52.1549,12.2287,0.4743],[52.1501,12.2354,2.9206],[52.1418,12.2338,0.1795],[52.1332,12.2405,0.0],[52.1287,12.2391,0.2252],[52.1254,12.2421,0.0],[52.1205,12.2421,0.0],[52.1207,12.2396,0.0578],[52.1188,12.2388,0.1136],[52.1121,12.2441,0.0],[52.1063,12.2426,1.6065],[52.1037,12.2443,0.0],[52.1049,12.2412,0.0],[52.0982,12.2382,1.0364],[52.0868,12.2407,0.0],[52.0839,12.2443,0.0]]],
[[[52.1371,12.4424,0.0],[52.1354,12.4435,0.0],[52.1349,12.439,4.3037],[52.1307,12.4377,0.0],[52.1315,12.4351,0.0],[52.1343,12.4346,0.0],[52.1365,12.4388,22.1799],[52.1429,12.4405,0.0],[52.1413,12.4426,0.0],[52.1371,12.4424,0.0]]],
[[[53.7399,12.6354,1.1431],[53.7382,12.6379,0.0],[53.7324,12.6399,1.9233],[53.6971,12.6651,1.6763],[53.6843,12.6762,0.0],[53.676,12.681,1.7504],[53.6515,12.7018,0.0],[53.6457,12.7032,0.3653],[53.641,12.7004,12.1612],[53.619,12.7001,1.9829],[53.616,12.6979,8.1418],[53.604,12.6971,0.0],[53.5843,12.7018,8.1323],[53.5776,12.7001,12.2351],[53.5646,12.7051,6.3742],[53.5568,12.7101,5.229],[53.5479,12.7113,0.0],[53.5435,12.7137,9.5034],[53.5215,12.7113,5.958],[53.5151,12.7085,1.9073],[53.5149,12.706,14.6552],[53.5105,12.7032,0.0],[53.5085,12.6993,0.0],[53.501,12.6979,4.7495],[53.4965,12.7001,11.6671],[53.4951,12.6979,23.4889],[53.4935,12.699,0.7074],[53.4876,12.6982,15.2498],[53.4851,12.6999,0.9969],[53.4837,12.6887,1.3279],[53.4763,12.6865,0.1657],[53.4744,12.681,0.0],[53.4674,12.6715,5.1654],[53.4501,12.6685,6.046],[53.4426,12.6713,1.8252],[53.4374,12.671,0.0],[53.4215,12.6649,19.9414],[53.4165,12.6646,3.4133],[53.4079,12.6587,126.4635],[53.3976,12.6557,0.0],[53.3965,12.6526,9.9018],[53.3993,12.6499,0.0],[53.399,12.6435,0.0],[53.4007,12.6421,8.7144],[53.3993,12.6296,0.0],[53.4029,12.6287,12.5387],[53.4043,12.6196,332.6437],[53.4015,12.6138,0.0],[53.4018,12.6104,279.1442],[53.399,12.6065,0.0],[53.3996,12.6032,118.4673],[53.3974,12.6018,0.0],[53.3979,12.6007,0.0],[53.3993,12.601,0.0],[53.4001,12.579,4.3242],[53.399,12.5699,1.101],[53.3957,12.5604,23.6591],[53.3882,12.5549,1.8672],[53.3849,12.5501,2.2418],[53.3807,12.5485,13.2646],[53.3779,12.5491,0.0],[53.376,12.5471,0.0],[53.3699,12.5468,6.2674],[53.3655,12.5435,3.1718],[53.359,12.5443,0.0],[53.3557,12.5415,35.2068],[53.3512,12.5427,0.0],[53.3415,12.5404,0.0],[53.3376,12.5374,0.5337],[53.3246,12.541,12.0599],[53.3237,12.5435,1.5354],[53.3187,12.544,0.0],[53.3051,12.5365,0.0],[53.3063,12.5301,0.0],[53.3113,12.5282,33.1295],[53.3138,12.5243,1.1716],[53.3221,12.5187,0.0],[53.3463,12.5063,2.6699],[53.361,12.4957,1.9799],[53.3649,12.4955,1.3384],[53.3732,12.4885,0.0],[53.4063,12.4679,0.0],[53.4271,12.4568,0.0],[53.4446,12.4499,0.0],[53.4524,12.4449,0.0],[53.4613,12.4429,49.1329],[53.4671,12.4391,57.6137],[53.474,12.431,7.3335],[53.4726,12.4304,0.0],[53.4732,12.4251,0.0],[53.4751,12.4218,0.0],[53.4784,12.4207,6.8035],[53.4774,12.4165,0.0],[53.4851,12.4115,0.0],[53.4882,12.4107,0.0],[53.4896,12.4126,0.0],[53.4901,12.4087,0.0],[53.5076,12.3985,0.0],[53.5057,12.3962,0.0],[53.5071,12.396,0.0],[53.5068,12.3946,0.0],[53.511,12.3968,0.0],[53.5154,12.3943,0.0],[53.5151,12.3915,0.0],[53.5118,12.3951,0.0],[53.5096,12.3932,0.0],[53.5118,12.391,0.0],[53.5135,12.3913,0.0],[53.5126,12.3887,0.0],[53.5137,12.3879,0.0],[53.5185,12.3871,0.0],[53.5213,12.3849,95.693],[53.5224,12.3793,0.0],[53.5249,12.3763,0.0],[53.5279,12.3754,0.0],[53.5282,12.3737,0.0],[53.5316,12.374,83.9434],[53.5288,12.3701,0.0],[53.5313,12.3676,0.0],[53.5335,12.3687,0.0],[53.5329,12.3635,0.0],[53.5346,12.361,0.0],[53.5365,12.3593,0.0],[53.5396,12.3599,0.0],[53.5415,12.3554,0.0],[53.5432,12.3565,0.0],[53.5451,12.3549,0.0],[53.5432,12.3521,0.0],[53.5438,12.3438,0.0],[53.5449,12.3443,0.0],[53.5468,12.3396,23.7172],[53.5488,12.339,88.3256],[53.5524,12.3421,466.648],[53.5529,12.3404,0.0],[53.5582,12.341,7.1678],[53.5571,12.3387,0.0],[53.5585,12.3371,0.0],[53.5612,12.3401,0.0],[53.566,12.3387,0.0],[53.5657,12.3376,0.0],[53.5668,12.3393,7.8031],[53.5699,12.3396,17.5268],[53.5718,12.3374,5.5172],[53.5818,12.3343,0.0],[53.5837,12.3343,1.0769],[53.5843,12.3365,13.4898],[53.5857,12.334,3.0174],[53.6026,12.3293,1.8809],[53.6299,12.3157,0.0],[53.6377,12.3149,0.0],[53.6515,12.3093,0.7319],[53.679,12.3038,3.0907],[53.7301,12.301,0.0],[53.771,12.3032,0.0],[53.8165,12.311,3.9465],[53.8293,12.3099,0.0],[53.8793,12.3241,2.3472],[53.9188,12.3296,2.3958],[53.9293,12.3337,0.6131],[53.951,12.3329,0.0],[53.9604,12.3354,0.0],[53.9729,12.336,6.2181],[54.0007,12.329,1.6699],[54.0057,12.3296,1.0193],[54.0099,12.3282,0.0],[54.0193,12.3346,0.0],[54.0246,12.3474,1.6159],[54.0329,12.3507,0.5353],[54.0421,12.3521,1.4824],[54.0674,12.3524,0.8089],[54.0824,12.3554,0.0],[54.0957,12.356,0.9282],[54.1185,12.3537,0.0],[54.1287,12.3501,0.0],[54.1415,12.3515,0.0],[54.1523,12.3588,2.2143],[54.1635,12.3638,0.409],[54.167,12.3688,2.277],[54.1718,12.3718,0.4471],[54.1801,12.3735,0.0],[54.1943,12.3901,0.0],[54.2168,12.396,0.5597],[54.2218,12.3957,0.0],[54.2246,12.4007,1.7137],[54.2268,12.4008,0.0],[54.229,12.4143,0.0],[54.2329,12.4232,0.0],[54.2582,12.4393,3.7515],[54.2757,12.4426,1.796],[54.2796,12.4451,15.4918],[54.3074,12.4459,4.781],[54.3132,12.4451,0.0],[54.3146,12.4435,0.0],[54.3193,12.4454,0.0],[54.324,12.4446,0.0],[54.3251,12.4474,163.7447],[54.3307,12.446,10.1658],[54.3343,12.449,164.0771],[54.3401,12.4476,0.0],[54.3409,12.4499,74.3122],[54.3474,12.4521,191.8036],[54.3543,12.4518,0.0],[54.3626,12.454,0.0],[54.3674,12.4579,1.356],[54.3768,12.4582,0.0],[54.3793,12.4604,0.0],[54.3821,12.4593,0.0],[54.3899,12.4601,0.0],[54.3993,12.4626,1.9705],[54.4054,12.4668,0.0],[54.4118,12.4663,0.7424],[54.4135,12.4688,2.4312],[54.4126,12.4729,32.4669],[54.4171,12.4762,2.4813],[54.426,12.4779,1.764],[54.4343,12.4846,11.3859],[54.4374,12.484,9.5837],[54.4435,12.4865,2.0564],[54.4435,12.484,1.6221],[54.4454,12.4843,1.1818],[54.4454,12.4901,0.0],[54.4401,12.4982,13.3912],[54.4432,12.5051,0.0],[54.4429,12.5087,0.0],[54.4487,12.5182,21.2944],[54.4613,12.5246,1.0178],[54.4768,12.529,6.3545],[54.5054,12.5332,0.0],[54.5268,12.5424,1.425],[54.5354,12.5413,0.0],[54.5312,12.5501,4.1526],[54.5329,12.5551,0.0],[54.529,12.5524,0.0],[54.5225,12.5537,1.9944],[54.5196,12.5524,0.0],[54.5149,12.5535,1.5679],[54.5115,12.5571,0.0],[54.5088,12.5571,0.0],[54.5071,12.5532,2.2699],[54.5048,12.5538,0.0],[54.5041,12.5515,0.4879],[54.4977,12.5465,4.4588],[54.4918,12.5443,0.0],[54.4799,12.5435,5.1808],[54.4732,12.5449,10.6844],[54.4546,12.5535,12.826599999999999],[54.4388,12.5632,0.0],[54.4246,12.574,0.0],[54.4207,12.5793,0.0],[54.4143,12.5804,1.9846],[54.4054,12.579,0.0],[54.3996,12.5824,0.0],[54.3951,12.5824,11.5764],[54.391,12.5865,0.0],[54.384,12.5876,2.228],[54.3834,12.5893,0.0],[54.3757,12.5923,1.5058],[54.3674,12.6007,0.0],[54.3657,12.6001,28.3346],[54.3649,12.6024,0.0],[54.361,12.6015,11.7831],[54.3597,12.6046,3.4731],[54.354,12.6054,9.5969],[54.349,12.6026,0.0],[54.3432,12.6054,0.6734],[54.3401,12.6043,0.9103],[54.3393,12.6065,0.0],[54.3265,12.606,0.5697],[54.3189,12.611,0.0],[54.3159,12.6107,0.0],[54.3149,12.6085,2.5689],[54.3112,12.6085,3.2947],[54.3046,12.6121,0.6336],[54.2996,12.6176,0.0],[54.2943,12.6143,1.3129],[54.2887,12.616,0.0],[54.2812,12.621,5.8163],[54.2771,12.6263,0.0],[54.2699,12.6274,0.0],[54.269,12.6293,0.0],[54.2651,12.6304,5.4853],[54.2618,12.6354,1.531],[54.2632,12.6371,2.1359],[54.2624,12.6401,0.6796],[54.2568,12.639,0.5445],[54.2493,12.6401,3.9293],[54.2443,12.6446,0.0],[54.2424,12.6432,1.4001],[54.2365,12.6443,3.3273],[54.2346,12.6465,0.7547],[54.229,12.6435,3.6315],[54.2271,12.6446,0.4523],[54.2199,12.6393,0.25],[54.2149,12.6388,0.835],[54.2151,12.6401,0.835],[54.2199,12.6421,10.8801],[54.2229,12.6465,0.0],[54.2135,12.6532,0.767],[54.2093,12.6601,0.8355],[54.2024,12.6624,0.0],[54.199,12.666,0.8606],[54.1976,12.6685,1.8858],[54.1999,12.6733,3.1276],[54.1987,12.6754,0.704],[54.1971,12.6726,1.4014],[54.194,12.6724,0.0],[54.194,12.6701,3.2754],[54.1879,12.6668,8.5153],[54.1849,12.6671,0.0],[54.1779,12.664,6.5055],[54.1665,12.664,3.4707],[54.1515,12.6709,0.0],[54.1285,12.6921,0.0],[54.1081,12.7013,0.0],[54.1004,12.6999,3.9937],[54.094,12.7024,0.0],[54.0901,12.7021,0.0],[54.0854,12.6949,0.0],[54.086,12.689,0.0],[54.084,12.6837,1.1966],[54.0821,12.6818,1.7933],[54.0799,12.6827,0.0],[54.0807,12.6799,12.8842],[54.0785,12.6776,0.0],[54.0582,12.6679,1.9803],[54.0524,12.6679,0.0],[54.0393,12.6607,0.0],[54.029,12.661,0.0],[54.0246,12.6565,0.2741],[54.0196,12.6557,0.0],[54.0065,12.649,0.0],[53.9941,12.6479,2.1934],[53.9785,12.6501,7.83],[53.9751,12.6485,12.5644],[53.9729,12.6432,6.6173],[53.966,12.644,0.0],[53.9585,12.6387,22.3071],[53.9518,12.6426,0.0],[53.9468,12.6401,0.4907],[53.9376,12.6443,0.0],[53.9301,12.6443,1.2187],[53.9126,12.6526,0.0],[53.9004,12.6513,0.0],[53.891,12.6482,0.0],[53.8779,12.6404,0.0],[53.8704,12.6285,0.0],[53.8701,12.6221,0.3689],[53.8671,12.6213,0.0],[53.8651,12.6157,0.7339],[53.8621,12.6124,0.4726],[53.8605,12.6127,0.4726],[53.8607,12.611,0.9474],[53.8554,12.6076,0.0],[53.8488,12.6001,0.5556],[53.8404,12.5965,0.9422],[53.8177,12.5985,1.0532],[53.8043,12.6021,0.0],[53.7663,12.619,0.0],[53.7399,12.6354,1.1431]]],
[[[53.1585,12.6371,0.6336],[53.1579,12.639,0.0],[53.156,12.6346,0.0],[53.1574,12.6346,1.8469],[53.1585,12.6371,0.6336]]],
[[[53.5051,12.7101,0.0],[53.4987,12.711,0.0],[53.496,12.7079,0.0],[53.5024,12.7079,0.0],[53.5051,12.7101,0.0]]]]}}