{"type":"Feature","properties":{"ISO3166-1-Alpha-3":"YEM","country":"Yemen","fill":"#00F","id":"3497","name":"Hadramawt"},
"geometry":{"type": "MultiPolygon","coordinates": [[[[53.30824,12.11839,0.0],[53.29807,12.12187,0.0],[53.28688,12.12734,0.0],[53.26807,12.12883,0.0],[53.24833,12.1213,84.5669],[53.26308,12.11487,286.5564],[53.2775,12.11383,110.9625],[53.31027,12.11144,0.0],[53.30824,12.11839,0.0]]],
[[[53.03855,12.18033,0.0],[53.02746,12.17965,0.0],[53.01705,12.17558,63.4176],[53.00395,12.17694,0.0],[52.98872,12.1722,0.0],[52.98527,12.16273,0.4067],[53.0067,12.15664,15.5806],[53.02677,12.13974,3.9834],[53.05659,12.12825,22.2447],[53.07183,12.13028,5.1838],[53.08638,12.13434,36.7798],[53.08707,12.14855,16.2418],[53.08292,12.16479,0.0],[53.06837,12.17494,1.4913],[53.05307,12.17492,16.5311],[53.03855,12.18033,0.0]]],
[[[52.17888,12.21394,0.1936],[52.14778,12.2349,0.9406],[52.11843,12.24155,0.0],[52.09409,12.24177,0.0],[52.07876,12.23974,3.2257],[52.06412,12.23547,0.305],[52.06849,12.22201,0.0],[52.10182,12.20702,23.7693],[52.1058,12.2038,0.0],[52.11232,12.19864,0.0],[52.12375,12.20198,0.0],[52.13669,12.20454,14.4598],[52.15699,12.19623,115.3125],[52.16236,12.19741,31.56],[52.16456,12.19253,71.2486],[52.17579,12.17634,0.0],[52.17986,12.17284,0.0],[52.19068,12.17463,0.0],[52.21176,12.18089,30.0216],[52.21811,12.18061,4.8045],[52.22438,12.18032,0.0],[52.23503,12.16528,34.6471],[52.24023,12.15688,0.0],[52.28468,12.15449,187.2702],[52.33058,12.14619,0.0],[52.3479,12.1513,0.0],[52.35998,12.15385,0.0],[52.38846,12.14887,0.0],[52.37894,12.16569,0.0],[52.37113,12.171569999999999,0.0],[52.38148,12.18255,0.0],[52.3947,12.18732,0.0],[52.38958,12.19725,3.9354],[52.3895,12.19725,3.9354],[52.37469,12.20059,0.0],[52.31937,12.18826,4.3473],[52.2892,12.20082,0.0],[52.24611,12.20237,2.6704],[52.2168,12.20733,0.0],[52.20043,12.20644,0.0],[52.17888,12.21394,0.1936]]],
[[[53.57376,12.70377,0.0],[53.51895,12.71435,0.0],[53.49987,12.71206,0.0],[53.49033,12.70162,0.0],[53.47958,12.68654,0.2339],[53.47008,12.67142,8.3707],[53.42802,12.66539,195.4644],[53.41074,12.66214,0.0],[53.39603,12.65647,0.0],[53.40317,12.59805,231.7203],[53.39959,12.58759,6.3546],[53.39112,12.56965,0.0],[53.38941,12.56078,0.0],[53.38453,12.55732,0.0],[53.363,12.54491,0.0],[53.34249,12.54261,0.0],[53.31568,12.55028,0.0],[53.3069,12.5434,0.0],[53.30974,12.53767,129.5695],[53.33424,12.51553,19.9056],[53.43788,12.45196,0.0],[53.47937,12.42517,168.2864],[53.50563,12.41633,338.9348],[53.51954,12.39354,258.3968],[53.53598,12.37377,236.677],[53.552,12.35438,292.1423],[53.57215,12.33461,0.0],[53.61826,12.32271,6.8841],[53.67292,12.30634,3.3782],[53.73116,12.30041,0.0],[53.77635,12.30497,0.9443],[53.89647,12.32791,9.4484],[53.93928,12.33476,3.4582],[53.96998,12.34186,6.3631],[53.98569,12.33714,5.2934],[53.98593,12.33714,5.0339],[54.00824,12.32986,1.3064],[54.03089,12.34836,0.0],[54.04755,12.35296,1.198],[54.06423,12.35055,0.0],[54.11071,12.35381,-0.0374],[54.1405,12.35134,0.0],[54.15496,12.35981,0.0],[54.18385,12.38251,3.2042],[54.20973,12.39378,1.92],[54.21876,12.3994,2.809],[54.23748,12.4252,0.0],[54.24594,12.43354,11.4701],[54.28334,12.44729,42.5007],[54.32817,12.44346,0.0],[54.36866,12.45957,49.7643],[54.40234,12.46722,111.303],[54.44468,12.48472,1.6221],[54.44665,12.51115,0.0],[54.45742,12.51923,0.0],[54.47652,12.52261,0.0],[54.49804,12.52947,0.0],[54.52793,12.53745,0.0],[54.54029,12.55024,0.0],[54.52683,12.55721,0.0],[54.51609,12.55843,0.0],[54.49693,12.54691,4.4588],[54.47066,12.54357,88.3262],[54.42191,12.57403,12.189],[54.40077,12.5804,46.8914],[54.36014,12.60269,29.0176],[54.31947,12.61099,0.0],[54.28485,12.62625,0.0],[54.26934,12.63212,0.0],[54.26002,12.64753,0.0],[54.23732,12.65204,0.0],[54.21876,12.65266,0.0],[54.2107,12.66169,0.0],[54.20053,12.673,0.0],[54.19549,12.6754,0.0],[54.18346,12.66844,0.0],[54.16789,12.66499,0.0],[54.14651,12.67786,0.0],[54.13225,12.68837,0.0],[54.1194,12.70112,0.0],[54.09303,12.69888,23.196],[54.08217,12.6862,0.0],[54.05826,12.67116,0.0],[54.04513,12.66656,0.0],[54.0081,12.64574,19.6451],[53.97354,12.64699,0.0],[53.94018,12.64243,0.0],[53.92243,12.65066,0.0],[53.90339,12.65303,0.0],[53.876,12.64729,0.0],[53.8664,12.62293,0.0],[53.8461,12.5986,1.026],[53.80807,12.608,0.0],[53.76289,12.6197,4.9773],[53.69401,12.66978,0.0],[53.65475,12.70476,0.0],[53.62993,12.7023,0.0],[53.6062,12.69998,0.0],[53.57376,12.70377,0.0]]],
[[[51.13241,17.15275,1023.0172],[51.26243,17.33812,869.4012],[51.38485,17.60027,687.0786],[51.47921,17.88436,544.7407],[51.54097,18.1839,430.244],[51.71228,18.5962,331.2393],[51.98564,18.97967,298.5546],[51.98569,18.97973,298.5546],[51.97861,18.99564,245.7664],[51.82069,18.97437,265.6448],[51.66049,18.95282,254.8174],[51.5003,18.93125,245.7707],[51.3401,18.9097,335.4636],[51.1799,18.88815,310.0486],[51.01981,18.86658,353.6742],[50.85972,18.84503,287.0319],[50.69936,18.82353,296.1972],[50.53932,18.8019,318.9457],[50.37913,18.78035,345.356],[50.21893,18.75886,313.2623],[50.05873,18.73726,321.4529],[49.89854,18.71571,330.0952],[49.73844,18.69416,353.818],[49.57824,18.67261,348.163],[49.41805,18.65106,384.2398],[49.25785,18.62951,395.9118],[49.12881,18.6121,405.3412],[49.03585,18.57972,384.6473],[48.9913,18.55789,398.9028],[48.84754,18.48771,436.2593],[48.67597,18.40402,464.5264],[48.48436,18.31041,487.1794],[48.31259,18.22659,499.8852],[48.18443,18.16393,559.5404],[48.16195,18.14892,598.9165],[48.08438,18.0559,561.816],[47.99359,17.94759,593.9293],[47.83551,17.75819,649.948],[47.68627,17.57965,723.5883],[47.58901,17.46328,760.149],[47.57211,17.43232,766.9949],[47.52483,17.30758,806.7129],[47.45796,17.13089,859.61],[47.42857,17.0931,873.2255],[47.42757,17.09183,874.1284],[47.31358,17.0279,901.1002],[47.1909,16.95891,878.3081],[47.16134,16.94744,866.0934],[47.12878,16.94305,871.8849],[46.99703,16.94851,851.8228],[47.03866,16.34536,987.3042],[46.83273,16.14969,886.1306],[46.33974,15.57073,894.4995],[47.74921,15.67517,731.6371],[47.8398,15.64501,741.08],[47.85174,15.61266,760.2859],[47.72156,15.41542,1280.9022],[47.67764,15.36451,1011.4305],[47.65469,15.31622,1038.6123],[47.64431,15.28095,996.4705],[47.644,15.25674,1327.7968],[47.61511,15.17137,1450.3855],[47.61216,15.14378,1462.0208],[47.61263,15.11884,1485.1392],[47.63702,15.09389,1483.7972],[47.67903,15.03962,1440.934],[47.67934,15.01022,1428.0425],[47.66431,14.9812,1296.2761],[47.50183,14.84679,1197.7877],[47.47843,14.81894,1282.6953],[47.48602,14.79388,1190.0276],[47.59728,14.71802,1235.0369],[47.66834,14.65048,832.2446],[47.74451,14.60079,1055.6246],[47.82182,14.5743,833.5486],[47.9247,14.55963,986.7078],[47.99886,14.55759,832.475],[48.02366,14.54896,633.7753],[48.04929,14.53519,762.1263],[48.06852,14.51296,575.9009],[48.08857,14.47335,526.3319],[48.09896,14.44243,619.7921],[48.12314,14.41083,1146.3594],[48.13745,14.38367,1036.767],[48.18691,14.3353,608.1815],[48.26034,14.30034,595.9464],[48.32659,14.2943,558.6549],[48.40385,14.29585,1021.0149],[48.48875,14.27474,338.7345],[48.58043,14.23309,124.5333],[48.60234,14.2082,80.9583],[48.61722,14.18676,91.424],[48.62606,14.1672,68.7214],[48.62838,14.14978,51.4964],[48.63427,14.13361,42.8851],[48.66192,14.08501,14.3204],[48.66952,14.06529,3.6367],[48.67215,14.05198,1.5832],[48.67246,14.04387,0.0],[48.67246,14.04379,0.0],[48.68149,14.04361,0.0],[48.6893,14.04243,0.0],[48.69581,14.04361,0.0],[48.70183,14.0467,0.0],[48.71372,14.05541,0.0],[48.71949,14.05728,0.0],[48.73829,14.06818,0.0],[48.79762,14.14045,25.4794],[48.8353,14.15624,0.0],[48.85255,14.16698,0.0],[48.86297,14.19465,0.0],[48.86988,14.20136,0.0],[48.87696,14.20673,0.0],[48.88014,14.2121,0.0],[48.88038,14.23461,0.0],[48.88233,14.24323,0.0],[48.88697,14.25031,0.0],[48.90349,14.25849,0.0],[48.92156,14.26187,0.0],[48.9358,14.27045,0.0],[48.94166,14.29438,0.0],[48.95053,14.3006,0.0],[48.99155,14.31688,0.0],[49.00367,14.324769999999999,0.0],[49.00603,14.3312,0.0],[49.00856,14.343,0.0],[49.00799,14.35444,0.0],[49.00025,14.35956,0.0],[49.00994,14.40111,0.0],[49.02809,14.43635,0.0],[49.07797,14.50609,0.0],[49.09278,14.5196,0.0],[49.11354,14.53022,1.497],[49.13705,14.53266,145.0906],[49.15675,14.52611,153.2367],[49.17189,14.51826,0.0],[49.1819,14.51659,0.0],[49.1902,14.54857,0.0],[49.22885,14.57526,0.0],[49.31275,14.61278,0.0],[49.35206,14.6398,0.0],[49.37241,14.64981,0.0],[49.41782,14.65693,0.0],[49.46046,14.67357,0.0],[49.57814,14.73729,0.0],[49.79859,14.79218,0.0],[49.94215,14.83877,0.0],[50.00603,14.84439,0.0],[50.02101,14.84927,33.3751],[50.0298,14.85029,58.6407],[50.03582,14.83893,58.0253],[50.04184,14.81826,0.0],[50.05177,14.81875,0.0],[50.06039,14.82022,0.0],[50.07936,14.82567,0.0],[50.12143,14.84422,0.0],[50.14625,14.8498,37.3023],[50.16505,14.84247,3.2371],[50.17954,14.84333,0.0],[50.24383,14.88715,0.0],[50.30226,14.91747,0.0],[50.34303,14.92475,0.0],[50.35825,14.93334,0.0],[50.43238,14.99543,0.0],[50.45948,15.01044,0.0],[50.55405,15.04857,5.867],[50.66147,15.0585,0.0],[50.80499,15.09738,10.8735],[50.80189,15.10368,13.698],[50.80065,15.12226,31.7462],[50.79212,15.13698,31.8477],[50.78468,15.15424,51.7414],[50.77409,15.17207,74.951],[50.76665,15.19788,361.8459],[50.75564,15.21672,551.3618],[50.7468,15.23633,746.0309],[50.72836,15.26116,1119.4351],[50.70583,15.27183,933.7598],[50.65089,15.27966,885.2395],[50.58449,15.29741,1123.8989],[50.51746,15.29382,1274.6539],[50.494,15.28537,1347.6873],[50.46904,15.27927,1421.1255],[50.39163,15.27183,1306.9875],[50.34135,15.27351,1103.6632],[50.27913,15.29398,1176.1633],[50.26404,15.31126,1299.0303],[50.25707,15.32775,1195.3899],[50.25691,15.34656,1214.4922],[50.25939,15.36377,1233.647],[50.27086,15.38113,1249.2032],[50.28657,15.39965,1137.8435],[50.30518,15.43146,930.8111],[50.3213,15.4442,955.7755],[50.33189,15.45908,953.2618],[50.33639,15.4996,664.1396],[50.33034,15.51872,632.0198],[50.32084,15.529,660.1803],[50.27882,15.54029,698.2105],[50.25009,15.54347,681.7529],[50.21877,15.55251,640.5668],[50.2012,15.57476,658.1891],[50.19237,15.60931,605.5775],[50.20058,15.64923,741.4604],[50.20834,15.67481,720.9564],[50.217529999999996,15.69527,709.499],[50.21691,15.71403,646.0491],[50.21288,15.73783,654.8051],[50.21144,15.7647,514.9021],[50.22157,15.79338,527.6479],[50.22172,15.81816,436.109],[50.22994,15.85337,572.3724],[50.24668,15.87146,640.2815],[50.26358,15.89955,618.31],[50.30192,16.00174,613.4431],[50.29634,16.03633,644.2688],[50.28471,16.06297,649.2442],[50.2628,16.07457,594.6522],[50.24854,16.08886,591.5526],[50.23335,16.10832,627.6809],[50.23536,16.14558,621.6602],[50.31324,16.43473,823.7266],[50.30502,16.47119,935.3598],[50.29371,16.49251,850.1243],[50.29247,16.51481,932.3429],[50.30967,16.55395,955.1211],[50.33034,16.57982,976.5019],[50.35453,16.59899,957.2873],[50.3969,16.62374,947.5242],[50.57224,16.69464,967.5612],[50.65337,16.7467,939.7002],[50.73006,16.83474,856.7672],[51.13241,17.15275,1023.0172]]]]}}