{"type":"Feature","properties":{"GID_1":"YEM.2_1","GID_0":"YEM","country":"Yemen","province":"Abyan","VARNAME_1":"NA","NL_NAME_1":"أبين","TYPE_1":"Muhafazah","ENGTYPE_1":"Governorate","CC_1":"12","HASC_1":"YE.AB","ISO_1":"YE-AB","name":"Abyan.province"},
"geometry":{"type": "MultiPolygon","coordinates": [[[[45.4949,13.1918,0.0],[45.5207,13.2268,0.0],[45.566,13.2738,1.2124],[45.6174,13.3171,0.0],[45.6396,13.3388,1.8875],[45.659,13.3499,1.2191],[45.6754,13.3549,1.0624],[45.7101,13.3557,1.2491],[45.7335,13.3624,1.124],[45.7396,13.3674,4.5621],[45.7438,13.3665,0.0],[45.7557,13.3699,1.7946],[45.764,13.3699,0.4983],[45.7735,13.3743,1.8716],[45.7796,13.374,1.7579],[45.7849,13.3774,1.5929],[45.7965,13.3799,0.0],[45.8029,13.3832,1.3427],[45.8146,13.3832,0.8231],[45.8299,13.3876,1.6476],[45.8368,13.3876,2.3463],[45.8649,13.3982,1.7122],[45.8718,13.3954,0.0],[45.876,13.3974,5.608],[45.8829,13.3951,0.5901],[45.8999,13.3971,3.5538],[45.9082,13.3965,0.9213],[45.9151,13.401,3.6083],[45.9385,13.4068,0.0],[45.9685,13.4076,1.9142],[45.9888,13.4154,0.0],[46.0093,13.4176,1.4449],[46.0182,13.4201,1.5834],[46.0412,13.4201,1.6217],[46.0726,13.4135,0.0],[46.0849,13.414,1.9423],[46.0921,13.4174,5.0499],[46.0949,13.4154,0.0],[46.099,13.4154,0.0],[46.101,13.4176,5.881],[46.1199,13.4179,1.0244],[46.131,13.4215,2.1605],[46.1471,13.4218,0.7847],[46.159,13.4199,0.0],[46.179,13.4254,0.0],[46.1846,13.4257,2.6818],[46.186,13.4243,0.4247],[46.1954,13.4265,0.0],[46.2068,13.4263,0.7871],[46.2199,13.4312,3.8205],[46.249,13.434,4.4539],[46.264,13.4312,0.0],[46.2735,13.4324,5.135],[46.2857,13.4279,0.4205],[46.2888,13.4282,1.0912],[46.291,13.426,0.636],[46.2938,13.4263,1.9372],[46.2968,13.4232,0.0],[46.2999,13.4254,1.1701],[46.319,13.424,3.5495],[46.339,13.4199,0.0],[46.3413,13.4176,0.3736],[46.349,13.4179,2.3774],[46.3518,13.414,1.7744],[46.3701,13.4151,0.0],[46.3732,13.4129,1.2134],[46.3729,13.4104,0.0],[46.3768,13.4146,1.8667],[46.3832,13.4146,0.6891],[46.3899,13.4176,2.3504],[46.4196,13.4176,1.4832],[46.4304,13.4154,0.0],[46.4329,13.411,1.1825],[46.4371,13.4104,0.0],[46.4446,13.406,0.0],[46.4476,13.409,3.0621],[46.4526,13.4107,1.7079],[46.4749,13.4149,1.6367],[46.5054,13.4154,0.0],[46.526,13.4204,0.0],[46.5301,13.4196,0.4438],[46.5551,13.4279,2.5258],[46.6079,13.4382,2.1192],[46.6257,13.4387,1.083],[46.6474,13.4362,2.1824],[46.6651,13.4324,3.2479],[46.6807,13.4257,0.0],[46.6885,13.4249,0.0],[46.6965,13.4271,0.0],[46.7199,13.4401,2.9294],[46.8243,13.4799,0.5642],[46.8493,13.4946,1.4324],[46.8929,13.526,1.0807],[46.9207,13.5387,0.0],[46.9518,13.5468,0.0],[46.9637,13.5488,3.3004],[46.9674,13.5479,0.0],[46.9701,13.5504,0.0],[46.9768,13.5524,4.0623],[46.9785,13.5515,0.0],[46.9882,13.5551,0.1731],[46.9987,13.5554,0.0],[47.021,13.5601,0.0],[47.0468,13.5676,3.8419],[47.0785,13.5704,0.0],[47.1168,13.5851,1.7806],[47.1285,13.5876,2.9074],[47.1307,13.5868,0.0],[47.1321,13.5885,0.618],[47.1429,13.5901,0.5435],[47.1635,13.5965,1.5545],[47.1818,13.5996,2.4496],[47.1839,13.6435,80.4258],[47.1824,13.6454,84.3573],[47.1841,13.6472,87.6653],[47.1863,13.693,163.713],[47.1666,13.8729,387.6423],[47.1554,14.0528,1197.0992],[47.1477,14.0659,1276.6365],[47.1277,14.0661,1279.8165],[47.1061,14.074,1218.8329],[47.0923,14.0838,1108.739],[47.0826,14.1031,955.4268],[47.0809,14.1282,921.475],[47.0834,14.186,1189.7009],[47.0796,14.1996,1152.4159],[47.0678,14.2054,950.8142],[47.0381,14.2057,1078.886],[47.0143,14.1963,1174.7499],[46.9963,14.1733,932.3315],[46.9862,14.1483,844.6938],[46.9762,14.1368,854.9239],[46.9664,14.1369,873.0356],[46.9468,14.1583,895.4764],[46.931,14.1622,905.9383],[46.9034,14.1625,776.8459],[46.8639,14.1686,794.396],[46.8304,14.1765,1141.4578],[46.7949,14.1903,1039.946],[46.7624,14.2007,1506.1331],[46.6051,14.1875,1682.576],[46.5678,14.1316,1311.6182],[46.5529,14.1164,1642.4749],[46.5215,14.103,1946.7998],[46.4967,14.0887,1379.8076],[46.4854,14.0772,1182.1995],[46.4737,14.0748,1371.3236],[46.4614,14.0765,1541.2977],[46.4495,14.0856,1724.5587],[46.432,14.0875,1575.9058],[46.3738,14.0743,1121.5836],[46.3379,14.07,1057.3199],[46.3185,14.0638,1270.9368],[46.3046,14.054,1193.0791],[46.2908,14.0595,1066.0724],[46.2847,14.0731,1212.4207],[46.2872,14.0803,1496.7234],[46.2905,14.0825,1665.8357],[46.3078,14.1177,2258.7507],[46.3368,14.1707,1818.8588],[46.3411,14.201,2090.2351],[46.3051,14.2552,1942.2112],[46.2948,14.2807,1842.6528],[46.2402,14.3144,1470.8124],[46.1876,14.3182,1665.2052],[46.1071,14.2774,1701.0913],[46.0336,14.2351,1610.958],[46.0036,14.1069,1970.7119],[45.9715,14.0873,2069.8457],[45.9639,14.0708,2078.5051],[45.9638,14.0579,2070.9534],[45.9713,14.0413,2203.093],[45.958,14.0211,1510.4341],[45.8824,13.9736,1324.1028],[45.8277,13.9425,1392.0586],[45.7635,13.9004,1948.8359],[45.7143,13.8545,1428.1179],[45.6785,13.8417,1408.8552],[45.6559,13.8418,1218.0577],[45.6409,13.8455,1181.6315],[45.6182,13.829,1098.9247],[45.5881,13.8456,1145.8759],[45.5694,13.8751,1244.8813],[45.56,13.8965,1527.4786],[45.518,13.9051,1354.2539],[45.468,13.8894,1960.5717],[45.4013,13.8978,1894.5798],[45.3828,13.909,2152.7988],[45.3733,13.9007,2112.4089],[45.3355,13.9079,2306.4497],[45.3307,13.9108,2398.1523],[45.3249,13.909,2366.8433],[45.3113,13.8992,2193.8577],[45.3088,13.885,2078.1335],[45.3065,13.8817,2137.4399],[45.306399999999996,13.8671,1971.2483],[45.3122,13.8536,1988.9736],[45.3237,13.8333,1674.4746],[45.3294,13.831,1649.5112],[45.3455,13.8175,1370.8456],[45.342,13.8085,1464.7473],[45.3236,13.8086,1658.2104],[45.2983,13.7973,1953.7181],[45.2764,13.7974,2269.1831],[45.2563,13.8029,2269.375],[45.2531,13.8013,2209.3857],[45.2506,13.796,1979.3821],[45.243899999999996,13.793,1920.8192],[45.2383,13.7814,1781.2565],[45.233,13.7651,2017.1675],[45.2378,13.7591,1913.2968],[45.2454,13.7563,2087.0051],[45.2492,13.7497,2105.9033],[45.2459,13.7437,1712.377],[45.2454,13.7367,1657.0416],[45.2587,13.7204,1687.6251],[45.2591,13.7144,1881.9553],[45.2558,13.7107,1756.7784],[45.2496,13.7074,1618.4983],[45.2444,13.707,1645.7344],[45.2396,13.7037,1480.6019],[45.2287,13.7042,1569.7419],[45.2225,13.7061,1601.5818],[45.212,13.701,1564.759],[45.1735,13.6917,1000.6362],[45.173,13.6866,866.7299],[45.1839,13.6526,864.7775],[45.1954,13.6433,1070.9459],[45.211,13.6438,943.9231],[45.2182,13.6549,1229.3489],[45.2258,13.6614,1226.3451],[45.2339,13.6623,1241.9076],[45.2434,13.6577,1625.4792],[45.2515,13.6586,1727.5947],[45.2558,13.6614,1864.0837],[45.2638,13.6586,1570.8384],[45.2681,13.6553,1525.8597],[45.2705,13.6502,1535.7479],[45.2743,13.6493,1732.1504],[45.2755,13.6509,1803.8145],[45.2776,13.6488,1820.7493],[45.2805,13.6535,1932.5947],[45.2828,13.6535,1987.5627],[45.2843,13.6507,1893.9996],[45.2876,13.6386,1595.3793],[45.2843,13.6367,1539.467],[45.28,13.64,1455.6636],[45.2762,13.6358,1412.6102],[45.2709,13.6195,1326.2212],[45.2407,13.568,699.0122],[45.2136,13.5392,590.3171],[45.19,13.5058,532.5298],[45.1799,13.4787,405.8388],[45.2288,13.4477,417.6325],[45.246,13.4322,669.5381],[45.2575,13.4181,491.5445],[45.2793,13.4137,358.626],[45.2655,13.3631,193.6692],[45.2006,13.3317,362.7462],[45.1954,13.3253,255.8971],[45.1886,13.2821,142.6381],[45.1703,13.2017,152.2229],[45.1292,13.1302,105.1836],[45.0928,13.0856,24.9396],[45.0677,13.0672,27.8304],[45.0658,13.0407,25.5298],[45.0733,13.0078,14.967],[45.0881,12.9773,7.4334],[45.0881,12.9413,2.5267],[45.0988,12.9403,0.0],[45.1054,12.9518,0.6834],[45.1115,12.9579,0.0],[45.1124,12.9613,1.9174],[45.1335,12.9812,2.3067],[45.1446,12.989,1.2419],[45.1679,13.0018,2.1413],[45.199,13.0149,2.161],[45.2062,13.016,0.3617],[45.2137,13.021,2.5515],[45.2188,13.0213,2.0497],[45.2315,13.0268,3.2257],[45.2474,13.0301,1.1534],[45.254,13.0332,2.908],[45.3088,13.0438,4.2337],[45.3513,13.049,1.7726],[45.3551,13.0518,2.355],[45.3713,13.0562,1.8387],[45.3724,13.0588,2.0931],[45.3737,13.0588,2.0931],[45.3746,13.0557,0.41],[45.3768,13.0554,0.0],[45.3812,13.0593,1.4639],[45.3838,13.0588,1.1708],[45.3846,13.0613,1.7865],[45.3868,13.0613,0.9619],[45.3871,13.0643,1.4629],[45.3904,13.0632,0.0],[45.3935,13.0688,2.4198],[45.4024,13.0735,0.0],[45.4257,13.1018,0.0],[45.4512,13.1263,0.0],[45.454,13.1313,1.2881],[45.4535,13.1388,1.0797],[45.4549,13.1371,1.737],[45.4607,13.1382,0.0],[45.4949,13.1918,0.0]]]]}}