{"type":"Feature","properties":{"ISO3166-1-Alpha-3":"YEM","country":"Yemen","fill":"#F0F","id":"3511","name":"Abyan"},
"geometry":{"type": "Polygon","coordinates": [[[46.49228,14.12511,2232.0735],[46.47508,14.14916,2055.3315],[46.46872,14.17585,2145.4722],[46.43441,14.23792,1467.0214],[46.41983,14.27458,1461.9932],[46.39658,14.30243,1335.9651],[46.36738,14.2999,1507.5436],[46.33555,14.28489,1683.3251],[46.24791,14.25363,1715.4899],[46.21762,14.23153,2023.0667],[46.18011,14.21394,1753.7966],[46.1351,14.19955,1920.1907],[46.04384,14.19169,1829.933],[46.02895,14.10831,2083.2383],[46.00224,14.07085,2152.874],[45.98596,14.02364,1288.7037],[45.94906,13.99116,1132.7179],[45.77755,13.86791,1296.3505],[45.73662,13.84414,1138.0964],[45.70572,13.83102,1130.1519],[45.67781,13.82479,1098.6993],[45.65745,13.8228,1114.6481],[45.63699,13.8228,1088.4579],[45.6019,13.84019,1137.3665],[45.58624,13.8682,1310.2009],[45.55549,13.87843,1443.7444],[45.41679,13.89127,1780.239],[45.40501,13.89659,1961.4523],[45.36837,13.88662,2126.2515],[45.36109,13.87109,1690.9014],[45.35721,13.83921,1709.4546],[45.36047,13.81885,1382.2678],[45.35752,13.80386,1544.7214],[45.34388,13.79549,1507.5167],[45.32832,13.78789,1581.2795],[45.29189,13.7795,1708.5403],[45.27933,13.76769,1707.5864],[45.27184,13.75164,1961.4039],[45.2753,13.73567,1922.504],[45.2751,13.71929,1900.8374],[45.27293,13.70487,1895.9689],[45.25386,13.69012,1873.9874],[45.21551,13.667,1274.4741],[45.21582,13.65413,1092.8093],[45.2306,13.64738,1233.1879],[45.28089,13.64415,1542.0952],[45.2984,13.63744,1577.3223],[45.30367,13.62816,1669.3921],[45.29406,13.61421,1641.1033],[45.23836,13.55349,769.2103],[45.21102,13.51222,856.0762],[45.20761,13.47205,455.07619999999997],[45.21148,13.44355,305.0807],[45.22595,13.42797,266.4678],[45.24022,13.41887,270.466],[45.25231,13.40748,330.1868],[45.25355,13.39538,249.8627],[45.24502,13.37373,381.1139],[45.19738,13.3404,405.5583],[45.13128,13.16297,188.3005],[45.09949,12.93624,0.0],[45.1045,12.94489,0.0],[45.11817,12.96174,0.0],[45.15406,12.99213,0.0],[45.19353,13.01268,2.2292],[45.36524,13.0537,0.5451],[45.40301,13.07014,0.0],[45.43409,13.09833,0.0],[45.48146,13.15754,0.0],[45.49415,13.19465,4.769],[45.50847,13.20869,0.0],[45.5359,13.22866,0.0],[45.63209,13.3249,0.0],[45.66578,13.34199,0.0],[45.80348,13.37202,0.0],[45.81544,13.37954,0.0],[45.83375,13.38133,0.0],[45.87574,13.37946,0.0],[45.89047,13.38231,0.0],[45.92319,13.39545,0.0],[45.9406,13.39936,0.0],[46.11134,13.40681,0.0],[46.19752,13.42048,0.0],[46.22413,13.4287,0.0],[46.22869,13.43106,0.0],[46.23455,13.43635,13.8949],[46.24781,13.43211,0.0],[46.26954,13.42048,0.0],[46.313,13.41356,0.0],[46.52003,13.41303,0.0],[46.54021,13.4169,0.0],[46.58351,13.43513,7.0782],[46.60475,13.4409,6.3424],[46.62827,13.44082,6.7809],[46.66391,13.43008,0.0],[46.68385,13.42723,1.6193],[46.70069,13.43032,0.8212],[46.82423,13.4763,0.0],[46.91188,13.53327,0.0],[47.16684,13.5856,0.0],[47.32448,13.63279,0.0],[47.32448,13.63279,0.0],[47.32417,13.63341,0.0],[47.31502,13.68402,66.2537],[47.30758,13.70924,110.2144],[47.30572,13.74815,138.0644],[47.27498,13.84492,234.7343],[47.22283,13.95197,424.9207],[47.23322,13.97509,517.127],[47.24614,13.99351,693.0446],[47.25854,14.01824,508.0363],[47.25436,14.05126,565.5106],[47.2556,14.09578,630.4197],[47.2419,14.13756,1474.241],[47.20609,14.16079,1192.3309],[47.06842,14.16751,904.4652],[47.00094,14.18211,972.8728],[46.93608,14.20477,1100.5999],[46.86503,14.21386,980.495],[46.7887,14.2042,1136.3959],[46.68845,14.17715,936.903],[46.60835,14.14366,1172.3984],[46.49228,14.12511,2232.0735]]]}}