{"type":"Feature","properties":{"GID_2":"YEM.6.6_1","GID_0":"YEM","country":"Yemen","GID_1":"YEM.6_1","province":"AlJawf","NL_NAME_1":"الجوف","county":"AlMatammah","VARNAME_2":"NA","NL_NAME_2":"المطمه","TYPE_2":"Muderiah","ENGTYPE_2":"District","CC_2":"1603","HASC_2":"NA","name":"Al_Matammah.county"},
"geometry":{"type": "MultiPolygon","coordinates": [[[[44.2618,16.3718,1696.3672],[44.2656,16.3018,1363.1891],[44.2708,16.2939,1335.1782],[44.2789,16.2929,1288.5129],[44.283,16.3058,1308.5468],[44.3004,16.3068,1279.3196],[44.3055,16.296,1267.8696],[44.2984,16.288,1263.9771],[44.285,16.2351,1513.9177],[44.2711,16.1891,1363.3799],[44.2846,16.1338,1557.6853],[44.3414,16.0915,1634.3715],[44.3495,16.0455,1741.8979],[44.3666,16.0428,1494.9636],[44.3829,16.03,1678.8604],[44.4269,16.0319,1300.9423],[44.4844,16.0202,1452.2532],[44.4906,16.0576,1379.5701],[44.4714,16.1002,1544.3903],[44.4353,16.14,1393.6669],[44.44,16.1688,1196.9084],[44.4837,16.1755,1172.1984],[44.4915,16.174,1172.5468],[44.4948,16.178,1169.8832],[44.5104,16.2397,1170.9377],[44.5187,16.2639,1181.6614],[44.5139,16.2673,1180.8562],[44.5115,16.2742,1181.9131],[44.5114,16.2858,1189.1572],[44.5067,16.295,1188.2002],[44.4983,16.295,1189.6711],[44.4828,16.2903,1189.5581],[44.4768,16.2949,1192.1086],[44.478,16.3122,1200.4293],[44.4708,16.3156,1201.2673],[44.4565,16.3156,1200.8038],[44.4505,16.3213,1202.4318],[44.4481,16.3328,1219.265],[44.4541,16.3386,1211.8375],[44.4588,16.3501,1209.6116],[44.4576,16.3594,1212.3794],[44.4503,16.3724,1218.4739],[44.4156,16.3621,1560.0461],[44.3487,16.3766,1582.8295],[44.3104,16.3712,1641.311],[44.2618,16.3718,1696.3672]]]]}}