{"type":"Feature","properties":{"GID_2":"YEM.12.16_1","GID_0":"YEM","country":"Yemen","GID_1":"YEM.12_1","province":"Hadramawt","NL_NAME_1":"حضرموت","county":"HagrAsSai'ar","VARNAME_2":"NA","NL_NAME_2":"حجرالصيعر","TYPE_2":"Muderiah","ENGTYPE_2":"District","CC_2":"1905","HASC_2":"NA","name":"Hagr_As_Sai'ar.county"},
"geometry":{"type": "MultiPolygon","coordinates": [[[[47.8344,15.9826,1212.6387],[47.838,15.9967,1220.4694],[47.8897,16.0574,1205.593],[48.0526,16.1592,1136.4644],[48.2285,16.2216,1116.0664],[48.3442,16.2341,890.2916],[48.3656,16.3351,1111.8904],[48.3421,16.3916,1130.0503],[48.2865,16.4678,1028.8798],[48.1467,16.6286,1013.9403],[48.03,16.5377,1049.6711],[47.9685,16.4482,1107.7931],[47.9101,16.3934,1122.5376],[47.8111,16.3507,1194.3652],[47.5817,16.2622,1220.5707],[47.5417,16.201,1272.74],[47.557,16.1289,868.8847],[47.6739,16.0194,928.1909],[47.8344,15.9826,1212.6387]]]]}}