{"type":"Feature","properties":{"GID_2":"YEM.13.16_1","GID_0":"YEM","country":"Yemen","GID_1":"YEM.13_1","province":"Hajjah","NL_NAME_1":"حجه","county":"Harad","VARNAME_2":"NA","NL_NAME_2":"حرض","TYPE_2":"Muderiah","ENGTYPE_2":"District","CC_2":"1702","HASC_2":"NA","name":"Harad.county"},
"geometry":{"type": "MultiPolygon","coordinates": [[[[43.2027,16.6493,203.804],[43.1574,16.6656,176.2326],[43.1557,16.6666,200.1214],[43.1516,16.6773,201.0491],[43.1496,16.6737,167.0916],[43.1286,16.6715,146.7834],[43.1408,16.655,161.954],[43.1463,16.6364,206.9762],[43.1444,16.6286,197.4247],[43.1393,16.622,169.2287],[43.1422,16.6054,177.5278],[43.1398,16.5966,187.7324],[43.1295,16.5926,144.9258],[43.131,16.5842,143.9107],[43.1297,16.5739,142.5381],[43.1264,16.5747,131.8755],[43.1207,16.5286,144.0643],[43.0762,16.5284,94.0365],[43.0672,16.5297,87.0713],[43.0588,16.5252,81.2128],[42.9922,16.5217,69.0002],[42.9835,16.5153,70.1475],[42.975,16.5123,67.4171],[42.9582,16.5025,64.9525],[42.9503,16.497,63.9283],[42.9448,16.4898,60.453],[42.9373,16.4414,54.3366],[42.95,16.4076,58.5806],[42.9565,16.4021,63.0018],[42.9885,16.4082,75.1633],[42.9926,16.4077,76.3481],[42.9959,16.3876,72.9194],[42.9936,16.3673,63.0733],[42.9581,16.3519,51.5778],[42.9538,16.3474,50.0137],[42.9607,16.2745,54.2315],[43.0682,16.2911,95.298],[43.0921,16.3016,102.0918],[43.1382,16.3013,130.2874],[43.1696,16.289,154.3572],[43.1699,16.2856,146.7228],[43.1759,16.2832,146.3461],[43.1788,16.2892,162.2505],[43.1841,16.2853,155.9268],[43.1862,16.2782,172.8152],[43.1944,16.2759,167.9612],[43.1969,16.27,177.9926],[43.1962,16.266,190.2431],[43.208,16.2637,180.567],[43.2178,16.2686,185.5017],[43.2276,16.2765,198.9505],[43.2291,16.2868,207.1907],[43.236,16.2944,214.1022],[43.2364,16.2983,218.7952],[43.2334,16.307,248.9272],[43.2387,16.3126,239.8234],[43.2423,16.3209,252.5545],[43.2425,16.3263,269.0185],[43.2652,16.3653,311.6104],[43.268,16.3671,284.9691],[43.267,16.3788,309.1962],[43.2696,16.4116,301.1613],[43.2781,16.4624,332.8748],[43.2734,16.4737,374.6154],[43.2654,16.4806,289.2356],[43.2255,16.4949,219.7136],[43.2002,16.4993,211.9935],[43.1908,16.5062,202.2164],[43.1922,16.5156,184.2234],[43.2047,16.5264,192.2471],[43.2072,16.532,190.4788],[43.2165,16.5438,345.0161],[43.2202,16.5546,303.6283],[43.2233,16.5697,216.3996],[43.2229,16.5764,206.7706],[43.2168,16.5909,214.6162],[43.2171,16.6153,244.0776],[43.2199,16.6176,246.3586],[43.2221,16.6155,244.7754],[43.2287,16.621,253.6835],[43.2279,16.6262,267.1874],[43.2196,16.6393,221.035],[43.211,16.6472,216.7243],[43.2153,16.6471,227.539],[43.2062,16.6476,207.0559],[43.2027,16.6493,203.804]]],
[[[43.2188,16.6474,233.3336],[43.2157,16.6472,231.5336],[43.2196,16.6474,233.3336],[43.2188,16.6474,233.3336]]]]}}