{"type":"Feature","properties":{"GID_2":"YEM.16.12_1","GID_0":"YEM","country":"Yemen","GID_1":"YEM.16_1","province":"Ma'rib","NL_NAME_1":"مأرب","county":"Raghwan","VARNAME_2":"NA","NL_NAME_2":"رغوان","TYPE_2":"Muderiah","ENGTYPE_2":"District","CC_2":"2602","HASC_2":"NA","name":"Raghwan.county"},
"geometry":{"type": "MultiPolygon","coordinates": [[[[45.0132,15.9159,1076.9484],[44.9255,15.7946,1152.2693],[44.9043,15.7449,1193.5186],[45.0514,15.6986,1126.4033],[45.0953,15.6967,1121.1548],[45.0978,15.6919,1120.0189],[45.0997,15.681,1120.6499],[45.2175,15.6646,1091.6816],[45.2294,15.6938,1068.8823],[45.2329,15.714,1066.0537],[45.2346,15.7678,1047.0583],[45.0132,15.9159,1076.9484]]]]}}