{"type":"Feature","properties":{"GID_2":"YEM.15.2_1","GID_0":"YEM","country":"Yemen","GID_1":"YEM.15_1","province":"Lahij","NL_NAME_1":"لحج","county":"AlHad","VARNAME_2":"NA","NL_NAME_2":"الحد","TYPE_2":"Muderiah","ENGTYPE_2":"District","CC_2":"2501","HASC_2":"NA","name":"Al_Had.county"},
"geometry":{"type": "MultiPolygon","coordinates": [[[[45.3828,13.909,2152.7988],[45.3782,13.9226,2127.1846],[45.3796,13.9447,2079.074],[45.3837,13.9659,2092.7446],[45.3858,13.9874,2032.093],[45.3844,14.0003,2017.0698],[45.3694,14.0394,1980.8859],[45.36,14.0518,1951.9658],[45.3551,14.0559,1952.9165],[45.3505,14.0559,1961.5631],[45.3297,14.0458,1901.2712],[45.261,14.0025,1551.3691],[45.2343,13.9682,1523.0696],[45.2266,13.9651,1507.536],[45.2198,13.9651,2019.2562],[45.2028,13.9727,1520.4182],[45.1843,13.973,1337.012],[45.1804,13.9779,1659.8115],[45.1734,13.9804,1493.6201],[45.1634,13.9817,1256.9304],[45.1559,13.977,1345.1349],[45.1508,13.9808,1228.3546],[45.1481,13.977,1469.6085],[45.1458,13.9769,1376.5333],[45.1455,13.9742,1411.4707],[45.141,13.9762,1183.4304],[45.1386,13.9739,1204.3702],[45.1386,13.9671,1409.6219],[45.1422,13.9624,1225.4111],[45.1345,13.9537,1398.0563],[45.1353,13.9501,1204.3477],[45.1325,13.9442,1266.2743],[45.1317,13.9263,1398.1418],[45.1276,13.9251,1255.9335],[45.1264,13.9204,1103.9133],[45.1292,13.9164,1167.2712],[45.1248,13.9109,1160.4248],[45.1282,13.9025,1274.2382],[45.1777,13.9044,1761.49],[45.2038,13.9204,2130.322],[45.2245,13.9287,2172.5212],[45.2501,13.9317,2159.0747],[45.2665,13.9305,2152.7947],[45.2896,13.9257,2093.5386],[45.3237,13.9149,2240.1514],[45.3355,13.9079,2306.4497],[45.3733,13.9007,2112.4089],[45.3828,13.909,2152.7988]]]]}}