{"type":"Feature","properties":{"GID_2":"YEM.18.4_1","GID_0":"YEM","country":"Yemen","GID_1":"YEM.18_1","province":"Sa`dah","NL_NAME_1":"صعدة","county":"Baqim","VARNAME_2":"NA","NL_NAME_2":"باقم","TYPE_2":"Muderiah","ENGTYPE_2":"District","CC_2":"2201","HASC_2":"NA","name":"Baqim.county"},
"geometry":{"type": "MultiPolygon","coordinates": [[[[43.3031,17.5284,1791.6815],[43.2854,17.5173,1488.3156],[43.2604,17.4899,1362.8212],[43.2408,17.4805,1415.7557],[43.2564,17.4577,1861.0468],[43.2657,17.457,1869.1868],[43.3085,17.4466,1651.4346],[43.334,17.4425,2051.52],[43.3401,17.4375,2257.582],[43.3424,17.4296,2089.2925],[43.3404,17.3951,2009.7555],[43.3428,17.3864,2020.2662],[43.3437,17.3663,2293.4829],[43.3497,17.3606,2513.595],[43.3618,17.3549,2531.2385],[43.3807,17.3342,2434.0972],[43.3974,17.3128,2246.8376],[43.4057,17.2977,2369.8391],[43.4172,17.2705,2500.9441],[43.4226,17.2482,2315.7061],[43.4367,17.2274,2296.6111],[43.4931,17.2408,2011.0007],[43.5477,17.2448,1867.4526],[43.5747,17.235,1850.1967],[43.6513,17.1956,1932.5315],[43.6784,17.1926,1833.8215],[43.6834,17.1904,1928.8961],[43.6843,17.1983,1907.7307],[43.6815,17.2138,1882.8667],[43.6826,17.2171,1867.7753],[43.6816,17.229,2074.4058],[43.6829,17.2553,1791.6583],[43.6775,17.2917,1844.5302],[43.6805,17.3029,2138.6113],[43.6861,17.3078,2024.501],[43.68,17.3696,1995.9456],[43.6178,17.4261,2217.6021],[43.5665,17.4834,2241.4731],[43.5272,17.5142,2381.8755],[43.5203,17.5091,2359.1919],[43.5062,17.524,2413.4814],[43.4957,17.5269,2399.5806],[43.4846,17.5451,2470.0237],[43.4645,17.5524,2477.8535],[43.4454,17.55,2377.4006],[43.4313,17.5639,1915.0734],[43.4196,17.5658,1939.3066],[43.3992,17.5566,1961.0044],[43.3794,17.5554,1941.7073],[43.3756,17.544,1733.4167],[43.3547,17.5564,1631.1317],[43.3359,17.5398,1754.5687],[43.3102,17.5277,1826.3466],[43.3047,17.5319,1794.2954],[43.3031,17.5284,1791.6815]]]]}}