{"type":"Feature","properties":{"GID_2":"YEM.3.5_1","GID_0":"YEM","country":"Yemen","GID_1":"YEM.3_1","province":"AlBayda'","NL_NAME_1":"البيضاء","county":"AlQuraishyah","VARNAME_2":"NA","NL_NAME_2":"القريشية","TYPE_2":"Muderiah","ENGTYPE_2":"District","CC_2":"1414","HASC_2":"NA","name":"Al_Quraishyah.county"},
"geometry":{"type": "MultiPolygon","coordinates": [[[[44.9507,14.4055,2058.9941],[44.9787,14.4399,2057.6238],[45.0166,14.4647,1945.0944],[45.0073,14.5527,1952.5868],[44.9828,14.6255,1910.9559],[44.9696,14.7024,1802.7605],[44.9677,14.7717,1741.7507],[44.963,14.8064,1670.8544],[44.8892,14.7904,1748.3057],[44.8363,14.7471,1888.5419],[44.7803,14.7119,2041.3898],[44.7827,14.6978,2007.0798],[44.8145,14.6283,2072.7092],[44.8367,14.6051,2025.6768],[44.9026,14.5789,2033.4059],[44.9161,14.5635,2093.7075],[44.92,14.5527,2090.0356],[44.9089,14.5357,2036.7537],[44.906,14.5335,2019.5331],[44.8947,14.5588,2031.2557],[44.8843,14.5681,1994.6912],[44.8637,14.5673,2012.8075],[44.855,14.5588,2024.5471],[44.8407,14.5379,2100.9275],[44.8043,14.5055,2226.585],[44.7789,14.48,2246.752],[44.7626,14.4605,2240.3423],[44.7728,14.4443,2187.5791],[44.7804,14.4364,2174.8494],[44.7886,14.4316,2165.4758],[44.8044,14.4305,2141.9883],[44.8043,14.4413,2142.1497],[44.8099,14.4506,2160.2654],[44.8218,14.4584,2153.6558],[44.8321,14.4584,2158.0386],[44.8463,14.4553,2166.4866],[44.8479,14.4411,2107.6714],[44.8445,14.4385,2110.8298],[44.8441,14.4349,2112.3513],[44.8485,14.4346,2110.7468],[44.8622,14.4198,2116.1858],[44.8694,14.419,2143.8921],[44.8711,14.412,2123.1104],[44.9145,14.4036,2133.7634],[44.9352,14.4058,2091.0452],[44.9507,14.4055,2058.9941]]]]}}