{"type":"Feature","properties":{"GID_2":"YEM.15.4_1","GID_0":"YEM","country":"Yemen","GID_1":"YEM.15_1","province":"Lahij","NL_NAME_1":"لحج","county":"AlMaflahy","VARNAME_2":"NA","NL_NAME_2":"المفلحي","TYPE_2":"Muderiah","ENGTYPE_2":"District","CC_2":"2503","HASC_2":"NA","name":"Al_Maflahy.county"},
"geometry":{"type": "MultiPolygon","coordinates": [[[[45.0201,13.7144,724.2379],[45.0647,13.7278,1830.7998],[45.0716,13.7334,1723.5278],[45.0889,13.7357,1850.0278],[45.1165,13.7491,1881.6964],[45.128,13.7491,1918.1416],[45.1395,13.7458,1846.2263],[45.151,13.7458,1704.988],[45.1613,13.7491,1458.8447],[45.1748,13.7496,1348.8127],[45.1923,13.7546,1597.0222],[45.1965,13.7581,1698.3002],[45.2016,13.7727,1940.6313],[45.2012,13.7946,2285.6936],[45.1934,13.8111,1992.0408],[45.1874,13.8201,2132.7759],[45.1772,13.8225,2099.3623],[45.169,13.8346,1610.8228],[45.1486,13.8391,1322.6997],[45.1291,13.8364,1193.1292],[45.1019,13.8229,995.8677],[45.0894,13.8103,1165.4442],[45.0809,13.8095,907.1762],[45.0761,13.7996,1079.4429],[45.0781,13.7936,1039.1458],[45.0813,13.792,1046.9894],[45.0797,13.7889,1028.3519],[45.0704,13.7813,1044.5394],[45.0679,13.7766,1161.1292],[45.0566,13.773,875.1656],[45.055,13.7655,991.4247],[45.0578,13.7596,936.2992],[45.055,13.758,797.7442],[45.0529,13.7596,806.4939],[45.0465,13.7449,868.7021],[45.0428,13.7449,775.2088],[45.0383,13.7366,1075.7344],[45.0306,13.7382,775.7749],[45.0242,13.7287,878.5866],[45.0213,13.7338,810.054],[45.0225,13.7247,876.6497],[45.0161,13.7255,809.8346],[45.0165,13.7168,709.0713],[45.0201,13.7144,724.2379]]]]}}