{"type":"Feature","properties":{"GID_2":"YEM.5.7_1","GID_0":"YEM","country":"Yemen","GID_1":"YEM.5_1","province":"AlHudaydah","NL_NAME_1":"الحديده","county":"AlKhawkhah","VARNAME_2":"NA","NL_NAME_2":"الخوخه","TYPE_2":"Muderiah","ENGTYPE_2":"District","CC_2":"1820","HASC_2":"NA","name":"Al_Khawkhah.county"},
"geometry":{"type": "MultiPolygon","coordinates": [[[[42.5768,13.451,0.0],[42.5757,13.4518,2.2703],[42.5732,13.4499,0.0],[42.5765,13.4499,0.0],[42.5768,13.451,0.0]]],
[[[42.6107,13.5263,0.896],[42.6079,13.526,3.6051],[42.6085,13.5229,0.0],[42.6096,13.5226,0.0],[42.6107,13.5263,0.896]]],
[[[42.6196,13.536,0.0],[42.6179,13.5363,0.0],[42.6179,13.5343,0.0],[42.6201,13.5346,0.0],[42.6196,13.536,0.0]]],
[[[42.7285,13.6018,0.0],[42.7276,13.6026,0.0],[42.726,13.6026,0.0],[42.7287,13.6001,0.0],[42.7285,13.6018,0.0]]],
[[[42.7799,13.6346,0.0],[42.7782,13.6357,0.0],[42.7776,13.6326,0.0],[42.7788,13.6324,0.0],[42.7799,13.6346,0.0]]],
[[[42.7493,13.6376,0.0],[42.746,13.6388,0.0],[42.7457,13.6351,0.0],[42.7482,13.6349,0.0],[42.7493,13.6376,0.0]]],
[[[42.7813,13.6374,0.0],[42.7801,13.6388,0.0],[42.779,13.6365,0.0],[42.7807,13.6363,0.0],[42.7813,13.6374,0.0]]],
[[[42.754,13.654,8.9602],[42.7518,13.6549,11.0895],[42.7474,13.6518,6.2965],[42.7438,13.6471,0.0],[42.7435,13.6435,0.0],[42.7468,13.6426,0.0],[42.7487,13.6446,0.0],[42.7513,13.6446,0.0],[42.7543,13.6485,0.0],[42.7551,13.6521,0.0],[42.754,13.654,8.9602]]],
[[[42.7424,13.6318,17.1954],[42.7388,13.6321,2.5876],[42.7365,13.6301,18.7235],[42.7357,13.6232,13.9504],[42.7329,13.6213,10.8356],[42.7318,13.6163,2.1003],[42.7276,13.6124,4.244],[42.7251,13.6121,2.8072],[42.7246,13.6101,34.7809],[42.7212,13.6101,0.0],[42.7218,13.6076,0.0],[42.7262,13.6032,0.0],[42.7346,13.6065,0.0],[42.741,13.6038,0.0],[42.7415,13.6074,0.0],[42.7399,13.6074,24.1249],[42.739,13.614,0.0],[42.7376,13.6135,16.5528],[42.7382,13.6201,20.7064],[42.7412,13.6257,0.0],[42.7479,13.6285,1.8767],[42.7468,13.6313,3.5674],[42.7424,13.6318,17.1954]]],
[[[42.7801,13.7815,40.9776],[42.7785,13.7815,23.1239],[42.7776,13.7776,12.9552],[42.7715,13.7763,3.7143],[42.7721,13.7712,1.7276],[42.7682,13.7679,6.2414],[42.7551,13.7676,0.0],[42.746,13.7607,0.0],[42.7418,13.761,0.0],[42.7363,13.7582,6.7329],[42.7326,13.749,14.0366],[42.7268,13.746,0.538],[42.716,13.744,0.3244],[42.7113,13.7374,0.0],[42.7065,13.7343,0.0],[42.7049,13.7288,0.0],[42.706,13.7249,3.7478],[42.7029,13.7201,0.0],[42.7021,13.7154,0.3407],[42.7046,13.7079,6.8485],[42.7021,13.7026,0.0],[42.7021,13.6988,0.1809],[42.6943,13.6963,0.0],[42.6935,13.694,1.0058],[42.6881,13.693,0.0],[42.6876,13.6904,2.3632],[42.6843,13.689,0.0],[42.6818,13.684,0.2651],[42.6824,13.6807,0.2211],[42.6846,13.6788,1.529],[42.6832,13.6754,5.7694],[42.676,13.6779,1.7397],[42.6749,13.674,2.4804],[42.6685,13.6729,0.4715],[42.6662,13.6699,0.0],[42.6651,13.664,0.9694],[42.6685,13.6596,1.404],[42.6688,13.6551,0.0],[42.6707,13.6538,0.8119],[42.6732,13.6546,3.5991],[42.6726,13.6529,1.6966],[42.6754,13.6493,0.0],[42.6893,13.6563,0.0],[42.6926,13.656,5.4023],[42.6926,13.6529,0.0],[42.6946,13.6521,0.4353],[42.6957,13.6579,6.521],[42.694,13.6626,4.7158],[42.6963,13.6618,0.0],[42.7007,13.6654,0.0],[42.7018,13.6696,0.9018],[42.7074,13.6704,0.0],[42.7107,13.6776,12.4901],[42.7196,13.6804,0.979],[42.7324,13.6774,0.0],[42.7349,13.6801,0.0],[42.7379,13.6804,0.0],[42.739,13.6851,0.5754],[42.7429,13.6876,0.0],[42.7429,13.6912,0.0],[42.7449,13.6926,0.0],[42.744,13.6946,2.5319],[42.7504,13.7013,0.0],[42.751,13.7051,0.0],[42.756,13.7082,0.0],[42.7551,13.7143,1.7506],[42.7576,13.7174,1.9166],[42.7565,13.7224,11.4296],[42.7618,13.7254,0.0],[42.7654,13.7246,0.0],[42.7665,13.7263,2.8073],[42.7657,13.7301,2.9407],[42.7687,13.7312,0.7104],[42.7701,13.7343,2.2096],[42.7768,13.7315,0.0],[42.7785,13.7324,0.0],[42.7743,13.7438,2.8688],[42.7749,13.7476,2.4934],[42.7774,13.7499,0.0],[42.7768,13.7604,0.0],[42.7785,13.7621,1.8638],[42.7815,13.7621,0.0],[42.7865,13.7696,0.0],[42.7835,13.774,21.3884],[42.7835,13.7799,3.02],[42.781,13.7796,63.2116],[42.7801,13.7815,40.9776]]],
[[[42.8032,13.6649,0.0],[42.801,13.6651,1.7593],[42.8001,13.6629,1.3916],[42.8021,13.6621,0.0],[42.8032,13.6649,0.0]]],
[[[42.7929,13.7146,48.7866],[42.7904,13.7154,18.4063],[42.7893,13.7115,0.0],[42.7901,13.706,0.0],[42.7918,13.7046,0.0],[42.7943,13.7049,0.0],[42.7965,13.7082,0.0],[42.7929,13.7146,48.7866]]],
[[[42.8071,13.7174,9.303],[42.806,13.7179,6.2632],[42.8046,13.7157,17.3841],[42.804,13.7096,0.0],[42.8096,13.7068,0.0],[42.8121,13.7126,0.0],[42.8071,13.7174,9.303]]],
[[[42.8404,13.7849,0.0],[42.8374,13.7832,0.0264],[42.8338,13.7835,0.0],[42.8385,13.7821,0.0264],[42.8404,13.7849,0.0]]],
[[[42.7562,13.7754,0.0],[42.7546,13.7754,0.0],[42.754,13.774,0.0],[42.7554,13.7743,0.0],[42.7562,13.7754,0.0]]],
[[[42.7882,13.7912,0.0],[42.7857,13.7912,17.7922],[42.784,13.7867,57.2404],[42.7854,13.7815,0.0],[42.789,13.7801,0.0],[42.7915,13.7815,0.0],[42.7921,13.7843,0.0],[42.791,13.7885,0.0],[42.7882,13.7912,0.0]]],
[[[42.8088,13.7918,1.3858],[42.8057,13.7924,0.0],[42.8046,13.7896,0.0],[42.8068,13.7907,0.3857],[42.8063,13.7885,0.0],[42.8074,13.7882,0.0],[42.8088,13.7918,1.3858]]],
[[[43.3208,13.9067,72.2347],[43.3065,13.9043,62.7599],[43.2411,13.9009,27.1744],[43.2179,13.8974,5.4861],[43.2313,13.8863,0.8257],[43.2357,13.8765,3.5847],[43.2321,13.8576,0.0],[43.229,13.8535,0.6464],[43.2354,13.8385,2.2886],[43.2351,13.8263,0.3612],[43.2335,13.8265,0.3984],[43.2349,13.8318,2.2072],[43.2321,13.834,0.6204],[43.2321,13.8401,0.8106],[43.2296,13.8346,0.0],[43.2315,13.8304,0.0],[43.2321,13.8226,0.0],[43.2357,13.8193,1.6889],[43.2396,13.8063,0.0],[43.2446,13.8004,4.1212],[43.2476,13.7838,0.0],[43.2646,13.7463,0.0],[43.2665,13.736,0.0],[43.2751,13.7224,0.4345],[43.2751,13.7138,0.0],[43.2804,13.7065,1.2392],[43.2837,13.6985,2.322],[43.2874,13.6788,0.0],[43.3385,13.6974,26.7323],[43.4058,13.717,66.2584],[43.423,13.7402,81.6056],[43.4173,13.7677,73.1616],[43.4367,13.797,100.2806],[43.4767,13.7934,182.2576],[43.4798,13.805,207.0163],[43.4687,13.8202,171.1491],[43.469,13.8246,177.7677],[43.4466,13.8393,139.0241],[43.4395,13.8492,140.5917],[43.4379,13.8546,143.788],[43.4441,13.8661,152.7305],[43.433,13.876,142.241],[43.4369,13.8822,149.593],[43.44,13.8922,155.6936],[43.4415,13.906,155.2655],[43.4367,13.9137,152.3891],[43.428,13.919,148.5387],[43.4147,13.9204,139.6231],[43.4004,13.9349,132.3918],[43.3865,13.9462,119.722],[43.3853,13.9423,119.0086],[43.3661,13.92,106.2397],[43.3455,13.9104,91.9443],[43.3402,13.9114,88.978],[43.3208,13.9067,72.2347]]]]}}