{"type":"Feature","properties":{"GID_2":"YEM.16.9_1","GID_0":"YEM","country":"Yemen","GID_1":"YEM.16_1","province":"Ma'rib","NL_NAME_1":"مأرب","county":"Marib","VARNAME_2":"NA","NL_NAME_2":"مأرب","TYPE_2":"Muderiah","ENGTYPE_2":"District","CC_2":"2613","HASC_2":"NA","name":"Marib.county"},
"geometry":{"type": "MultiPolygon","coordinates": [[[[45.2346,15.7677,1047.0583],[45.2329,15.714,1066.0537],[45.2294,15.6938,1068.8823],[45.2175,15.6646,1091.6816],[45.2115,15.532,1319.0406],[45.3057,15.5077,1124.4535],[45.3146,15.5072,1118.5493],[45.3177,15.5034,1122.5497],[45.3153,15.4858,1104.2678],[45.3113,15.4798,1109.7642],[45.3415,15.4572,1083.7335],[45.3588,15.4572,1077.3876],[45.3672,15.4632,1076.8817],[45.3707,15.4679,1075.5875],[45.3741,15.4652,1073.6331],[45.3734,15.4619,1075.6284],[45.3686,15.4598,1077.6871],[45.3693,15.4565,1078.9846],[45.3755,15.4504,1077.7699],[45.3803,15.439,1081.7883],[45.3827,15.4274,1078.885],[45.3685,15.4269,1088.0261],[45.3602,15.4222,1090.957],[45.3449,15.4027,1099.541],[45.3393,15.3987,1101.4275],[45.3359,15.402,1104.1405],[45.3324,15.4,1105.5872],[45.3331,15.3865,1101.765],[45.2955,15.3515,1396.5206],[45.3004,15.3472,1415.3812],[45.3096,15.3272,1116.3955],[45.3096,15.3133,1123.5472],[45.4216,15.2348,1129.0422],[45.4501,15.2039,1159.1191],[45.5054,15.1538,1227.725],[45.5783,15.0807,1098.2087],[45.5999,15.1078,1087.7302],[45.7025,15.1978,1048.0615],[46.306,15.6062,880.1259],[46.4864,15.8018,859.9613],[46.8108,16.1619,883.7923],[45.8221,16.0118,1008.472],[45.7105,15.9726,1091.3499],[45.6295,15.9229,983.1577],[45.5867,15.8773,974.5969],[45.5557,15.8296,983.6352],[45.5278,15.7915,986.265],[45.4642,15.7615,993.4916],[45.2346,15.7677,1047.0583]]]]}}