{"type":"Feature","properties":{"GID_2":"YEM.6.2_1","GID_0":"YEM","country":"Yemen","GID_1":"YEM.6_1","province":"AlJawf","NL_NAME_1":"الجوف","county":"AlHazm","VARNAME_2":"NA","NL_NAME_2":"الحزم","TYPE_2":"Muderiah","ENGTYPE_2":"District","CC_2":"1605","HASC_2":"NA","name":"Al_Hazm.county"},
"geometry":{"type": "MultiPolygon","coordinates": [[[[44.7755,16.1099,1101.1859],[44.8408,16.0962,1088.0837],[44.8539,16.072,1084.1947],[44.8563,16.0547,1085.0857],[44.8554,16.0518,1085.9294],[44.8616,16.0518,1084.6281],[44.8636,16.0624,1082.8507],[44.8765,16.0624,1080.2737],[44.8775,16.0441,1081.6339],[44.8531,16.0437,1087.3683],[44.848,16.0262,1090.5601],[45.2346,15.7678,1047.0583],[45.2413,15.9887,1023.9951],[45.2054,16.0932,1083.0487],[45.1254,16.1629,1207.2006],[44.9527,16.2253,1368.953],[44.874,16.2667,1203.5201],[44.8215,16.2874,1501.8337],[44.7797,16.3079,1669.5258],[44.6757,16.1525,1128.4026],[44.7764,16.1111,1101.4674],[44.7755,16.1099,1101.1859]]]]}}