{"type":"Feature","properties":{"GID_2":"YEM.2.3_1","GID_0":"YEM","country":"Yemen","GID_1":"YEM.2_1","province":"Abyan","NL_NAME_1":"أبين","county":"AlWade'a","VARNAME_2":"NA","NL_NAME_2":"الوضيع","TYPE_2":"Muderiah","ENGTYPE_2":"District","CC_2":"1208","HASC_2":"NA","name":"Al_Wade'a.county"},
"geometry":{"type": "MultiPolygon","coordinates": [[[[45.9258,13.5902,1023.4363],[45.9694,13.5886,1109.6174],[46.0373,13.6215,1073.8225],[46.1051,13.6488,1190.6309],[46.1505,13.6872,1095.3535],[46.1752,13.735,809.3135],[46.1743,13.7896,784.615],[46.1651,13.808,750.1063],[46.1215,13.8312,739.4881],[46.0551,13.8312,782.5184],[46.0382,13.8349,797.9673],[46.0297,13.8385,799.384],[46.0212,13.8313,813.8241],[46.0024,13.8296,830.328],[45.9835,13.8149,858.4695],[45.9533,13.7948,813.3],[45.8759,13.7454,1041.5217],[45.8664,13.7252,937.1089],[45.8701,13.7013,906.8363],[45.87,13.6755,887.7045],[45.8587,13.6755,888.2583],[45.8492,13.659,886.2507],[45.8624,13.6498,897.0916],[45.8756,13.6497,904.7182],[45.9038,13.6459,908.6302],[45.9225,13.6127,980.4902],[45.9258,13.5902,1023.4363]]]]}}