{"type":"Feature","properties":{"GID_2":"YEM.6.12_1","GID_0":"YEM","country":"Yemen","GID_1":"YEM.6_1","province":"AlJawf","NL_NAME_1":"الجوف","county":"Rajuzah","VARNAME_2":"NA","NL_NAME_2":"رجوزه","TYPE_2":"Muderiah","ENGTYPE_2":"District","CC_2":"1611","HASC_2":"NA","name":"Rajuzah.county"},
"geometry":{"type": "MultiPolygon","coordinates": [[[[44.5706,16.466,1971.3934],[44.6288,16.4789,2017.8544],[44.6845,16.5229,1914.2344],[44.6909,16.5332,1898.8884],[44.695,16.555,1807.1759],[44.6916,16.576,1761.0729],[44.6794,16.6205,1790.5571],[44.6678,16.6442,1746.8964],[44.647,16.7516,1765.7638],[44.6452,16.7928,1713.0363],[44.6371,16.8069,1748.4934],[44.5923,16.8068,1804.2332],[44.5386,16.8024,1918.1147],[44.5117,16.798,1927.4773],[44.4849,16.7828,1981.2765],[44.4442,16.7647,2032.5898],[44.4258,16.7611,2038.2205],[44.4114,16.7604,2044.995],[44.3923,16.7536,2060.8982],[44.3893,16.755,2057.7063],[44.3889,16.7587,2055.9216],[44.3837,16.7573,2073.6836],[44.382,16.7588,2078.6392],[44.3708,16.7501,2082.1306],[44.3574,16.7328,2085.647],[44.3463,16.7112,2121.1929],[44.3419,16.6853,2128.0889],[44.3133,16.6494,1713.0619],[44.3398,16.64,1766.4417],[44.3623,16.6207,1956.3694],[44.3824,16.6078,2009.7573],[44.3937,16.5949,1768.5433],[44.4021,16.5663,1642.9498],[44.4206,16.5712,1989.3208],[44.4608,16.5713,1994.3694],[44.4855,16.552,2114.9478],[44.4856,16.511,2172.5786],[44.5036,16.4679,1442.2291],[44.5506,16.4615,1812.4686],[44.5706,16.466,1971.3934]]]]}}