{"type":"Feature","properties":{"GID_2":"YEM.2.1_1","GID_0":"YEM","country":"Yemen","GID_1":"YEM.2_1","province":"Abyan","NL_NAME_1":"أبين","county":"Ahwar","VARNAME_2":"NA","NL_NAME_2":"احوار","TYPE_2":"Muderiah","ENGTYPE_2":"District","CC_2":"1209","HASC_2":"NA","name":"Ahwar.county"},
"geometry":{"type": "MultiPolygon","coordinates": [[[[46.3512,13.7355,430.0825],[46.3417,13.6886,803.0453],[46.3252,13.6261,597.5406],[46.3249,13.5767,485.8125],[46.3369,13.5317,230.279],[46.3644,13.4759,76.3135],[46.3986,13.4182,0.0],[46.4165,13.4179,1.5166],[46.4296,13.4157,1.2505],[46.4315,13.4149,0.0],[46.4329,13.411,1.1825],[46.4371,13.4104,0.0],[46.4446,13.406,0.0],[46.4476,13.409,3.0621],[46.4549,13.4113,1.2951],[46.4804,13.4154,0.0],[46.5054,13.4154,0.0],[46.526,13.4204,0.0],[46.5301,13.4196,0.4438],[46.5529,13.4274,4.2195],[46.5818,13.4324,2.3603],[46.5985,13.4371,5.3534],[46.6246,13.4387,0.9068],[46.6474,13.4362,2.1824],[46.6651,13.4324,3.2479],[46.6807,13.4257,0.0],[46.6924,13.4257,0.0],[46.7199,13.4401,2.9294],[46.8243,13.4799,0.5642],[46.8493,13.4946,1.4324],[46.8929,13.526,1.0807],[46.9207,13.5387,0.0],[46.9518,13.5468,0.0],[46.9637,13.5488,3.3004],[46.9674,13.5479,0.0],[46.9701,13.5504,0.0],[46.9768,13.5524,4.0623],[46.9785,13.5515,0.0],[46.9882,13.5551,0.1731],[46.9987,13.5554,0.0],[47.021,13.5601,0.0],[47.0468,13.5676,3.8419],[47.0785,13.5704,0.0],[47.1168,13.5851,1.7806],[47.1285,13.5876,2.9074],[47.1307,13.5868,0.0],[47.1321,13.5885,0.618],[47.1429,13.5901,0.5435],[47.1635,13.5965,1.5545],[47.1818,13.5996,2.4496],[47.1839,13.6435,80.4258],[47.1824,13.6454,84.3573],[47.1841,13.6472,87.6653],[47.1863,13.693,163.713],[47.1666,13.8729,387.6423],[47.1607,13.9674,703.631],[47.039,13.9577,760.3041],[46.9448,13.9542,854.0587],[46.7908,13.8694,484.03],[46.7704,13.8485,432.0376],[46.7238,13.8109,407.9153],[46.6514,13.777,199.3581],[46.4958,13.7473,411.0435],[46.3792,13.7353,459.6663],[46.3512,13.7355,430.0825]]]]}}