{"type":"Feature","properties":{"GID_2":"YEM.13.17_1","GID_0":"YEM","country":"Yemen","GID_1":"YEM.13_1","province":"Hajjah","NL_NAME_1":"حجه","county":"Hayran","VARNAME_2":"NA","NL_NAME_2":"حيران","TYPE_2":"Muderiah","ENGTYPE_2":"District","CC_2":"1705","HASC_2":"NA","name":"Hayran.county"},
"geometry":{"type": "MultiPolygon","coordinates": [[[[43.1587,16.2373,156.0647],[43.1611,16.2658,142.5854],[43.1699,16.2856,146.7228],[43.1696,16.289,154.3572],[43.1382,16.3013,130.2874],[43.0921,16.3016,102.0918],[43.0682,16.2911,95.298],[42.9605,16.2745,55.5517],[42.9606,16.2595,47.1091],[42.9499,16.2399,40.2341],[42.9505,16.2,42.4617],[43.0416,16.2095,74.8983],[43.0753,16.2256,102.1562],[43.1316,16.2361,125.9356],[43.1587,16.2373,156.0647]]]]}}