{"type":"Feature","properties":{"GID_2":"YEM.15.8_1","GID_0":"YEM","country":"Yemen","GID_1":"YEM.15_1","province":"Lahij","NL_NAME_1":"لحج","county":"AlQabbaytah","VARNAME_2":"NA","NL_NAME_2":"القبيطه","TYPE_2":"Muderiah","ENGTYPE_2":"District","CC_2":"2510","HASC_2":"NA","name":"Al_Qabbaytah.county"},
"geometry":{"type": "MultiPolygon","coordinates": [[[[44.4186,13.4973,921.2568],[44.4134,13.4952,964.1946],[44.4009,13.497,1095.5803],[44.387,13.496,1175.1332],[44.3819,13.4941,1004.4886],[44.374,13.4796,960.8987],[44.345,13.4823,1032.7329],[44.3376,13.4798,1079.5394],[44.3311,13.4691,955.9111],[44.3306,13.4605,953.7608],[44.3521,13.4443,883.0275],[44.3768,13.4314,951.834],[44.3926,13.4255,995.6376],[44.4131,13.4217,882.6747],[44.4197,13.4174,909.6284],[44.4247,13.4061,898.4368],[44.4258,13.3903,935.6674],[44.4231,13.3854,941.6755],[44.418,13.3832,934.462],[44.3902,13.3799,945.8829],[44.3763,13.3813,1025.0989],[44.3663,13.3846,1009.2722],[44.3492,13.3855,999.802],[44.3333,13.3835,1001.8818],[44.33,13.3816,997.4108],[44.3245,13.3735,1022.6976],[44.3172,13.3701,1069.8186],[44.3103,13.3677,1047.5215],[44.2929,13.3676,1072.5597],[44.2935,13.3564,1332.7972],[44.2977,13.3557,1200.7131],[44.3045,13.3626,1089.6924],[44.3157,13.3639,1062.4669],[44.3202,13.3572,1135.2064],[44.3182,13.3545,1188.5747],[44.3228,13.3574,1110.3262],[44.327,13.3567,1163.6509],[44.3378,13.3439,1189.6245],[44.3378,13.3378,1190.493],[44.3281,13.3163,1813.8903],[44.3259,13.3027,1712.7363],[44.3265,13.2983,1503.7191],[44.3329,13.2883,1317.0798],[44.3412,13.2677,1015.5199],[44.3361,13.2525,1033.0321],[44.3382,13.2397,1065.5176],[44.3361,13.2349,1039.4879],[44.3276,13.2291,884.1758],[44.3127,13.2232,861.5261],[44.3092,13.2189,831.9314],[44.3071,13.2085,798.5172],[44.3105,13.2063,953.558],[44.3539,13.2273,1004.067],[44.3724,13.2336,977.3983],[44.3788,13.2336,851.15],[44.3789,13.2237,945.5812],[44.3733,13.2173,907.5328],[44.3734,13.2074,902.9142],[44.3891,13.1984,698.3349],[44.3983,13.1993,752.484],[44.4066,13.2066,807.182],[44.414,13.2102,862.9293],[44.4325,13.2102,1099.8925],[44.4584,13.2076,1132.6071],[44.4797,13.2084,740.5203],[44.5169,13.1929,589.0363],[44.517,13.1606,568.3831],[44.5271,13.1578,538.6732],[44.5557,13.1578,504.9501],[44.5715,13.1663,496.2812],[44.593,13.1677,464.7676],[44.6002,13.1706,505.7248],[44.6171,13.1655,396.0242],[44.6793,13.1683,328.1746],[44.7106,13.1795,287.953],[44.7078,13.1918,303.9152],[44.7048,13.2311,332.0914],[44.7063,13.248,353.8753],[44.7122,13.2688,379.6288],[44.6927,13.2748,383.4506],[44.666,13.289,419.4879],[44.6539,13.3151,538.21],[44.6417,13.3601,565.8404],[44.6174,13.4052,564.4683],[44.598,13.4122,663.5791],[44.5325,13.4524,771.3762],[44.5204,13.469,701.3155],[44.5083,13.4808,767.9856],[44.4719,13.4808,783.7156],[44.4453,13.4783,836.4427],[44.4356,13.4807,974.3763],[44.4186,13.4973,921.2568]]]]}}