{"type":"Feature","properties":{"GID_2":"YEM.16.11_1","GID_0":"YEM","country":"Yemen","GID_1":"YEM.16_1","province":"Ma'rib","NL_NAME_1":"مأرب","county":"Medghal","VARNAME_2":"NA","NL_NAME_2":"مدغل","TYPE_2":"Muderiah","ENGTYPE_2":"District","CC_2":"2603","HASC_2":"NA","name":"Medghal.county"},
"geometry":{"type": "MultiPolygon","coordinates": [[[[44.7902,15.6248,1488.1996],[44.7944,15.6188,1509.194],[44.798,15.6056,1589.8438],[44.7985,15.5882,1747.7681],[44.8637,15.5716,1424.4624],[44.986,15.5755,1238.1472],[45.0369,15.5707,1245.1818],[45.2115,15.532,1319.0406],[45.2175,15.6646,1091.6816],[45.0997,15.681,1120.6499],[45.0978,15.6919,1120.0189],[45.0953,15.6967,1121.1548],[45.0514,15.6986,1126.4033],[44.9043,15.7449,1193.5186],[44.8949,15.6971,1256.4402],[44.8823,15.6636,1285.0387],[44.8407,15.643,1284.6936],[44.7902,15.6248,1488.1996]]]]}}