{"type":"Feature","properties":{"GID_2":"YEM.15.5_1","GID_0":"YEM","country":"Yemen","GID_1":"YEM.15_1","province":"Lahij","NL_NAME_1":"لحج","county":"AlMaqatirah","VARNAME_2":"NA","NL_NAME_2":"المقاطرة","TYPE_2":"Muderiah","ENGTYPE_2":"District","CC_2":"2512","HASC_2":"NA","name":"Al_Maqatirah.county"},
"geometry":{"type": "MultiPolygon","coordinates": [[[[44.2174,13.0455,705.9853],[44.2904,13.1615,754.2772],[44.2932,13.1758,656.0668],[44.2913,13.1822,705.061],[44.2873,13.1864,737.0705],[44.2873,13.1947,874.1898],[44.2925,13.2082,757.6348],[44.2788,13.2035,932.8896],[44.2754,13.2051,947.7585],[44.2732,13.2113,1005.7581],[44.2615,13.2152,1121.0433],[44.2307,13.2163,1116.7869],[44.2194,13.2141,1341.384],[44.205,13.2178,1226.1541],[44.1963,13.218,1418.3123],[44.1894,13.2205,1416.3568],[44.1838,13.2201,1454.1472],[44.1804,13.2232,1675.9686],[44.1802,13.227,1782.9554],[44.1838,13.2421,1548.8784],[44.1753,13.2461,1623.4454],[44.1711,13.2511,1517.9194],[44.1649,13.2422,2007.585],[44.1653,13.2376,2027.4622],[44.1676,13.2363,2080.74],[44.1774,13.2369,2132.7739],[44.1777,13.235,2181.7349],[44.1768,13.2338,2181.7349],[44.1731,13.235,2168.6685],[44.1649,13.231,2106.27],[44.1675,13.2261,2135.9041],[44.1656,13.2232,2126.2224],[44.1724,13.2099,2147.6094],[44.17,13.2054,2071.6245],[44.1662,13.2044,1954.826],[44.1621,13.2063,2056.8386],[44.1582,13.2046,2057.7097],[44.138,13.2029,1297.2913],[44.1324,13.201,1299.0969],[44.1296,13.1983,1369.8684],[44.1292,13.195,1565.623],[44.1318,13.1882,1494.2209],[44.1547,13.1599,1199.1675],[44.1554,13.1514,975.1766],[44.1025,13.1533,1485.3763],[44.0923,13.162,1314.3092],[44.0873,13.1583,1210.8363],[44.0848,13.1537,1230.009],[44.0818,13.1305,1230.2336],[44.0824,13.1157,919.8854],[44.0854,13.1044,934.643],[44.0823,13.0948,994.8926],[44.078,13.0906,900.3027],[44.0628,13.0892,825.8419],[44.0505,13.0901,833.6265],[44.0398,13.0955,939.056],[44.0252,13.107,1046.2505],[44.0095,13.1263,860.3829],[43.9997,13.1325,990.9246],[43.9877,13.0999,1167.2814],[43.9945,13.088,1031.1802],[43.993899999999996,13.0868,988.6041],[44.0278,13.0669,1204.7019],[44.0866,13.0234,557.5797],[44.1198,13.0364,627.3242],[44.1401,13.052,554.9315],[44.1723,13.0329,423.8607],[44.2119,13.0477,593.934],[44.2174,13.0455,705.9853]]]]}}