{"type":"Feature","properties":{"GID_2":"YEM.14.7_1","GID_0":"YEM","country":"Yemen","GID_1":"YEM.14_1","province":"Ibb","NL_NAME_1":"إب","county":"ArRadmah","VARNAME_2":"NA","NL_NAME_2":"الرضمة","TYPE_2":"Muderiah","ENGTYPE_2":"District","CC_2":"1103","HASC_2":"NA","name":"Ar_Radmah.county"},
"geometry":{"type": "MultiPolygon","coordinates": [[[[44.6539,14.1831,2207.4502],[44.6413,14.188,2229.6575],[44.6318,14.197,2277.5164],[44.6231,14.1969,2074.0061],[44.6182,14.2009,2052.6187],[44.6167,14.2064,2043.8752],[44.6185,14.2129,2067.1619],[44.6167,14.2253,2088.1372],[44.6149,14.2274,2081.3633],[44.6148,14.2386,2097.291],[44.6176,14.2466,2166.9053],[44.6175,14.2555,2306.9807],[44.6294,14.2675,2584.9846],[44.6343,14.2817,2414.8853],[44.6343,14.2884,2391.3608],[44.6329,14.2905,2374.0632],[44.6275,14.2927,2349.9055],[44.6202,14.2945,2388.8145],[44.5856,14.2936,2271.0488],[44.5679,14.2694,2214.6748],[44.5422,14.278,2437.8149],[44.5456,14.2793,2388.2156],[44.5483,14.2917,2239.0537],[44.5401,14.2961,2287.8787],[44.511,14.3005,2387.4312],[44.5032,14.2992,2413.8057],[44.4974,14.3005,2376.189],[44.4733,14.2946,2432.9578],[44.472,14.2756,2505.9978],[44.4695,14.268,2607.3428],[44.4553,14.268,2568.2981],[44.4552,14.2579,2520.2656],[44.447,14.2543,2550.8342],[44.4502,14.2374,2603.4478],[44.4493,14.2357,2606.1201],[44.4511,14.2347,2645.7229],[44.4693,14.2339,2700.2241],[44.4811,14.2357,2547.0747],[44.4875,14.2313,2510.1084],[44.493,14.2313,2479.6541],[44.493899999999996,14.2251,2503.2102],[44.4875,14.2153,2558.2793],[44.4875,14.2109,2582.0742],[44.4848,14.2073,2617.7351],[44.4785,14.2073,2666.6914],[44.4759,14.2036,2666.8982],[44.4776,14.1949,2763.9839],[44.484,14.1878,2732.4885],[44.4972,14.187,2585.6577],[44.4978,14.1729,2763.3726],[44.5013,14.1594,2847.1084],[44.5113,14.1479,2680.7073],[44.5195,14.1426,2596.5901],[44.5214,14.139099999999999,2640.8574],[44.5295,14.139099999999999,2577.6968],[44.5435,14.135,2505.3276],[44.594,14.1351,2155.9385],[44.5942,14.1373,2268.4165],[44.5975,14.1399,2279.3777],[44.6044,14.1383,2262.0759],[44.6098,14.1421,2356.9702],[44.6298,14.1339,2313.2009],[44.637,14.1235,2028.3322],[44.6494,14.1252,1995.7593],[44.6601,14.1374,1929.6931],[44.6725,14.1461,2121.2383],[44.6796,14.1617,2096.1492],[44.6815,14.1777,2041.8813],[44.6659,14.1774,2264.0713],[44.6539,14.1831,2207.4502]]]]}}