{"type":"Feature","properties":{"GID_2":"YEM.19.16_1","GID_0":"YEM","country":"Yemen","GID_1":"YEM.19_1","province":"San`a'","NL_NAME_1":"صنعاء","county":"Sanhan","VARNAME_2":"NA","NL_NAME_2":"سنحانوبنيبهلول","TYPE_2":"Muderiah","ENGTYPE_2":"District","CC_2":"2305","HASC_2":"NA","name":"Sanhan.county"},
"geometry":{"type": "MultiPolygon","coordinates": [[[[44.1793,15.3118,2316.6619],[44.17,15.3057,2352.7344],[44.1671,15.3055,2392.75],[44.1598,15.2975,2413.5361],[44.1598,15.2879,2620.4526],[44.1619,15.2885,2552.9541],[44.1806,15.2757,2591.3347],[44.2003,15.2791,2322.7173],[44.2088,15.2773,2315.9258],[44.1927,15.2588,2607.623],[44.1763,15.2453,2761.5034],[44.1702,15.2372,2761.4226],[44.1697,15.2278,2536.1421],[44.1711,15.2233,2511.9526],[44.1864,15.2221,2544.3955],[44.1917,15.2311,2381.2393],[44.1948,15.2326,2423.6877],[44.2009,15.2296,2356.7864],[44.2087,15.2095,2421.1855],[44.2279,15.1828,2401.936],[44.2295,15.1553,2379.3252],[44.228,15.1478,2407.8025],[44.2221,15.1452,2420.0498],[44.2253,15.1382,2395.5898],[44.2442,15.1271,2299.5034],[44.2488,15.1152,2379.0608],[44.2619,15.1137,2368.9761],[44.2695,15.119,2419.4009],[44.281,15.1227,2414.1104],[44.2902,15.1227,2477.0305],[44.2963,15.119,2452.4766],[44.3144,15.0894,2552.6343],[44.3406,15.0729,2568.7178],[44.3685,15.0703,2950.1477],[44.3866,15.1016,2713.1833],[44.3878,15.1708,2406.2007],[44.3932,15.2224,2426.1602],[44.4086,15.2401,2486.9146],[44.4141,15.2659,2583.6602],[44.421,15.289,2527.6885],[44.4154,15.2999,2525.4434],[44.4237,15.3121,2542.4407],[44.4363,15.3366,2610.6658],[44.4502,15.3543,2658.8916],[44.4516,15.3719,2626.1858],[44.4432,15.38,2623.832],[44.4334,15.3773,2608.499],[44.4096,15.3637,2681.9978],[44.3901,15.3636,2559.9521],[44.3835,15.3757,2519.1558],[44.3714,15.3719,2478.9453],[44.3425,15.3683,2588.9385],[44.3085,15.3589,2693.4033],[44.2951,15.3518,2588.6362],[44.2621,15.344,2433.7339],[44.2632,15.3263,2344.9382],[44.2429,15.3139,2303.7576],[44.2389,15.3147,2296.2822],[44.2329,15.3129,2287.1838],[44.2396,15.2951,2290.6523],[44.2352,15.2938,2286.116],[44.2221,15.2931,2284.1436],[44.2089,15.2948,2452.626],[44.1764,15.292,2350.7954],[44.1793,15.3118,2316.6619]]]]}}