{"type":"Feature","properties":{"GID_2":"YEM.3.15_1","GID_0":"YEM","country":"Yemen","GID_1":"YEM.3_1","province":"AlBayda'","NL_NAME_1":"البيضاء","county":"Na'man","VARNAME_2":"NA","NL_NAME_2":"نعمان","TYPE_2":"Muderiah","ENGTYPE_2":"District","CC_2":"1401","HASC_2":"NA","name":"Na'man.county"},
"geometry":{"type": "MultiPolygon","coordinates": [[[[45.4849,14.4765,1921.2094],[45.4876,14.4751,1911.0026],[45.4999,14.4819,1849.5435],[45.5166,14.5026,1778.2466],[45.5415,14.5401,1758.6541],[45.554,14.5791,1567.5635],[45.5751,14.6243,1365.3138],[45.5949,14.6379,1801.384],[45.6089,14.6537,1839.167],[45.6182,14.6786,1555.6825],[45.6218,14.6933,1472.1099],[45.6171,14.6967,1241.1471],[45.6102,14.6967,1260.0388],[45.602,14.7001,1410.0587],[45.6066,14.709,1722.3831],[45.5544,14.7127,1626.7599],[45.5246,14.7128,1765.0563],[45.5146,14.6679,1773.0673],[45.4959,14.6439,1837.8922],[45.4901,14.6207,1852.0767],[45.4867,14.5974,1806.8997],[45.4358,14.5991,1963.5742],[45.4355,14.5906,1926.8903],[45.4449,14.4972,1964.2288],[45.4849,14.4765,1921.2094]]],
[[[45.4702,14.6554,1872.282],[45.4744,14.6844,1872.1298],[45.462,14.6863,1858.6132],[45.455,14.6568,1905.9773],[45.4702,14.6554,1872.282]]]]}}