{"type":"Feature","properties":{"GID_2":"YEM.21.17_1","GID_0":"YEM","country":"Yemen","GID_1":"YEM.21_1","province":"Ta`izz","NL_NAME_1":"تعز","county":"Mawiyah","VARNAME_2":"NA","NL_NAME_2":"ماوية","TYPE_2":"Muderiah","ENGTYPE_2":"District","CC_2":"1501","HASC_2":"NA","name":"Mawiyah.county"},
"geometry":{"type": "MultiPolygon","coordinates": [[[[44.5128,13.6153,896.0475],[44.44,13.6467,1324.7738],[44.435,13.6451,1201.6719],[44.4318,13.64,1247.1517],[44.4311,13.6208,1088.5847],[44.3907,13.6316,1184.421],[44.3781,13.6376,1233.7151],[44.3742,13.6438,1189.7708],[44.3719,13.6513,1301.3606],[44.3721,13.6625,1598.0872],[44.3767,13.6713,1723.0026],[44.3963,13.6892,1372.2029],[44.3999,13.6961,1408.2961],[44.3948,13.7041,1405.8789],[44.4002,13.7155,1489.9255],[44.4055,13.7159,1419.6014],[44.4085,13.7201,1463.6971],[44.4072,13.7246,1424.0389],[44.4046,13.7266,1425.8755],[44.4017,13.7391,1502.604],[44.3925,13.7431,1573.667],[44.3913,13.7451,1654.6846],[44.3889,13.7614,1574.339],[44.3794,13.771,1608.1289],[44.3727,13.773,1587.0081],[44.3699,13.7696,1599.8485],[44.3694,13.7584,1694.1436],[44.3665,13.7502,1900.0184],[44.3594,13.7381,2001.3995],[44.34,13.7177,1951.2832],[44.3243,13.7064,2183.1069],[44.2991,13.7053,1612.2704],[44.2761,13.7085,1458.5878],[44.2671,13.7132,1464.8347],[44.2623,13.7269,1576.6113],[44.2636,13.7334,1470.3856],[44.2548,13.7385,1464.2782],[44.244,13.7411,1457.1692],[44.2258,13.7358,1455.0273],[44.2111,13.7219,1448.3999],[44.2029,13.718,1440.1665],[44.1978,13.7176,1440.4867],[44.1919,13.7197,1440.9546],[44.1709,13.69,1452.4971],[44.1715,13.678,1433.9042],[44.1756,13.6644,1399.3627],[44.1704,13.6592,1409.7698],[44.1763,13.6507,1392.6978],[44.1879,13.6507,1372.2252],[44.1953,13.6449,1395.2556],[44.1991,13.6286,1372.1938],[44.1981,13.6218,1381.1119],[44.1926,13.6127,1363.0721],[44.1544,13.6071,1403.4795],[44.1419,13.6103,1396.1625],[44.1382,13.6147,1393.8405],[44.1324,13.61,1422.4392],[44.1268,13.5918,1553.4761],[44.1222,13.5872,1533.0763],[44.1455,13.5741,1443.9023],[44.1517,13.5689,1409.439],[44.1563,13.5625,1288.0459],[44.1572,13.557,1247.3108],[44.2196,13.5469,1177.2971],[44.2263,13.5391,1078.8411],[44.2333,13.5365,1066.9019],[44.2395,13.5442,1074.5042],[44.2409,13.5518,1123.6204],[44.249,13.5628,1186.0188],[44.2689,13.5613,1087.4001],[44.2728,13.5529,1083.7178],[44.2839,13.5426,1109.0997],[44.2859,13.5365,1094.7405],[44.2854,13.528,1104.6038],[44.2816,13.5205,1139.6127],[44.2696,13.5129,1021.3832],[44.2654,13.5072,1010.5089],[44.2648,13.5016,1006.9433],[44.2624,13.4988,1030.3771],[44.2644,13.4959,1085.5076],[44.2711,13.5007,992.1801],[44.2783,13.4983,1015.2317],[44.2817,13.495,999.1937],[44.2862,13.4798,1004.5507],[44.3241,13.4608,963.3822],[44.3306,13.4605,953.7608],[44.3311,13.4691,955.9111],[44.3376,13.4798,1079.5394],[44.345,13.4823,1032.7329],[44.3549,13.4823,1070.3047],[44.374,13.4796,960.8987],[44.3819,13.4941,1004.4886],[44.387,13.496,1175.1332],[44.4009,13.497,1095.5803],[44.4134,13.4952,964.1946],[44.4214,13.4989,939.3542],[44.4235,13.5006,922.3599],[44.4252,13.5062,924.6281],[44.4231,13.5203,946.3403],[44.4273,13.5265,952.4357],[44.4512,13.526,1005.3448],[44.4659,13.5295,950.8732],[44.4795,13.5466,1261.7435],[44.5113,13.5806,964.6174],[44.5146,13.5878,916.9435],[44.5161,13.6019,1049.4253],[44.5128,13.6153,896.0475]]]]}}