{"type":"Feature","properties":{"GID_2":"YEM.18.1_1","GID_0":"YEM","country":"Yemen","GID_1":"YEM.18_1","province":"Sa`dah","NL_NAME_1":"صعدة","county":"AlDhaher","VARNAME_2":"NA","NL_NAME_2":"الظاهر","TYPE_2":"Muderiah","ENGTYPE_2":"District","CC_2":"2207","HASC_2":"NA","name":"Al_Dhaher.county"},
"geometry":{"type": "MultiPolygon","coordinates": [[[[43.2262,16.6429,245.245],[43.2237,16.6476,242.5496],[43.2235,16.6476,242.5496],[43.2252,16.6446,266.1656],[43.2262,16.6429,245.245]]],
[[[43.228,16.6419,231.6396],[43.2305,16.6422,275.0075],[43.2464,16.6347,269.8176],[43.2498,16.6355,324.3145],[43.2625,16.6302,445.5381],[43.2697,16.6318,490.5773],[43.2917,16.6161,698.9072],[43.3046,16.609,382.3073],[43.3125,16.6107,471.6378],[43.3234,16.6103,705.9236],[43.323,16.6831,695.097],[43.321,16.6896,515.103],[43.3123,16.7009,474.3255],[43.313,16.7079,628.11],[43.3068,16.7237,711.7999],[43.3043,16.7398,641.8368],[43.3074,16.7491,470.6316],[43.3176,16.7661,625.1127],[43.3358,16.7909,865.2442],[43.3403,16.8256,699.3498],[43.3393,16.8494,939.5382],[43.2953,16.8537,906.1628],[43.2897,16.8498,921.8469],[43.2907,16.8359,730.446],[43.2939,16.8306,551.2812],[43.2932,16.8221,542.146],[43.274,16.8181,471.5732],[43.2613,16.8172,425.459],[43.2372,16.8232,323.2315],[43.2316,16.8393,389.7011],[43.2269,16.8465,462.5175],[43.2185,16.8456,474.72],[43.2148,16.8519,562.4746],[43.211,16.8539,505.7072],[43.1997,16.8528,361.4243],[43.2023,16.8497,337.3531],[43.2213,16.8382,518.307],[43.2246,16.8233,283.2598],[43.2326,16.8069,296.8489],[43.2524,16.8047,306.6881],[43.2616,16.8009,348.6812],[43.2666,16.7949,484.5725],[43.2625,16.787,449.2489],[43.2574,16.7863,439.71],[43.2518,16.7793,326.4944],[43.2594,16.7735,349.7413],[43.2531,16.7697,339.3589],[43.2588,16.7553,334.5087],[43.268,16.7534,362.5476],[43.2755,16.7469,367.0057],[43.2674,16.7443,340.4305],[43.2556,16.7374,371.4037],[43.2514,16.7426,326.435],[43.2479,16.7438,327.082],[43.2397,16.7414,289.9114],[43.2321,16.7427,330.3501],[43.2263,16.7459,355.0444],[43.224,16.7372,336.9133],[43.2305,16.7305,286.2917],[43.2117,16.7097,235.6593],[43.2103,16.7007,250.4118],[43.2192,16.7001,263.0068],[43.2276,16.7019,270.6261],[43.2296,16.6929,264.6726],[43.2332,16.6851,282.8283],[43.2338,16.6761,353.9376],[43.2269,16.6696,280.1517],[43.2364,16.667,386.1867],[43.2347,16.6595,370.3824],[43.2347,16.6428,262.6144],[43.228,16.6419,231.6396]]]]}}