{"type":"Feature","properties":{"GID_2":"YEM.1.5_1","GID_0":"YEM","country":"Yemen","GID_1":"YEM.1_1","province":"`Adan","NL_NAME_1":"عدن","county":"Attawahi","VARNAME_2":"NA","NL_NAME_2":"التواهي","TYPE_2":"Muderiah","ENGTYPE_2":"District","CC_2":"2405","HASC_2":"NA","name":"Attawahi.county"},
"geometry":{"type": "MultiPolygon","coordinates": [[[[44.9929,12.7934,3.2511],[44.9888,12.794,0.6139],[44.9855,12.7915,6.3317],[44.9738,12.7896,0.0],[44.9721,12.7871,0.0],[44.9735,12.7813,6.1307],[44.9707,12.7804,1.1881],[44.9699,12.7776,2.2378],[44.9738,12.776,3.9296],[44.979,12.7774,2.9011],[44.9796,12.7746,5.9088],[44.9829,12.7732,0.0],[44.9855,12.7749,3.2548],[44.9877,12.774,17.9536],[44.9863,12.7696,3.4546],[44.989,12.7688,4.0196],[44.989,12.7668,0.0],[44.9854,12.7637,3.1605],[44.9882,12.7626,2.3964],[44.9904,12.7654,0.0],[44.9941,12.7663,2.4225],[44.9965,12.7624,4.9582],[44.9993,12.7621,22.0772],[44.9996,12.7563,0.0],[45.0041,12.7585,0.0],[45.0088,12.7543,0.0],[45.0143,12.7532,0.0],[45.016,12.7549,14.2139],[45.0198,12.7542,0.0],[45.0198,12.7722,170.5801],[45.0062,12.7755,230.0213],[44.9938,12.7813,147.9321],[44.9929,12.7934,3.2511]]]]}}