{"type":"Feature","properties":{"GID_2":"YEM.10.6_1","GID_0":"YEM","country":"Yemen","GID_1":"YEM.10_1","province":"Amran","NL_NAME_1":"عمران","county":"AsSudah","VARNAME_2":"NA","NL_NAME_2":"السوده","TYPE_2":"Muderiah","ENGTYPE_2":"District","CC_2":"2913","HASC_2":"NA","name":"As_Sudah.county"},
"geometry":{"type": "MultiPolygon","coordinates": [[[[43.7916,15.8827,1217.8878],[43.8322,15.9272,1607.6293],[43.8321,15.9381,1596.4648],[43.8402,15.9429,1583.6295],[43.8474,15.9508,1579.9485],[43.8401,15.9538,1368.0818],[43.8109,16.004,1395.8899],[43.8071,15.9999,1219.5699],[43.8008,15.9996,1188.0371],[43.7996,16.0053,1248.6141],[43.7932,16.0139,1250.6309],[43.7917,16.0262,1142.1062],[43.7879,16.0302,1160.5076],[43.786,16.0398,1176.8278],[43.7824,16.0477,1173.1809],[43.7755,16.0545,1090.7117],[43.7661,16.0561,1180.1193],[43.7586,16.054,1014.7452],[43.7532,16.0455,1055.5945],[43.75,16.0343,1019.8926],[43.7512,16.0266,1079.4016],[43.7506,16.0102,1293.3433],[43.7476,15.9968,1250.4833],[43.7428,15.9842,1113.6056],[43.7318,15.9764,1182.949],[43.7217,15.9718,1178.1201],[43.7198,15.9675,1101.7227],[43.7185,15.9563,1293.9613],[43.7218,15.9484,1391.0376],[43.7214,15.9439,1269.2067],[43.7134,15.9427,1157.2748],[43.7084,15.9382,1125.2979],[43.709,15.9335,1193.9265],[43.704,15.907,960.9546],[43.7068,15.9015,961.2787],[43.7117,15.8787,1196.5555],[43.7156,15.8813,1051.8428],[43.7217,15.8816,1044.1127],[43.7386,15.8765,1140.1274],[43.7402,15.8781,1140.8616],[43.7402,15.8828,1103.6624],[43.7512,15.8835,1072.8556],[43.7535,15.8769,1107.7903],[43.7617,15.8776,1100.3428],[43.7657,15.884,1112.2174],[43.7716,15.8849,1132.9022],[43.7752,15.8831,1130.1377],[43.7791,15.8767,1203.2261],[43.7855,15.8768,1444.8279],[43.7916,15.8827,1217.8878]]]]}}