{"type":"Feature","properties":{"GID_2":"YEM.12.7_1","GID_0":"YEM","country":"Yemen","GID_1":"YEM.12_1","province":"Hadramawt","NL_NAME_1":"حضرموت","county":"AlQatn","VARNAME_2":"NA","NL_NAME_2":"القطن","TYPE_2":"Muderiah","ENGTYPE_2":"District","CC_2":"1907","HASC_2":"NA","name":"Al_Qatn.county"},
"geometry":{"type": "MultiPolygon","coordinates": [[[[48.1516,15.8251,689.9653],[48.2285,15.8146,697.7382],[48.2865,15.7812,702.3473],[48.2983,15.7775,703.1252],[48.2995,15.7674,706.9307],[48.3029,15.7623,708.4813],[48.3149,15.7622,1013.6013],[48.3226,15.7523,710.3798],[48.3388,15.7143,1010.9058],[48.3632,15.6724,1006.3758],[48.3813,15.6552,1010.1605],[48.4041,15.638,1005.2966],[48.4469,15.6202,981.3075],[48.5226,15.6124,1010.4226],[48.5446,15.6921,985.8911],[48.5651,15.8493,954.0433],[48.5894,15.8664,968.7117],[48.5949,15.8837,989.03],[48.5933,15.8971,728.6317],[48.5853,15.923,672.2651],[48.5763,15.9407,903.0045],[48.5779,16.0154,981.2681],[48.5731,16.1323,1053.1438],[48.5692,16.1772,1073.3257],[48.4469,16.2116,1081.4756],[48.3442,16.2341,890.2916],[48.2285,16.2216,1116.0664],[48.0526,16.1592,1136.4644],[47.8897,16.0574,1205.593],[47.838,15.9967,1220.4694],[47.8344,15.9826,1212.6387],[47.8617,15.9798,1165.8406],[47.9692,15.9783,1158.7194],[47.979,15.9734,1154.4293],[48.1156,15.8831,1059.1667],[48.1439,15.8501,699.0936],[48.1516,15.8251,689.9653]]]]}}