{"type":"Feature","properties":{"GID_2":"YEM.5.13_1","GID_0":"YEM","country":"Yemen","GID_1":"YEM.5_1","province":"AlHudaydah","NL_NAME_1":"الحديده","county":"AlQanawis","VARNAME_2":"NA","NL_NAME_2":"القناوص","TYPE_2":"Muderiah","ENGTYPE_2":"District","CC_2":"1806","HASC_2":"NA","name":"Al_Qanawis.county"},
"geometry":{"type": "MultiPolygon","coordinates": [[[[42.9272,15.2905,32.6778],[42.9242,15.2814,31.2746],[42.9453,15.2813,37.7184],[42.965,15.2854,42.2076],[42.9743,15.2911,45.645],[42.9744,15.296,46.9128],[42.9722,15.3023,46.1097],[42.9646,15.3133,43.6454],[42.9521,15.3212,41.002],[42.9482,15.3263,40.1632],[42.9356,15.3124,36.4746],[42.9272,15.2905,32.6778]]],
[[[43.0984,15.3392,78.2115],[43.0945,15.3569,76.8879],[43.0715,15.3662,65.0868],[43.0651,15.3652,63.4619],[43.063,15.3579,66.4281],[43.0679,15.3491,68.8256],[43.0793,15.3377,72.7554],[43.0868,15.3342,75.2613],[43.0984,15.3392,78.2115]]],
[[[42.9916,15.3601,46.4976],[42.9933,15.3578,45.344],[42.9972,15.3583,46.356],[43.0025,15.3641,48.8168],[43.0076,15.3662,50.0353],[43.0122,15.3768,52.2248],[43.0143,15.3924,56.2402],[43.0223,15.4172,55.4101],[43.0287,15.422,58.4937],[43.0303,15.4292,52.4445],[43.0291,15.437,50.5663],[43.0237,15.4391,55.051],[43.0107,15.4389,55.0844],[43.0072,15.4379,50.2279],[43.0024,15.4316,51.8962],[43.0034,15.4265,51.699],[42.9909,15.3998,48.0235],[42.9841,15.3899,51.4907],[42.9806,15.374,45.5953],[42.9916,15.3601,46.4976]]],
[[[43.0241,15.3756,55.295],[43.0219,15.3683,56.9581],[43.0293,15.3622,58.8797],[43.0351,15.3649,56.535],[43.0466,15.385,62.6561],[43.0513,15.388,62.8558],[43.0541,15.3967,64.5235],[43.0588,15.401,67.3516],[43.0735,15.4064,68.3773],[43.0746,15.4113,65.3938],[43.0686,15.4227,64.5962],[43.0751,15.4421,65.4068],[43.081,15.4427,64.9203],[43.0864,15.4401,71.9049],[43.1051,15.4455,75.8241],[43.1132,15.4383,78.4491],[43.1159,15.43,78.9486],[43.1117,15.4258,78.5901],[43.1047,15.4237,76.9331],[43.101,15.4174,70.6637],[43.0974,15.4023,75.3129],[43.089,15.3825,72.4907],[43.0891,15.3806,72.69],[43.0928,15.3794,73.0476],[43.096,15.382,74.0916],[43.1263,15.3789,82.3435],[43.1293,15.3803,83.9947],[43.1347,15.3861,85.071],[43.1329,15.4005,84.4898],[43.137,15.4115,87.0339],[43.147,15.4214,89.1998],[43.1615,15.4273,94.5599],[43.1866,15.4306,113.1861],[43.2016,15.4343,131.453],[43.2203,15.436,155.5181],[43.2342,15.4346,171.1062],[43.242,15.4301,168.524],[43.2437,15.4387,306.1893],[43.251,15.451599999999999,211.1356],[43.2504,15.4608,230.4296],[43.2435,15.4628,212.5578],[43.241,15.4658,226.2578],[43.241,15.508,195.0892],[43.2233,15.5133,147.7805],[43.2236,15.539,189.4986],[43.2266,15.5582,337.1964],[43.1653,15.5601,112.3585],[43.1124,15.5552,87.7531],[43.0802,15.5429,78.073],[43.0663,15.5337,74.4571],[43.0308,15.5296,62.985],[43.0284,15.5128,63.5928],[43.0223,15.4991,60.0006],[43.0173,15.4812,56.9134],[43.017,15.4717,60.7799],[43.0192,15.4624,56.4486],[43.0211,15.4616,52.4294],[43.0256,15.4683,58.3234],[43.0288,15.4671,59.3377],[43.0278,15.4614,52.4965],[43.0295,15.4537,59.3074],[43.042,15.4299,61.4408],[43.0421,15.4216,57.9374],[43.0377,15.4098,60.9182],[43.0324,15.4102,62.435],[43.028,15.4077,58.2135],[43.0259,15.4014,57.726],[43.0266,15.384,57.1564],[43.0241,15.3756,55.295]]]]}}