{"type":"Feature","properties":{"GID_2":"YEM.19.11_1","GID_0":"YEM","country":"Yemen","GID_1":"YEM.19_1","province":"San`a'","NL_NAME_1":"صنعاء","county":"Jihanah","VARNAME_2":"NA","NL_NAME_2":"جحانة","TYPE_2":"Muderiah","ENGTYPE_2":"District","CC_2":"2316","HASC_2":"NA","name":"Jihanah.county"},
"geometry":{"type": "MultiPolygon","coordinates": [[[[44.6273,15.0592,2113.3364],[44.6175,15.0838,2083.9333],[44.6142,15.1122,2123.761],[44.5963,15.1422,2057.1304],[44.5778,15.1586,2110.9485],[44.6548,15.1737,2097.1929],[44.6352,15.1897,2226.9358],[44.618899999999996,15.1991,2205.0134],[44.5945,15.207,2129.5576],[44.5732,15.2272,2309.8806],[44.57,15.2401,2190.5601],[44.5733,15.2512,2208.9622],[44.5814,15.2512,2254.8159],[44.5976,15.267,2205.3315],[44.5976,15.2797,2367.3406],[44.5902,15.2856,2380.0242],[44.5913,15.2963,2332.5471],[44.5848,15.2965,2365.2983],[44.5562,15.3068,2623.8159],[44.5148,15.311,2547.8384],[44.431399999999996,15.327,2597.3113],[44.4154,15.2999,2525.4434],[44.421,15.289,2527.6885],[44.4141,15.2659,2583.6602],[44.4086,15.2401,2486.9146],[44.3932,15.2224,2426.1602],[44.3878,15.1708,2406.2007],[44.3866,15.1016,2713.1833],[44.3842,15.0975,2667.8896],[44.4174,15.0976,2405.2065],[44.4366,15.1064,2294.4148],[44.4483,15.104,2349.2512],[44.469,15.073,2277.1104],[44.5428,15.0852,2192.7549],[44.611,15.0569,2107.6724],[44.6273,15.0592,2113.3364]]]]}}