{"type":"Feature","properties":{"GID_2":"YEM.12.19_1","GID_0":"YEM","country":"Yemen","GID_1":"YEM.12_1","province":"Hadramawt","NL_NAME_1":"حضرموت","county":"Huraidhah","VARNAME_2":"NA","NL_NAME_2":"حريضه","TYPE_2":"Muderiah","ENGTYPE_2":"District","CC_2":"1928","HASC_2":"NA","name":"Huraidhah.county"},
"geometry":{"type": "MultiPolygon","coordinates": [[[[48.1411,15.3991,1233.6967],[48.2068,15.3981,1174.8751],[48.2866,15.4092,1104.0453],[48.3812,15.4274,1062.3301],[48.38,15.4726,1018.4042],[48.3688,15.5029,896.6953],[48.3524,15.5315,1041.304],[48.3323,15.5789,861.8923],[48.3158,15.5946,755.6541],[48.2944,15.5947,980.0406],[48.2638,15.6006,889.9231],[48.2558,15.6223,1057.0939],[48.2561,15.6439,1039.9751],[48.2426,15.6711,724.5944],[48.2082,15.6967,1050.4644],[48.1803,15.6932,1061.6505],[48.1421,15.6743,1029.9736],[48.1342,15.6783,772.5461],[48.1099,15.6686,742.0056],[48.0779,15.6519,1123.1155],[48.0415,15.6443,1143.3762],[48.0146,15.6187,1154.8368],[47.9438,15.5797,1186.2673],[47.9256,15.548,932.8975],[47.9417,15.5258,1194.9904],[47.9792,15.4875,1148.9021],[47.9925,15.4823,1174.2253],[48.013,15.477,1165.199],[48.0208,15.4716,1153.9323],[48.0435,15.4672,1139.0769],[48.0607,15.4725,817.261],[48.0722,15.4792,1159.8447],[48.0906,15.4707,1180.0242],[48.1285,15.43,1202.9606],[48.1429,15.404,1209.3059],[48.1411,15.3991,1233.6967]]]]}}