{"type":"Feature","properties":{"GID_2":"YEM.5.19_1","GID_0":"YEM","country":"Yemen","GID_1":"YEM.5_1","province":"AlHudaydah","NL_NAME_1":"الحديده","county":"AzZuhrah","VARNAME_2":"NA","NL_NAME_2":"الزهرة","TYPE_2":"Muderiah","ENGTYPE_2":"District","CC_2":"1801","HASC_2":"NA","name":"Az_Zuhrah.county"},
"geometry":{"type": "MultiPolygon","coordinates": [[[[43.2266,15.5582,337.1964],[43.2279,15.5703,319.4662],[43.2245,15.5902,241.9814],[43.2225,15.6204,183.7704],[43.2386,15.6812,186.4907],[43.2365,15.6862,185.156],[43.2245,15.6986,173.174],[43.2148,15.712,171.6916],[43.2139,15.7248,166.6545],[43.2238,15.7433,174.8739],[43.2355,15.7579,182.8202],[43.2397,15.7666,222.4087],[43.245,15.8193,213.7286],[43.2431,15.8692,217.8885],[43.2391,15.874,239.5746],[43.2208,15.8763,190.6943],[43.1301,15.8558,125.4472],[43.0402,15.8225,81.8566],[43.012,15.8178,68.3768],[42.9664,15.814,51.4012],[42.9458,15.8057,42.7768],[42.9278,15.8147,38.7521],[42.902,15.8172,29.9007],[42.8947,15.8198,27.4561],[42.8823,15.8192,24.4422],[42.891,15.7807,28.1968],[42.9116,15.7496,40.4751],[42.911,15.7395,41.985],[42.9176,15.7285,46.0091],[42.9324,15.7165,50.2357],[42.9393,15.6975,52.2506],[42.9581,15.6887,60.4444],[42.9752,15.6972,62.7702],[42.9883,15.6903,70.7255],[42.9957,15.6763,77.3074],[43.0078,15.6648,75.0093],[43.0172,15.6628,77.9238],[43.06,15.6461,90.578],[43.0815,15.6306,96.481],[43.0898,15.6302,97.4784],[43.1137,15.6334,104.995],[43.1288,15.6325,114.3912],[43.1445,15.6236,124.7193],[43.1519,15.6121,127.3102],[43.1653,15.5601,112.3585],[43.2266,15.5582,337.1964]]]]}}