{"type":"Feature","properties":{"GID_2":"YEM.13.18_1","GID_0":"YEM","country":"Yemen","GID_1":"YEM.13_1","province":"Hajjah","NL_NAME_1":"حجه","county":"KhayranAlMuharraq","VARNAME_2":"NA","NL_NAME_2":"خيرانالمحرق","TYPE_2":"Muderiah","ENGTYPE_2":"District","CC_2":"1711","HASC_2":"NA","name":"Khayran_Al_Muharraq.county"},
"geometry":{"type": "MultiPolygon","coordinates": [[[[43.3874,16.0079,519.1372],[43.3814,16.011,484.8143],[43.3764,16.0209,461.54],[43.3783,16.0219,467.4541],[43.3842,16.0162,493.1334],[43.3864,16.0185,516.4552],[43.3854,16.0277,583.3639],[43.3917,16.053,744.7405],[43.3918,16.0591,761.9959],[43.3985,16.0718,992.3375],[43.4007,16.086,1047.4569],[43.4005,16.1072,926.1867],[43.3968,16.1247,819.1372],[43.3776,16.1439,532.9592],[43.3755,16.1479,518.0267],[43.3776,16.15,516.8251],[43.3775,16.1545,511.9139],[43.3749,16.16,490.1901],[43.3754,16.1646,477.4068],[43.378,16.1676,477.2362],[43.3763,16.1752,466.4343],[43.3721,16.1807,451.3399],[43.3717,16.1882,449.5256],[43.3587,16.1934,434.5194],[43.3568,16.1963,414.723],[43.3569,16.2023,422.6993],[43.3547,16.2044,414.2715],[43.3522,16.1965,410.0759],[43.3471,16.1961,432.0331],[43.3388,16.2013,401.0285],[43.3368,16.2054,387.0877],[43.3326,16.2068,394.6235],[43.3262,16.2016,382.09],[43.3152,16.1975,350.6053],[43.3095,16.1916,348.5793],[43.2822,16.1748,362.1479],[43.2936,16.1428,405.201],[43.3268,16.1141,466.0849],[43.3354,16.1096,552.5565],[43.3398,16.1051,596.1079],[43.3417,16.0966,730.4721],[43.3459,16.0884,529.0957],[43.3524,16.085,501.2595],[43.3644,16.0837,615.4794],[43.3674,16.082,675.3737],[43.3633,16.0743,521.401],[43.3525,16.0631,502.9849],[43.3458,16.0474,433.3644],[43.3498,16.0285,394.8105],[43.3673,16.0055,429.6215],[43.3665,16.0004,432.4488],[43.3657,15.9975,430.3394],[43.3486,15.9882,395.91],[43.3411,15.9636,356.1379],[43.3441,15.9592,373.0923],[43.3573,15.9512,403.0402],[43.3603,15.9467,437.683],[43.3641,15.9463,499.4183],[43.3651,15.9492,552.5735],[43.3718,15.9496,611.9902],[43.3776,15.9547,774.7832],[43.3791,15.9615,565.7031],[43.3779,15.9814,499.6978],[43.3816,15.9883,512.8104],[43.3791,15.9938,490.5486],[43.3794,15.9973,466.1441],[43.3874,16.0079,519.1372]]]]}}