{"type":"Feature","properties":{"GID_2":"YEM.21.1_1","GID_0":"YEM","country":"Yemen","GID_1":"YEM.21_1","province":"Ta`izz","NL_NAME_1":"تعز","county":"AlMukha","VARNAME_2":"NA","NL_NAME_2":"المخاء","TYPE_2":"Muderiah","ENGTYPE_2":"District","CC_2":"1506","HASC_2":"NA","name":"Al_Mukha.county"},
"geometry":{"type": "MultiPolygon","coordinates": [[[[43.2874,13.6788,0.0],[43.2874,13.6687,0.4641],[43.2835,13.6532,0.0],[43.2818,13.629,0.393],[43.2837,13.6182,1.0297],[43.2918,13.6085,0.0],[43.2926,13.5985,0.6213],[43.2899,13.5932,1.5442],[43.2854,13.5896,1.4015],[43.2779,13.5899,0.383],[43.2779,13.5849,0.0],[43.2821,13.5813,1.3287],[43.2818,13.5763,3.0552],[43.2757,13.5654,1.4586],[43.2735,13.5643,0.0],[43.2738,13.5604,1.6345],[43.2713,13.5565,1.5686],[43.2732,13.551,0.0],[43.2687,13.5451,0.6685],[43.2651,13.5351,0.4958],[43.2668,13.526,0.0],[43.2635,13.5215,1.8931],[43.261,13.5221,0.0],[43.2615,13.5187,0.4631],[43.2599,13.5149,0.1596],[43.2621,13.5149,0.3913],[43.2632,13.5126,0.8853],[43.2601,13.5124,0.1403],[43.2579,13.5079,0.3407],[43.2568,13.4774,0.0],[43.2549,13.4663,0.3658],[43.2557,13.4462,0.1256],[43.2543,13.4449,0.0],[43.2582,13.4415,0.0],[43.2588,13.4362,0.0],[43.2571,13.434,0.106],[43.2565,13.4274,0.3758],[43.2499,13.4226,0.6166],[43.2499,13.3946,0.6816],[43.2518,13.3888,0.7424],[43.2501,13.3768,0.0],[43.2529,13.366,0.6438],[43.2501,13.3613,1.8379],[43.2496,13.3396,1.8111],[43.2471,13.3332,1.2584],[43.2438,13.3304,1.1784],[43.2354,13.3299,0.0],[43.2399,13.3271,0.5554],[43.2421,13.3235,0.7676],[43.2426,13.3171,4.4298],[43.2407,13.3162,0.7593],[43.239,13.3121,0.0],[43.2332,13.3112,0.6792],[43.231,13.3135,0.0],[43.2296,13.3118,0.3113],[43.2271,13.316,0.0],[43.2279,13.3124,0.2995],[43.2326,13.3088,2.3918],[43.231,13.3065,0.0],[43.2315,13.2949,0.0],[43.2337,13.3062,0.4193],[43.2354,13.3079,1.2824],[43.2385,13.3079,0.3361],[43.241,13.2918,0.8632],[43.2454,13.2849,0.5026],[43.2457,13.2704,0.3359],[43.2438,13.2612,0.5184],[43.241,13.2621,0.0],[43.2407,13.2649,0.0],[43.2379,13.2671,0.228],[43.2374,13.2715,0.1621],[43.2293,13.2821,0.5963],[43.2287,13.2868,0.0],[43.2326,13.2929,0.0],[43.2287,13.291,0.1551],[43.2268,13.2849,0.3412],[43.2304,13.2754,0.0],[43.2363,13.2701,0.3355],[43.236,13.2676,0.0],[43.2401,13.2618,0.0],[43.239,13.2601,0.0],[43.2418,13.259,0.0],[43.2435,13.2553,0.2351],[43.3274,13.2616,39.6625],[43.3857,13.2566,81.3409],[43.4693,13.2557,156.2408],[43.4785,13.2667,170.7655],[43.4736,13.2695,166.8874],[43.4753,13.2755,172.917],[43.4809,13.2828,178.0494],[43.485,13.2843,181.0101],[43.4907,13.2931,184.3026],[43.4977,13.299,194.5621],[43.5058,13.301,202.1734],[43.5332,13.3012,230.4171],[43.6127,13.3407,323.9915],[43.6194,13.3493,339.1794],[43.6202,13.3591,365.3688],[43.612,13.3794,366.3843],[43.6067,13.4044,330.7667],[43.5898,13.4201,306.0485],[43.5476,13.4206,259.3868],[43.506,13.4274,208.7778],[43.4588,13.4528,143.168],[43.4542,13.4616,138.4097],[43.4613,13.4847,140.8474],[43.4694,13.4962,138.3794],[43.4738,13.5104,138.4001],[43.4673,13.5325,124.842],[43.4645,13.5564,115.0578],[43.4717,13.5608,122.4869],[43.5197,13.5452,186.7202],[43.5322,13.5549,204.8183],[43.5367,13.5549,210.4524],[43.5828,13.5864,366.0763],[43.5894,13.6248,480.0088],[43.5852,13.6652,455.5003],[43.5797,13.6739,438.298],[43.5657,13.6848,364.6231],[43.5086,13.713,196.4394],[43.5086,13.7235,218.1026],[43.5037,13.7238,192.4757],[43.5032,13.7866,289.839],[43.4776,13.7951,190.4337],[43.4767,13.7934,182.2576],[43.4367,13.797,100.2806],[43.4173,13.7677,73.1616],[43.423,13.7402,81.6056],[43.4058,13.717,66.2584],[43.3385,13.6974,26.7323],[43.2874,13.6788,0.0]]]]}}