{"type":"Feature","properties":{"GID_2":"YEM.17.4_1","GID_0":"YEM","country":"Yemen","GID_1":"YEM.17_1","province":"Raymah","NL_NAME_1":"ريمة","county":"BiladAtTa'am","VARNAME_2":"NA","NL_NAME_2":"بلادالطعام","TYPE_2":"Muderiah","ENGTYPE_2":"District","CC_2":"3101","HASC_2":"NA","name":"Bilad_At_Ta'am.county"},
"geometry":{"type": "MultiPolygon","coordinates": [[[[43.57,14.949,496.4912],[43.5713,14.9321,541.2296],[43.5679,14.9135,579.2633],[43.5646,14.9064,600.0964],[43.5517,14.9003,637.9524],[43.5379,14.8876,706.4249],[43.5153,14.8855,1068.6433],[43.5039,14.8809,1212.7175],[43.4874,14.8438,532.9173],[43.4799,14.8334,638.1653],[43.4708,14.8259,441.0358],[43.4684,14.8159,339.244],[43.4739,14.8089,341.1047],[43.489,14.762,348.0858],[43.5075,14.7274,374.4528],[43.5285,14.73,435.2256],[43.5312,14.7289,504.9167],[43.5526,14.7344,555.95],[43.5535,14.7432,726.3518],[43.5624,14.7509,848.8833],[43.5758,14.7521,1084.4224],[43.5848,14.7554,1496.2437],[43.6016,14.7555,1328.3392],[43.6127,14.7621,1102.8167],[43.6194,14.772,930.4998],[43.6193,14.779,857.9362],[43.6214,14.7791,862.941],[43.6298,14.7872,1087.1208],[43.6404,14.786,1307.5918],[43.6758,14.7587,1532.0741],[43.6865,14.7605,1811.9897],[43.6955,14.7694,1635.8743],[43.7472,14.8421,801.6764],[43.7348,14.8462,884.7078],[43.7226,14.8462,799.0224],[43.718,14.855,729.6627],[43.718,14.8585,755.463],[43.6764,14.8638,677.6343],[43.6656,14.8961,694.1088],[43.6625,14.9107,684.7122],[43.6408,14.9418,648.2336],[43.6307,14.9341,627.2678],[43.6185,14.9316,598.5975],[43.607,14.9356,668.8032],[43.599,14.9414,600.9141],[43.5846,14.9464,549.6703],[43.57,14.949,496.4912]]]]}}