{"type":"Feature","properties":{"GID_2":"YEM.13.28_1","GID_0":"YEM","country":"Yemen","GID_1":"YEM.13_1","province":"Hajjah","NL_NAME_1":"حجه","county":"Qarah","VARNAME_2":"NA","NL_NAME_2":"قارة","TYPE_2":"Muderiah","ENGTYPE_2":"District","CC_2":"1731","HASC_2":"NA","name":"Qarah.county"},
"geometry":{"type": "MultiPolygon","coordinates": [[[[43.529,16.3051,1133.1534],[43.5173,16.3175,1157.2158],[43.5108,16.3739,888.7546],[43.5185,16.403199999999998,853.1341],[43.5397,16.445,1068.7056],[43.5322,16.5437,1150.5862],[43.4688,16.5291,1331.4003],[43.4588,16.5124,839.1159],[43.4537,16.4981,722.4454],[43.4241,16.4721,563.4547],[43.4082,16.4533,553.7977],[43.4217,16.4311,631.4707],[43.4306,16.4238,588.9898],[43.4369,16.3971,738.0432],[43.4366,16.3919,714.8453],[43.4313,16.3844,723.7468],[43.4306,16.3766,736.7587],[43.4345,16.3607,950.2368],[43.4292,16.3502,917.6866],[43.4296,16.3469,1020.2928],[43.4335,16.341,1068.9922],[43.4328,16.3376,1212.5743],[43.4352,16.3291,1433.1973],[43.4337,16.3243,1160.171],[43.4287,16.3198,1157.6083],[43.4288,16.3116,1102.3094],[43.4246,16.3012,1089.6267],[43.4239,16.2941,992.9795],[43.4236,16.2874,1003.5998],[43.4286,16.2601,795.3004],[43.4362,16.264,937.4478],[43.4432,16.2621,1052.2321],[43.5161,16.2629,1115.6543],[43.5187,16.2789,1130.063],[43.529,16.3051,1133.1534]]]]}}