{"type":"Feature","properties":{"GID_2":"YEM.15.15_1","GID_0":"YEM","country":"Yemen","GID_1":"YEM.15_1","province":"Lahij","NL_NAME_1":"لحج","county":"Yahr","VARNAME_2":"NA","NL_NAME_2":"يهر","TYPE_2":"Muderiah","ENGTYPE_2":"District","CC_2":"2504","HASC_2":"NA","name":"Yahr.county"},
"geometry":{"type": "MultiPolygon","coordinates": [[[[45.243899999999996,13.793,1920.8192],[45.2481,13.8015,1968.231],[45.2481,13.8059,1802.5559],[45.2465,13.8087,1776.9515],[45.2373,13.8109,2102.1899],[45.2322,13.8058,1975.7405],[45.2157,13.7951,2208.5894],[45.205,13.7924,2194.1128],[45.2012,13.7946,2285.6936],[45.2016,13.7727,1940.6313],[45.1965,13.7581,1698.3002],[45.1923,13.7546,1597.0222],[45.1748,13.7496,1348.8127],[45.1613,13.7491,1458.8447],[45.151,13.7458,1704.988],[45.1395,13.7458,1846.2263],[45.128,13.7491,1918.1416],[45.1165,13.7491,1881.6964],[45.0889,13.7357,1850.0278],[45.0716,13.7334,1723.5278],[45.0647,13.7278,1830.7998],[45.0336,13.7177,1225.5823],[45.021,13.7143,803.0055],[45.0072,13.7154,996.3165],[45.002,13.7129,1062.0431],[45.0049,13.7008,779.545],[45.0106,13.6918,1129.2147],[45.021,13.6817,901.37],[45.0302,13.6862,743.6239],[45.0428,13.6862,925.9448],[45.0555,13.6806,753.7145],[45.0946,13.6524,802.3734],[45.098,13.6457,671.2683],[45.1118,13.6412,739.8217],[45.1187,13.6367,704.6724],[45.1337,13.6344,610.2783],[45.144,13.6423,673.0743],[45.1532,13.6445,683.3015],[45.1751,13.6457,792.4568],[45.1838,13.6532,864.7775],[45.173,13.6866,866.7299],[45.1735,13.6917,1000.6362],[45.212,13.701,1564.759],[45.2225,13.7061,1601.5818],[45.2287,13.7042,1569.7419],[45.2396,13.7037,1480.6019],[45.2444,13.707,1645.7344],[45.2496,13.7074,1618.4983],[45.2558,13.7107,1756.7784],[45.2591,13.7144,1881.9553],[45.2587,13.7204,1687.6251],[45.2454,13.7367,1657.0416],[45.2459,13.7437,1712.377],[45.2492,13.7497,2105.9033],[45.2454,13.7563,2087.0051],[45.2378,13.7591,1913.2968],[45.233,13.7651,2017.1675],[45.2383,13.7814,1781.2565],[45.243899999999996,13.793,1920.8192]]]]}}