{"type":"Feature","properties":{"GID_2":"YEM.12.27_1","GID_0":"YEM","country":"Yemen","GID_1":"YEM.12_1","province":"Hadramawt","NL_NAME_1":"حضرموت","county":"Thamud","VARNAME_2":"NA","NL_NAME_2":"ثمود","TYPE_2":"Muderiah","ENGTYPE_2":"District","CC_2":"1902","HASC_2":"NA","name":"Thamud.county"},
"geometry":{"type": "MultiPolygon","coordinates": [[[[49.1472,16.4705,996.8817],[49.3895,16.514,963.7066],[49.515,16.558,1042.0742],[49.7478,16.6062,1054.1815],[49.8106,16.6281,1026.0161],[49.8939,16.6395,1027.5381],[50.1519,16.6432,1079.3623],[50.1568,16.6947,1077.7891],[50.2069,16.7976,988.1094],[50.2448,16.9463,884.8564],[50.258,17.4146,683.6699],[50.2993,17.6673,636.0763],[50.325,17.8488,566.1411],[50.3234,18.2458,387.2055],[50.2907,18.7357,315.2218],[49.7343,18.6803,335.6641],[49.7253,18.3994,357.4484],[49.7258,18.3667,382.7912],[49.7056,17.6168,539.1179],[49.6762,17.424,626.2222],[49.6428,17.4051,640.4583],[49.5831,17.318,716.9359],[49.5776,17.0971,823.5795],[49.5517,16.9761,862.3616],[49.4098,16.8023,923.6208],[49.2206,16.552,1029.252],[49.1472,16.4705,996.8817]]]]}}