{"type":"Feature","properties":{"GID_2":"YEM.21.20_1","GID_0":"YEM","country":"Yemen","GID_1":"YEM.21_1","province":"Ta`izz","NL_NAME_1":"تعز","county":"Salh","VARNAME_2":"NA","NL_NAME_2":"صالة","TYPE_2":"Muderiah","ENGTYPE_2":"District","CC_2":"1520","HASC_2":"NA","name":"Salh.county"},
"geometry":{"type": "MultiPolygon","coordinates": [[[[44.0262,13.5597,1619.4463],[44.0433,13.5577,1659.1783],[44.0479,13.5583,1645.4373],[44.0542,13.5619,1478.8502],[44.0533,13.5686,1482.2485],[44.0545,13.5752,1537.9446],[44.0641,13.5911,1321.54],[44.0603,13.5967,1329.012],[44.0507,13.6007,1330.8857],[44.0415,13.6007,1266.8081],[44.0251,13.6095,1214.2622],[44.0162,13.61,1196.7772],[44.0247,13.5967,1223.9545],[44.029,13.5968,1219.8212],[44.029,13.5932,1236.8088],[44.0258,13.5906,1258.7499],[44.0213,13.5913,1278.4244],[44.0215,13.587,1288.3087],[44.0165,13.5877,1243.6479],[44.0215,13.5795,1315.1642],[44.0263,13.5803,1327.7306],[44.0226,13.5683,1431.1283],[44.0262,13.5597,1619.4463]]]]}}