{"type":"Feature","properties":{"GID_2":"YEM.10.8_1","GID_0":"YEM","country":"Yemen","GID_1":"YEM.10_1","province":"Amran","NL_NAME_1":"عمران","county":"DhiBin","VARNAME_2":"NA","NL_NAME_2":"ذيبين","TYPE_2":"Muderiah","ENGTYPE_2":"District","CC_2":"2909","HASC_2":"NA","name":"Dhi_Bin.county"},
"geometry":{"type": "MultiPolygon","coordinates": [[[[44.0706,16.052,2244.7534],[44.0665,16.0317,2327.7896],[44.0536,16.0176,2524.4739],[44.0472,16.0019,2516.0654],[44.0425,15.9815,2486.3213],[44.0425,15.9705,2481.73],[44.0491,15.9564,2525.1802],[44.0572,15.9518,2517.4478],[44.0702,15.9314,2158.8621],[44.0703,15.9189,2193.3066],[44.1044,15.9018,2049.5234],[44.1478,15.9082,2411.3516],[44.1625,15.9334,2667.072],[44.1659,15.9584,2235.3103],[44.1562,15.9855,1906.8391],[44.1574,15.9939,2143.6411],[44.1626,15.9961,1811.4062],[44.1772,15.9944,1657.0295],[44.1943,15.9958,1624.3894],[44.2093,15.9938,1612.8201],[44.221,15.9951,1611.167],[44.2551,16.0153,1537.4929],[44.2605,16.0228,1532.3014],[44.2585,16.0265,1522.2048],[44.2585,16.032,1521.8979],[44.2601,16.032,1520.8242],[44.2496,16.034,1525.4794],[44.2429,16.0372,1577.1825],[44.235,16.0308,1538.8933],[44.227,16.0276,1740.204],[44.2139,16.0433,1771.9105],[44.1878,16.0902,2017.8036],[44.1179,16.1432,1997.5905],[44.075,16.1534,1919.6556],[44.0662,16.1132,2112.425],[44.0582,16.0881,2134.2273],[44.068,16.0725,2114.3804],[44.0713,16.0552,2230.5576],[44.0706,16.052,2244.7534]]]]}}