{"type":"Feature","properties":{"GID_2":"YEM.14.17_1","GID_0":"YEM","country":"Yemen","GID_1":"YEM.14_1","province":"Ibb","NL_NAME_1":"إب","county":"Ibb","VARNAME_2":"NA","NL_NAME_2":"إب","TYPE_2":"Muderiah","ENGTYPE_2":"District","CC_2":"1120","HASC_2":"NA","name":"Ibb.county"},
"geometry":{"type": "MultiPolygon","coordinates": [[[[44.1854,13.9876,1772.6995],[44.1954,13.9828,2138.9165],[44.1991,13.9763,2335.085],[44.1951,13.9674,2134.3079],[44.1956,13.9622,2287.0786],[44.1977,13.9603,2307.4741],[44.1989,13.9552,2158.1201],[44.1987,13.9502,2259.1057],[44.1949,13.9402,1872.9922],[44.2233,13.9223,1841.4889],[44.2536,13.9071,1775.8724],[44.255,13.903,1756.1809],[44.2598,13.8977,1799.3591],[44.2638,13.8962,1790.5063],[44.2662,13.8924,1767.41],[44.2654,13.8873,1754.2837],[44.2621,13.8828,1741.0021],[44.2627,13.8792,1718.9507],[44.2757,13.8776,1694.2411],[44.2824,13.8799,1680.2701],[44.2827,13.8825,1744.0137],[44.2877,13.8835,1701.3323],[44.2907,13.8786,1636.178],[44.2944,13.8786,1617.9338],[44.296,13.8868,1657.7378],[44.3,13.8887,1674.6401],[44.3057,13.8972,1692.7683],[44.3033,13.9047,1823.366],[44.296,13.9105,2177.3242],[44.2803,13.9134,1994.3577],[44.2753,13.9173,1923.2959],[44.2713,13.9228,2112.0066],[44.2652,13.9375,2366.9097],[44.2575,13.9469,2060.7827],[44.2509,13.9462,2137.9854],[44.2399,13.9358,2249.9622],[44.2356,13.937,2116.1501],[44.2345,13.9445,2384.9536],[44.2325,13.9465,2327.9395],[44.2259,13.9481,2017.8853],[44.2242,13.9513,2039.9436],[44.23,13.9594,2358.5073],[44.2419,13.9684,2654.9622],[44.2458,13.9735,2738.7678],[44.2444,13.9781,2588.584],[44.2388,13.9823,2511.8413],[44.237,13.9866,2542.8772],[44.2401,13.9917,2400.5515],[44.216,14.0158,2213.0923],[44.2053,14.0297,1857.8894],[44.1886,14.0371,1625.4426],[44.1863,14.0412,1598.4684],[44.1877,14.0457,1607.9375],[44.1802,14.0497,1599.3134],[44.1714,14.0461,1577.2604],[44.1652,14.0456,1593.7664],[44.1645,14.048,1590.1931],[44.1665,14.0513,1556.2537],[44.1598,14.0583,1680.7655],[44.1598,14.0624,1582.8267],[44.1576,14.0661,1534.1272],[44.1584,14.0732,1523.9875],[44.1615,14.0802,1502.96],[44.1615,14.1068,1450.9333],[44.1551,14.1068,1460.4216],[44.1507,14.1031,1492.4746],[44.143,14.0864,1531.4897],[44.1316,14.0745,1596.0842],[44.1353,14.0702,1685.8948],[44.1209,14.064,1746.6344],[44.1191,14.0618,1806.1489],[44.1202,14.0571,1952.3959],[44.1165,14.0571,1860.4775],[44.1102,14.0542,1981.0189],[44.1062,14.0477,2149.9077],[44.1047,14.0404,2218.6382],[44.0921,14.0303,2464.3579],[44.0839,14.0304,2508.0339],[44.0776,14.0257,2639.3994],[44.0779,14.0224,2640.749],[44.0753,14.0157,2480.4238],[44.0677,14.0139,2171.2139],[44.0647,14.0149,1917.9971],[44.0613,14.0185,1896.7151],[44.0605,14.015,1859.0896],[44.0621,14.0144,1901.8716],[44.0617,14.0124,1992.8982],[44.0579,14.0146,1791.3433],[44.0539,14.0129,1809.1814],[44.0552,14.0071,1798.8398],[44.0469,14.0035,1597.3684],[44.0492,13.9982,1828.4056],[44.0515,13.9984,1936.4868],[44.0533,14.0009,1810.7213],[44.0652,13.9892,1791.731],[44.0581,13.9837,1609.8718],[44.0619,13.9816,1700.6012],[44.0598,13.9794,1630.64],[44.0616,13.9731,1574.0737],[44.061,13.9716,1525.1467],[44.0595,13.9725,1576.7068],[44.0567,13.971,1538.7032],[44.057,13.9684,1456.1726],[44.0593,13.9671,1465.2605],[44.0612,13.9629,1491.8115],[44.0765,13.9576,1539.9672],[44.0818,13.9472,1601.5715],[44.091,13.9485,1997.8516],[44.0938,13.954,1858.6875],[44.1055,13.9672,2386.6409],[44.1074,13.9676,2387.9268],[44.1083,13.9661,2391.8838],[44.111,13.9717,2240.1836],[44.1124,13.9677,2268.104],[44.1235,13.9772,2127.0571],[44.1271,13.9772,2110.478],[44.1315,13.974,2029.6224],[44.1361,13.9731,1996.0673],[44.1421,13.9824,2053.0481],[44.1484,13.9824,2098.052],[44.1493,13.9849,2105.3528],[44.1476,13.9876,1996.954],[44.1413,13.9932,2122.8162],[44.1354,13.9919,2214.5693],[44.1301,13.986,2185.8521],[44.1268,13.9856,2271.9265],[44.1227,13.9877,2259.7263],[44.1225,13.9912,2380.2129],[44.1264,13.9996,2374.6768],[44.1296,14.0023,2387.9133],[44.1289,14.0056,2442.2847],[44.1313,14.0091,2316.6787],[44.1728,14.0096,1653.6353],[44.1757,14.0075,1657.1505],[44.1767,14.0039,1671.6614],[44.1753,13.9971,1682.0798],[44.1785,13.9903,1732.2073],[44.1854,13.9876,1772.6995]]]]}}