{"type":"Feature","properties":{"GID_1":"YEM.4_1","GID_0":"YEM","country":"Yemen","province":"AlDali'","VARNAME_1":"AlDhale'e","NL_NAME_1":"الضالع","TYPE_1":"Muhafazah","ENGTYPE_1":"Governorate","CC_1":"30","HASC_1":"YE.DL","ISO_1":"NA","name":"Al_Dali'.province"},
"geometry":{"type": "MultiPolygon","coordinates": [[[[44.7545,13.6014,1168.8221],[44.7607,13.608,1245.199],[44.7773,13.5984,1281.8793],[44.8039,13.5871,962.592],[44.8188,13.5842,934.6416],[44.8375,13.586,813.8669],[44.8286,13.6444,999.4774],[44.8072,13.7243,1366.0691],[44.8166,13.7294,1383.2163],[44.8277,13.7322,1306.6489],[44.8392,13.7323,1492.0876],[44.8513,13.7185,1429.1509],[44.8676,13.718,1846.1704],[44.8802,13.7234,2113.3738],[44.8928,13.7365,1913.374],[44.9085,13.745,1318.5265],[44.9337,13.7504,1720.1384],[45.0062,13.795,1667.7944],[45.0583,13.8338,1699.4723],[45.1041,13.8645,1138.4636],[45.1053,13.8701,1128.5076],[45.111,13.8736,1178.0551],[45.113,13.8796,1265.6709],[45.1122,13.8875,1029.3953],[45.1175,13.8895,1150.955],[45.1195,13.8962,1107.7571],[45.1288,13.903,1274.2382],[45.1248,13.9109,1160.4248],[45.1292,13.9164,1167.2712],[45.1264,13.9204,1103.9133],[45.1276,13.9251,1255.9335],[45.1317,13.9263,1398.1418],[45.1325,13.9442,1266.2743],[45.1353,13.9501,1204.3477],[45.1345,13.9537,1398.0563],[45.1422,13.9624,1225.4111],[45.1386,13.9671,1409.6219],[45.1386,13.9739,1204.3702],[45.141,13.9762,1183.4304],[45.1455,13.9742,1411.4707],[45.1458,13.9769,1376.5333],[45.1481,13.977,1469.6085],[45.1529,13.9838,1427.653],[45.1509,13.9883,1500.5189],[45.1564,14.0085,1278.6633],[45.1525,14.0247,1349.7738],[45.156,14.0362,1459.6545],[45.149,14.0409,1393.2715],[45.1477,14.0529,1453.5225],[45.1425,14.055,1447.83],[45.1425,14.0584,1364.7107],[45.1307,14.0669,1397.7598],[45.1233,14.0814,1745.3967],[45.1176,14.0874,1803.6064],[45.1049,14.0908,1765.6493],[45.0923,14.09,1472.4907],[45.0663,14.0936,1480.7352],[45.0574,14.0972,1481.0819],[45.0613,14.1045,1667.6426],[45.06,14.1134,1651.0327],[45.0683,14.1202,1726.0093],[45.0648,14.1424,1584.4427],[45.06,14.1471,1689.8683],[45.0565,14.1581,1732.9553],[45.0508,14.1671,1772.1519],[45.0159,14.1871,1591.5854],[45.0065,14.197,1639.4003],[44.9962,14.2192,1791.4526],[44.9704,14.2307,1748.6528],[44.9482,14.2348,1871.9021],[44.8806,14.2275,2005.4209],[44.8651,14.2242,2282.9092],[44.8316,14.2119,2319.7622],[44.8204,14.2062,2458.095],[44.8024,14.2015,2825.1111],[44.7842,14.2063,2697.0681],[44.7631,14.2184,2748.7075],[44.7449,14.2166,2283.1423],[44.7386,14.2077,2302.635],[44.7322,14.1935,2191.1172],[44.6815,14.1777,2041.8813],[44.6796,14.1617,2096.1492],[44.6725,14.1461,2121.2383],[44.6601,14.1374,1929.6931],[44.6494,14.1252,1995.7593],[44.637,14.1235,2028.3322],[44.6298,14.1339,2313.2009],[44.6098,14.1421,2356.9702],[44.6044,14.1383,2262.0759],[44.5975,14.1399,2279.3777],[44.5942,14.1373,2268.4165],[44.5925,14.1204,2313.0894],[44.6005,14.1188,2203.364],[44.605,14.1161,2135.3384],[44.606,14.1046,2285.7012],[44.6042,14.101,2246.3994],[44.5996,14.0975,2263.5737],[44.5881,14.0932,2389.2903],[44.5924,14.0851,2038.5688],[44.5921,14.082,1981.0114],[44.5752,14.0789,1993.5372],[44.5685,14.0731,2006.4775],[44.5578,14.0674,2015.2701],[44.5526,14.0599,2051.6106],[44.553,14.0318,2284.7041],[44.5635,14.0228,2406.6914],[44.5795,14.0179,2412.5469],[44.5908,14.0162,2129.1379],[44.607,14.0101,2392.3291],[44.5928,13.9993,2056.9351],[44.5607,13.9865,1881.5342],[44.5571,13.9865,1945.8817],[44.5389,13.9953,2239.27],[44.5213,13.9936,2369.3718],[44.5221,13.9929,2369.3718],[44.5153,13.985,2121.4534],[44.49,13.9806,2041.4165],[44.4846,13.9728,1810.7556],[44.4778,13.9665,1825.4487],[44.4594,13.9604,1590.0294],[44.4503,13.95,1612.217],[44.4499,13.9462,1563.4952],[44.4532,13.9307,1554.1997],[44.46,13.923,1504.9343],[44.4596,13.9185,1494.3075],[44.4487,13.9047,1628.2047],[44.4444,13.887,1634.6104],[44.4416,13.8857,1668.6594],[44.4392,13.8882,1657.4397],[44.4354,13.8877,1664.1484],[44.434,13.8849,1683.4265],[44.4347,13.872,1588.574],[44.4091,13.8635,1517.6018],[44.4054,13.8588,1471.4954],[44.4055,13.8472,1443.6333],[44.4073,13.8433,1436.1401],[44.4117,13.8405,1429.8882],[44.4128,13.8352,1399.9136],[44.4077,13.8302,1407.9532],[44.396,13.8323,1442.2471],[44.3822,13.8296,1441.0066],[44.3688,13.8238,1588.5564],[44.3688,13.8081,1573.5619],[44.3702,13.8036,1580.2169],[44.3763,13.8004,1586.9652],[44.3809,13.7937,1699.92],[44.3806,13.7874,1660.0354],[44.3727,13.773,1587.0081],[44.3794,13.771,1608.1289],[44.3889,13.7614,1574.339],[44.3913,13.7451,1654.6846],[44.3925,13.7431,1573.667],[44.4017,13.7391,1502.604],[44.4046,13.7266,1425.8755],[44.4072,13.7246,1424.0389],[44.4085,13.7201,1463.6971],[44.4055,13.7159,1419.6014],[44.4002,13.7155,1489.9255],[44.3948,13.7041,1405.8789],[44.3999,13.6961,1408.2961],[44.3963,13.6892,1372.2029],[44.3767,13.6713,1723.0026],[44.3721,13.6625,1598.0872],[44.3719,13.6513,1301.3606],[44.3742,13.6438,1189.7708],[44.3781,13.6376,1233.7151],[44.3907,13.6316,1184.421],[44.4311,13.6208,1088.5847],[44.4318,13.64,1247.1517],[44.435,13.6451,1201.6719],[44.44,13.6467,1324.7738],[44.4924,13.6249,1285.907],[44.5128,13.6153,896.0475],[44.5161,13.6019,1049.4253],[44.5148,13.5895,947.092],[44.533,13.582,911.719],[44.5408,13.5768,872.302],[44.5502,13.5749,816.662],[44.5515,13.5711,796.3665],[44.5537,13.5698,781.7886],[44.5632,13.5673,830.6039],[44.5749,13.5595,916.7916],[44.577,13.5501,831.1207],[44.587,13.5508,857.692],[44.5944,13.5568,989.0813],[44.595,13.5609,925.3501],[44.5882,13.57,895.8646],[44.5903,13.579,1121.2081],[44.6006,13.5791,1046.3701],[44.6223,13.5624,985.2096],[44.6404,13.5559,1031.8999],[44.6487,13.5557,1011.9298],[44.7007,13.5732,1552.1409],[44.7197,13.5747,1139.4915],[44.7354,13.5793,1093.6149],[44.7459,13.588,1254.9454],[44.7545,13.6014,1168.8221]]]]}}