{"type":"Feature","properties":{"ISO3166-1-Alpha-3":"YEM","country":"Yemen","fill":"#F0F","id":"334","name":"Al Dali'"},
"geometry":{"type": "Polygon","coordinates": [[[45.18048,13.96437,1394.1427],[45.1797,13.99054,1920.7458],[45.17412,14.01478,1672.3864],[45.14865,14.04563,1443.4729],[45.0748,14.11371,1794.7855],[45.04653,14.14787,1585.8807],[45.02979,14.17715,1683.5302],[45.00747,14.20515,1723.6456],[44.9747,14.2167,1796.9294],[44.93326,14.21769,1907.6885],[44.90659,14.22166,2031.2583],[44.88473,14.21384,2014.9489],[44.86778,14.21058,2023.8496],[44.85476,14.20055,2041.1273],[44.83786,14.19412,2432.9207],[44.81053,14.19417,2685.3821],[44.78092,14.18916,2877.9858],[44.76195,14.17802,2666.603],[44.71803,14.16169,2336.5601],[44.70733,14.13012,1968.147],[44.69152,14.11914,1931.7648],[44.67214,14.11919,1936.9137],[44.65162,14.11733,1932.8455],[44.64247,14.10916,1937.8406],[44.64154,14.0956,1936.2053],[44.631,14.07434,2011.2202],[44.61503,14.05842,2120.9983],[44.60754,14.03705,2357.4905],[44.61395,14.01648,2758.4438],[44.63193,13.99907,2342.7954],[44.62248,13.98101,2211.9175],[44.60382,13.97654,2173.1199],[44.58413,13.97661,1800.6843],[44.56026,13.97235,2115.1792],[44.53494,13.9623,1703.3296],[44.50967,13.94551,1584.7418],[44.49365,13.92031,1521.4215],[44.49086,13.90179,1484.4567],[44.48574,13.88422,1465.3452],[44.48372,13.87285,1569.0441],[44.47427,13.8676,1392.9608],[44.46202,13.86874,1656.6985],[44.45039,13.86065,1570.6877],[44.43515,13.82078,1418.2866],[44.41872,13.81063,1437.9877],[44.41112,13.79254,1527.3752],[44.41251,13.78637,1844.5978],[44.40693,13.76105,1694.9987],[44.42507,13.73376,1491.4976],[44.42817,13.7111,1432.5851],[44.42445,13.68668,1422.6959],[44.41546,13.66366,1235.7411],[44.41422,13.64322,1121.5614],[44.42926,13.62733,1119.4272],[44.45024,13.62217,1069.3854],[44.47272,13.62651,1213.9438],[44.49427,13.62488,1207.0276],[44.52532,13.6101,1052.7225],[44.5309,13.59728,953.1785],[44.53323,13.57705,934.4587],[44.57328,13.563,852.2211],[44.58661,13.54664,863.173],[44.62806,13.5168,811.9897],[44.65488,13.52191,938.4482],[44.69043,13.54522,1094.0176],[44.75854,13.57356,1319.0396],[44.7758,13.59225,1233.6504],[44.79099,13.60261,1246.7976],[44.83099,13.58752,772.9302],[44.85306,13.5909,878.8884],[44.85926,13.61082,898.4452],[44.85538,13.63509,924.5568],[44.85755,13.70805,1280.3883],[44.88158,13.71322,1775.9513],[44.91357,13.71604,1522.0579],[44.99656,13.74839,851.7868],[45.04095,13.77753,1048.2736],[45.08302,13.79668,1062.3456],[45.11872,13.83022,1334.2948],[45.18048,13.96437,1394.1427]]]}}