{"type":"Feature","properties":{"GID_2":"YEM.18.14_1","GID_0":"YEM","country":"Yemen","GID_1":"YEM.18_1","province":"Sa`dah","NL_NAME_1":"صعدة","county":"Saqayn","VARNAME_2":"NA","NL_NAME_2":"ساقين","TYPE_2":"Muderiah","ENGTYPE_2":"District","CC_2":"2209","HASC_2":"NA","name":"Saqayn.county"},
"geometry":{"type": "MultiPolygon","coordinates": [[[[43.3403,16.8279,720.7978],[43.3472,16.8284,826.7325],[43.3777,16.8466,1483.7739],[43.3848,16.8472,1719.5103],[43.391,16.845,1866.3066],[43.3979,16.8373,1854.4825],[43.3981,16.829,1872.9858],[43.4021,16.8271,1890.4647],[43.4073,16.8178,1937.5813],[43.4207,16.8235,2491.5],[43.4279,16.8242,2455.6418],[43.4363,16.8208,2367.7517],[43.4358,16.8127,2325.1724],[43.4461,16.7955,2351.6655],[43.4509,16.7927,2514.3735],[43.4646,16.7951,2480.4275],[43.4923,16.7717,2388.9971],[43.512,16.7415,2038.3491],[43.5247,16.7355,2027.8481],[43.5677,16.7482,1846.3262],[43.627,16.7552,1732.5818],[43.6012,16.7896,2089.2249],[43.5979,16.8076,2092.5291],[43.6005,16.8634,2339.2004],[43.5869,16.9032,2260.3862],[43.5716,16.9398,2275.2656],[43.5319,16.9713,2418.5806],[43.5101,16.9848,2575.0535],[43.4899,16.9825,2653.0166],[43.4714,16.9658,2509.3201],[43.4519,16.9582,2261.4229],[43.4406,16.9594,2208.1968],[43.4172,16.9706,1894.2651],[43.4102,16.976,1847.92],[43.3671,16.9754,1705.3835],[43.364,16.9625,1771.3149],[43.3664,16.9508,1816.0511],[43.3655,16.9367,1889.8669],[43.3615,16.9225,2239.759],[43.3519,16.9076,1492.2124],[43.3251,16.8942,923.7717],[43.3163,16.8734,1092.0583],[43.3204,16.852,731.2265],[43.3393,16.8494,939.5382],[43.3403,16.8279,720.7978]]]]}}