{"type":"Feature","properties":{"GID_2":"YEM.18.2_1","GID_0":"YEM","country":"Yemen","GID_1":"YEM.18_1","province":"Sa`dah","NL_NAME_1":"صعدة","county":"AlHashwah","VARNAME_2":"NA","NL_NAME_2":"الحشوه","TYPE_2":"Muderiah","ENGTYPE_2":"District","CC_2":"2213","HASC_2":"NA","name":"Al_Hashwah.county"},
"geometry":{"type": "MultiPolygon","coordinates": [[[[44.4498,17.0033,1731.121],[44.3594,17.0694,1537.8055],[44.3358,17.0621,1463.5916],[44.31,17.0258,1457.3932],[44.3082,17.0071,1561.6763],[44.3095,16.9776,1494.9149],[44.2952,16.9613,1476.2489],[44.2696,16.9504,1743.5544],[44.2158,16.949,1713.1316],[44.1958,16.9455,1720.3909],[44.191,16.9408,1717.7812],[44.1889,16.9319,1707.0725],[44.1903,16.9308,1703.4485],[44.1907,16.9251,1708.3291],[44.1813,16.9087,1741.0688],[44.1775,16.9031,1740.8378],[44.1615,16.8885,1790.8801],[44.1557,16.84,2088.7695],[44.1504,16.838,2034.9717],[44.1463,16.8279,1986.6199],[44.1495,16.8192,2025.0543],[44.1431,16.8122,2079.6211],[44.1337,16.8071,2032.353],[44.1289,16.8055,2103.4243],[44.1152,16.806,2194.406],[44.1101,16.7903,2148.1882],[44.109,16.7611,2300.1042],[44.1017,16.7537,2009.4318],[44.0994,16.749,1889.5188],[44.0979,16.7332,1827.1217],[44.0996,16.7073,1822.7219],[44.1463,16.7356,2340.6855],[44.1469,16.7386,2349.4211],[44.1826,16.7775,2233.8789],[44.2496,16.8296,1686.1813],[44.3031,16.8837,1646.0941],[44.3701,16.9443,1619.7617],[44.4498,17.0033,1731.121]]]]}}