{"type":"Feature","properties":{"GID_2":"YEM.18.10_1","GID_0":"YEM","country":"Yemen","GID_1":"YEM.18_1","province":"Sa`dah","NL_NAME_1":"صعدة","county":"Qatabir","VARNAME_2":"NA","NL_NAME_2":"قطابر","TYPE_2":"Muderiah","ENGTYPE_2":"District","CC_2":"2202","HASC_2":"NA","name":"Qatabir.county"},
"geometry":{"type": "MultiPolygon","coordinates": [[[[43.3216,17.3019,1768.3002],[43.337,17.2998,2394.6475],[43.3377,17.3031,2423.7046],[43.3562,17.2897,2559.1489],[43.3805,17.2688,2432.9958],[43.3934,17.2523,2571.2644],[43.3996,17.225,2465.6045],[43.4002,17.2158,2557.865],[43.4367,17.2274,2296.6111],[43.4226,17.2482,2315.7061],[43.4172,17.2705,2500.9441],[43.4057,17.2977,2369.8391],[43.3974,17.3128,2246.8376],[43.3807,17.3342,2434.0972],[43.3618,17.3549,2531.2385],[43.3497,17.3606,2513.595],[43.3437,17.3663,2293.4829],[43.3428,17.3864,2020.2662],[43.3404,17.3951,2009.7555],[43.3424,17.4296,2089.2925],[43.3401,17.4375,2257.582],[43.334,17.4425,2051.52],[43.3085,17.4466,1651.4346],[43.2657,17.457,1869.1868],[43.2565,17.4578,1861.0468],[43.2255,17.4262,2340.0425],[43.2471,17.4015,1597.8215],[43.2348,17.3892,1407.4202],[43.228,17.3855,1416.3397],[43.2588,17.3623,1669.24],[43.2768,17.3582,1984.5521],[43.326,17.3284,2309.3047],[43.3365,17.304,2352.8547],[43.3216,17.3019,1768.3002]]]]}}