{"type":"Feature","properties":{"GID_2":"YEM.12.30_1","GID_0":"YEM","country":"Yemen","GID_1":"YEM.12_1","province":"Hadramawt","NL_NAME_1":"حضرموت","county":"ZamakhwaManwakh","VARNAME_2":"NA","NL_NAME_2":"زموخومنوخ","TYPE_2":"Muderiah","ENGTYPE_2":"District","CC_2":"1904","HASC_2":"NA","name":"Zamakhwa_Manwakh.county"},
"geometry":{"type": "MultiPolygon","coordinates": [[[[47.0,16.95,851.1688],[46.9971,16.3699,972.6913],[46.8108,16.1619,883.7923],[46.9483,16.109,900.0955],[46.9483,16.1071,901.2164],[47.0513,16.0399,887.0057],[47.1243,16.085,920.0453],[47.1756,16.1651,962.0833],[47.2146,16.1909,969.0205],[47.2789,16.2146,1013.1166],[47.3662,16.2211,1105.0231],[47.4863,16.2122,1234.1436],[47.5435,16.2036,1276.1525],[47.5817,16.2622,1220.5707],[47.8111,16.3507,1194.3652],[47.9101,16.3934,1122.5376],[47.9685,16.4482,1107.7931],[48.03,16.5377,1049.6711],[48.1467,16.6286,1013.9403],[48.2901,16.7214,980.8611],[48.4451,16.918,956.1331],[48.5177,17.0696,867.0558],[48.556,17.1739,824.7947],[48.5658,17.1799,858.4229],[48.5957,18.3651,493.6795],[48.1833,18.1667,537.7889],[47.6,17.45,761.2773],[47.4667,17.1167,870.7324],[47.1833,16.95,874.1187],[47.0,16.95,851.1688]]]]}}