{"type":"Feature","properties":{"GID_2":"YEM.20.15_1","GID_0":"YEM","country":"Yemen","GID_1":"YEM.20_1","province":"Shabwah","NL_NAME_1":"شبوة","county":"Nisab","VARNAME_2":"NA","NL_NAME_2":"نصاب","TYPE_2":"Muderiah","ENGTYPE_2":"District","CC_2":"2110","HASC_2":"NA","name":"Nisab.county"},
"geometry":{"type": "MultiPolygon","coordinates": [[[[46.7029,14.1953,1494.7356],[46.7033,14.2421,1686.5823],[46.7003,14.2981,1596.4653],[46.6955,14.3328,1309.3726],[46.6925,14.3756,1246.9055],[46.6955,14.3915,1246.4597],[46.6858,14.4075,1266.0382],[46.6745,14.4591,1376.6011],[46.6514,14.5165,1151.507],[46.658,14.6195,1057.4601],[46.6884,14.7509,998.1099],[46.6922,14.7565,996.6777],[46.6925,14.7595,995.5445],[46.5442,14.8665,940.1048],[46.5343,14.8362,951.8443],[46.517,14.796,968.7987],[46.5026,14.7522,984.9304],[46.4708,14.6912,1044.6116],[46.4464,14.6501,1047.2308],[46.3463,14.5929,1434.2445],[46.2756,14.5589,1253.4932],[46.2166,14.5135,1408.9866],[46.1928,14.4621,1319.41],[46.1921,14.3178,1634.425],[46.2402,14.3144,1470.8124],[46.2951,14.2799,1879.9866],[46.3185,14.289,1813.9927],[46.381,14.2969,1356.1079],[46.4115,14.2967,1623.1152],[46.4504,14.3064,1405.1895],[46.4993,14.3044,1406.998],[46.5128,14.2961,1470.9346],[46.5279,14.2828,1337.9587],[46.556399999999996,14.2514,1550.9667],[46.6031,14.1849,1704.1482],[46.6051,14.1875,1682.576],[46.7029,14.1953,1494.7356]]]]}}