{"type":"Feature","properties":{"GID_2":"YEM.4.7_1","GID_0":"YEM","country":"Yemen","GID_1":"YEM.4_1","province":"AlDali'","NL_NAME_1":"الضالع","county":"Jahaf","VARNAME_2":"NA","NL_NAME_2":"جحاف","TYPE_2":"Muderiah","ENGTYPE_2":"District","CC_2":"3007","HASC_2":"NA","name":"Jahaf.county"},
"geometry":{"type": "MultiPolygon","coordinates": [[[[44.5978,13.7178,1194.5542],[44.6091,13.7071,1212.266],[44.6238,13.7021,1682.5912],[44.6467,13.697,1785.6617],[44.663,13.6897,1566.3993],[44.6829,13.6849,1558.1282],[44.7044,13.6824,1519.979],[44.715,13.6833,1421.948],[44.7174,13.6881,1540.7986],[44.7162,13.695,1619.1692],[44.7104,13.7029,1671.9475],[44.7039,13.7057,1723.9525],[44.7026,13.7126,1681.4619],[44.7047,13.7186,1662.9875],[44.715,13.7276,1712.577],[44.7127,13.7378,1613.6086],[44.6966,13.7524,2169.2827],[44.6827,13.7617,1860.6423],[44.6775,13.7679,1843.1287],[44.663,13.769,1709.3107],[44.6538,13.7533,1455.1282],[44.646,13.744,1359.4751],[44.5978,13.7178,1194.5542]]]]}}