{"type":"Feature","properties":{"GID_2":"YEM.1.4_1","GID_0":"YEM","country":"Yemen","GID_1":"YEM.1_1","province":"`Adan","NL_NAME_1":"عدن","county":"AshShaikhOuthman","VARNAME_2":"NA","NL_NAME_2":"الشيخعثمان","TYPE_2":"Muderiah","ENGTYPE_2":"District","CC_2":"2402","HASC_2":"NA","name":"Ash_Shaikh_Outhman.county"},
"geometry":{"type": "MultiPolygon","coordinates": [[[[45.0216,12.8476,3.207],[45.0312,12.8479,1.3832],[45.0436,12.8855,1.6824],[45.0506,12.9135,4.9469],[45.0482,12.9253,9.4747],[45.0008,12.8863,11.1422],[44.993899999999996,12.8847,13.1812],[44.992,12.8817,11.6941],[44.9888,12.8819,12.7567],[44.9806,12.8775,14.1869],[44.9943,12.8661,10.3204],[44.9991,12.8672,10.0197],[45.01,12.8651,6.6305],[45.0175,12.8559,2.3522],[45.0216,12.8476,3.207]]]]}}