{"type":"Feature","properties":{"GID_2":"YEM.10.3_1","GID_0":"YEM","country":"Yemen","GID_1":"YEM.10_1","province":"Amran","NL_NAME_1":"عمران","county":"AlQaflah","VARNAME_2":"NA","NL_NAME_2":"القفلة","TYPE_2":"Muderiah","ENGTYPE_2":"District","CC_2":"2904","HASC_2":"NA","name":"Al_Qaflah.county"},
"geometry":{"type": "MultiPolygon","coordinates": [[[[43.6475,16.4456,1449.958],[43.6399,16.4251,1581.0623],[43.6453,16.4149,1541.7897],[43.6407,16.4078,1439.7905],[43.6281,16.3975,1395.2538],[43.6243,16.375,1318.5505],[43.5365,16.3065,1149.3625],[43.529,16.3051,1133.1534],[43.5187,16.2789,1130.063],[43.5149,16.2553,1106.5564],[43.5163,16.2374,1194.7188],[43.5259,16.2348,1132.8019],[43.5456,16.2181,1246.8281],[43.5653,16.1958,1217.0403],[43.5667,16.1929,1281.1083],[43.5668,16.1782,1086.5625],[43.5898,16.1792,1119.3829],[43.5978,16.1841,1130.8018],[43.5985,16.1869,1137.9011],[43.6021,16.1869,1161.0635],[43.5996,16.1928,1146.1917],[43.6038,16.2108,1179.6072],[43.6021,16.2483,1213.0206],[43.6041,16.258,1373.1576],[43.6008,16.2749,1307.4734],[43.6009,16.2963,1251.5087],[43.6093,16.3081,1226.13],[43.6159,16.311,1250.9174],[43.6247,16.3082,1252.03],[43.6443,16.2935,1319.7178],[43.6508,16.2937,1340.3372],[43.6903,16.276,1380.8433],[43.7037,16.2684,1420.1333],[43.736,16.2559,1547.48],[43.7495,16.2403,1439.6384],[43.7538,16.2323,1326.0867],[43.767,16.2179,1318.9246],[43.7684,16.2094,1391.7135],[43.7647,16.1919,1254.3676],[43.7498,16.1502,1221.8855],[43.7519,16.1464,1204.6956],[43.7548,16.1471,1217.6976],[43.7584,16.1453,1209.7581],[43.76,16.1394,1278.3719],[43.7571,16.1279,1414.3251],[43.7586,16.1273,1414.3251],[43.7566,16.1027,1511.744],[43.7615,16.1002,1533.8577],[43.7652,16.1009,1523.2412],[43.7724,16.1051,1568.7012],[43.7773,16.1118,1501.5931],[43.7831,16.1159,1513.7915],[43.7889,16.1276,1374.6244],[43.8049,16.1507,1113.8456],[43.8022,16.1551,1113.0471],[43.7947,16.1582,1118.6379],[43.792,16.1641,1121.7098],[43.791,16.1755,1160.0153],[43.7924,16.1804,1166.1615],[43.8041,16.1819,1137.8119],[43.8059,16.184,1137.4614],[43.8068,16.1907,1143.3879],[43.8016,16.2006,1163.1005],[43.8015,16.2183,1304.2552],[43.8175,16.2317,1173.4806],[43.8276,16.2322,1163.5853],[43.8372,16.238,1173.3625],[43.8402,16.246,1179.5205],[43.836,16.255,1196.0129],[43.8019,16.2826,1235.3632],[43.8018,16.2934,1243.7328],[43.7959,16.2961,1243.0602],[43.7838,16.2933,1238.0693],[43.7808,16.3005,1256.5715],[43.7849,16.3089,1276.7531],[43.7852,16.3172,1261.3704],[43.7745,16.3604,1299.7773],[43.7713,16.3806,1324.0886],[43.7335,16.4118,1518.6086],[43.6906,16.4296,1523.1824],[43.6568,16.4404,1677.3337],[43.6475,16.4456,1449.958]]]]}}