{"type":"Feature","properties":{"GID_2":"YEM.7.9_1","GID_0":"YEM","country":"Yemen","GID_1":"YEM.7_1","province":"AlMahrah","NL_NAME_1":"المهره","county":"Shahan","VARNAME_2":"NA","NL_NAME_2":"شحن","TYPE_2":"Muderiah","ENGTYPE_2":"District","CC_2":"2801","HASC_2":"NA","name":"Shahan.county"},
"geometry":{"type": "MultiPolygon","coordinates": [[[[52.8277,17.2525,676.6827],[52.8123,17.2855,669.191],[52.7458,17.2944,656.2955],[52.7437,17.3024,644.2079],[52.7514,17.3042,666.6371],[52.7506,17.3058,646.7543],[52.7822,17.3497,646.1498],[52.2899,18.3897,390.1743],[52.2038,18.3162,392.39],[52.1502,18.0012,542.3498],[52.2001,17.7992,613.9333],[52.197,17.7214,627.9862],[52.2189,17.3981,702.7975],[52.2209,17.1533,916.9059],[52.2294,17.0752,959.1387],[52.2096,16.9021,982.76],[52.4397,16.8685,990.1079],[52.5195,16.8707,1033.4851],[52.623,16.8694,994.0928],[52.8444,16.8278,1065.3427],[52.9479,16.8007,1026.2279],[52.7126,17.0803,839.0937],[52.7356,17.2445,692.9534],[52.8277,17.2525,676.6827]]]]}}