{"type":"Feature","properties":{"GID_2":"YEM.10.14_1","GID_0":"YEM","country":"Yemen","GID_1":"YEM.10_1","province":"Amran","NL_NAME_1":"عمران","county":"Khamir","VARNAME_2":"NA","NL_NAME_2":"خمر","TYPE_2":"Muderiah","ENGTYPE_2":"District","CC_2":"2919","HASC_2":"NA","name":"Khamir.county"},
"geometry":{"type": "MultiPolygon","coordinates": [[[[43.8096,16.0915,1160.6357],[43.8121,16.0709,1399.6575],[43.8115,16.0638,1545.2346],[43.8068,16.0622,1531.7047],[43.803,16.0581,1484.479],[43.7968,16.0429,1232.064],[43.8074,16.0101,1357.155],[43.8401,15.9538,1368.0818],[43.8548,15.9476,1882.8717],[43.8726,15.9446,1842.1135],[43.9033,15.9479,2488.7432],[43.9098,15.9432,2516.3184],[43.9067,15.9338,2514.5564],[43.9094,15.9269,2558.8081],[43.9093,15.8957,2605.2266],[43.912,15.8821,2602.5027],[43.9291,15.8735,2592.0649],[43.9554,15.8741,2608.8752],[43.9646,15.8786,2652.9912],[43.9679,15.8864,2650.364],[43.9683,15.9137,2668.1172],[43.9892,15.9358,2651.8547],[44.0005,15.9578,2559.1958],[44.015,15.9657,2531.4727],[44.0231,15.9563,2528.6548],[44.0296,15.9532,2553.8748],[44.0377,15.9595,2490.9656],[44.0466,15.9617,2470.001],[44.0425,15.9705,2481.73],[44.0425,15.9815,2486.3213],[44.0472,16.0019,2516.0654],[44.0536,16.0176,2524.4739],[44.0665,16.0317,2327.7896],[44.0706,16.052,2244.7534],[44.0456,16.0455,2368.0037],[44.035,16.0478,2368.5791],[44.0188,16.0556,2394.4429],[44.0025,16.0579,2410.0349],[43.9958,16.0564,2411.0869],[43.9847,16.0664,2404.4243],[43.9708,16.0695,2412.7256],[43.9612,16.0616,2341.676],[43.9474,16.0599,2199.0537],[43.9465,16.0701,2139.2087],[43.9408,16.0764,2084.6514],[43.9245,16.0834,1992.7406],[43.9124,16.0833,1976.0916],[43.8985,16.0872,1779.663],[43.8749,16.1035,1620.4282],[43.8562,16.1089,1442.8383],[43.8422,16.1174,1438.3135],[43.8209,16.0949,1307.271],[43.8096,16.0915,1160.6357]]]]}}