{"type":"Feature","properties":{"GID_2":"YEM.9.7_1","GID_0":"YEM","country":"Yemen","GID_1":"YEM.9_1","province":"AmanatAlAsimah","NL_NAME_1":"أمانةالعاصمة","county":"BaniAlHarith","VARNAME_2":"NA","NL_NAME_2":"بنيالحارث","TYPE_2":"Muderiah","ENGTYPE_2":"District","CC_2":"1310","HASC_2":"NA","name":"Bani_Al_Harith.county"},
"geometry":{"type": "MultiPolygon","coordinates": [[[[44.214,15.4109,2227.8398],[44.2236,15.4056,2228.0945],[44.2309,15.4045,2250.5303],[44.2347,15.4212,2230.3757],[44.231,15.4321,2217.854],[44.2773,15.4715,2201.0388],[44.2822,15.4793,2201.8616],[44.2777,15.5008,2190.957],[44.2829,15.513,2185.6929],[44.2895,15.521,2182.8896],[44.2932,15.5188,2183.7969],[44.2925,15.5116,2189.55],[44.2977,15.5124,2188.1533],[44.3028,15.5231,2184.4602],[44.3339,15.5204,2266.0239],[44.3398,15.5297,2205.4485],[44.3361,15.5376,2189.4897],[44.3419,15.5505,2204.1499],[44.3479,15.5505,2200.8232],[44.3552,15.557,2190.5466],[44.3634,15.5571,2186.1265],[44.3649,15.5506,2198.6465],[44.3612,15.5398,2343.3979],[44.3635,15.5348,2302.7087],[44.3827,15.5356,2445.3091],[44.3923,15.5414,2558.7314],[44.3997,15.5507,2667.2798],[44.3997,15.5579,2732.2563],[44.393,15.565,2480.0286],[44.3774,15.575,2188.4617],[44.3596,15.59,2186.9946],[44.3509,15.5994,2072.197],[44.3191,15.6117,2080.6646],[44.3061,15.6117,2076.2246],[44.285,15.6037,2196.5349],[44.2791,15.5998,2200.6301],[44.2765,15.5936,2147.8965],[44.2616,15.5782,2145.3125],[44.2625,15.5714,2147.5933],[44.2603,15.5702,2148.4521],[44.2359,15.5714,2167.9302],[44.2333,15.5692,2163.6228],[44.2342,15.5595,2161.1184],[44.233,15.5583,2161.6772],[44.2232,15.5577,2166.4885],[44.2109,15.5535,2179.365],[44.207,15.545,2167.7153],[44.2007,15.5412,2168.3853],[44.1999,15.5361,2169.637],[44.1995,15.5133,2173.8916],[44.2055,15.5108,2172.7729],[44.2055,15.5071,2171.4888],[44.2023,15.5008,2176.6226],[44.1974,15.5057,2177.0022],[44.1908,15.5052,2190.9734],[44.1887,15.501,2246.71],[44.1904,15.4964,2190.2305],[44.1828,15.485,2187.6245],[44.1649,15.4833,2211.1675],[44.1598,15.4754,2229.063],[44.1303,15.4684,2326.2073],[44.1208,15.4626,2283.0879],[44.1206,15.4594,2344.1157],[44.1211,15.454,2352.687],[44.1292,15.4413,2243.9529],[44.1322,15.4382,2245.7104],[44.1424,15.4344,2361.5869],[44.1658,15.4113,2307.3311],[44.1658,15.4006,2304.5293],[44.1804,15.4017,2272.0947],[44.1847,15.4103,2292.2676],[44.1863,15.4174,2233.0642],[44.1941,15.4226,2228.0879],[44.2056,15.42,2232.2104],[44.214,15.4205,2218.9187],[44.214,15.4109,2227.8398]]]]}}