{"type":"Feature","properties":{"GID_2":"YEM.13.6_1","GID_0":"YEM","country":"Yemen","GID_1":"YEM.13_1","province":"Hajjah","NL_NAME_1":"حجه","county":"AlMahabishah","VARNAME_2":"NA","NL_NAME_2":"المحابشة","TYPE_2":"Muderiah","ENGTYPE_2":"District","CC_2":"1715","HASC_2":"NA","name":"Al_Mahabishah.county"},
"geometry":{"type": "MultiPolygon","coordinates": [[[[43.4269,15.9213,1215.9843],[43.4222,15.9056,1173.5342],[43.4225,15.8944,1144.9407],[43.4385,15.894,1016.3705],[43.4511,15.8964,1084.0721],[43.469,15.8965,1078.7296],[43.4742,15.8937,1280.6393],[43.4825,15.8811,987.16],[43.5319,15.869,869.8237],[43.5258,15.8962,1029.9071],[43.5213,15.9062,1157.4235],[43.5079,15.9137,1161.6284],[43.5054,15.9181,1078.0288],[43.5061,15.9261,915.3723],[43.4981,15.9296,1045.6069],[43.489,15.9397,1402.9155],[43.4851,15.9495,1442.1417],[43.4806,15.9513,1456.2922],[43.4718,15.9502,1764.0055],[43.462,15.9526,1836.7271],[43.4595,15.9564,1683.647],[43.4556,15.9702,1785.2601],[43.4545,15.9849,1475.1196],[43.4433,15.985,1037.6575],[43.4416,15.9842,970.7855],[43.443,15.9811,1093.5977],[43.441,15.9759,1077.9115],[43.4375,15.9786,945.6909],[43.4309,15.9778,793.6842],[43.4291,15.9746,882.2953],[43.4289,15.9615,1080.9379],[43.4353,15.956,1294.512],[43.4288,15.9444,1558.4104],[43.4298,15.9297,1453.3015],[43.4269,15.9213,1215.9843]]],
[[[43.3819,15.9881,512.8104],[43.3779,15.9814,499.6978],[43.3791,15.9615,565.7031],[43.3776,15.9547,774.7832],[43.3718,15.9496,611.9902],[43.3651,15.9492,552.5735],[43.3641,15.9463,499.4183],[43.3907,15.9381,1148.8796],[43.3938,15.9459,1120.9644],[43.3936,15.953,1104.0127],[43.3974,15.954,1047.4561],[43.3993,15.9584,1056.6678],[43.4006,15.9687,819.238],[43.3978,15.9738,691.5157],[43.3819,15.9881,512.8104]]]]}}