{"type":"Feature","properties":{"GID_1":"YEM.11_1","GID_0":"YEM","country":"Yemen","province":"Dhamar","VARNAME_1":"NA","NL_NAME_1":"ذمار","TYPE_1":"Muhafazah","ENGTYPE_1":"Governorate","CC_1":"20","HASC_1":"YE.DH","ISO_1":"YE-DH","name":"Dhamar.province"},
"geometry":{"type": "MultiPolygon","coordinates": [[[[43.5024,14.179,497.3342],[43.504,14.1745,378.6886],[43.5188,14.1614,382.7195],[43.5429,14.1297,344.8919],[43.5523,14.1285,353.4406],[43.5904,14.1292,396.0122],[43.602,14.1242,407.5034],[43.6286,14.1058,479.4872],[43.6435,14.0914,504.325],[43.6732,14.0679,515.8866],[43.6929,14.0663,781.7168],[43.7054,14.0682,592.5052],[43.7188,14.0746,791.2691],[43.7615,14.1154,691.6556],[43.7786,14.1395,739.103],[43.7857,14.1622,755.2367],[43.787,14.1833,773.469],[43.7893,14.1934,806.1594],[43.8008,14.2228,929.843],[43.8042,14.2286,1084.1899],[43.8199,14.2341,1138.7805],[43.8248,14.2381,1062.2631],[43.8266,14.252,1152.0201],[43.8246,14.2519,1139.9812],[43.8239,14.2469,1303.8263],[43.8213,14.2472,1239.98],[43.8187,14.2487,1282.874],[43.8175,14.2549,1484.7859],[43.8208,14.258,1451.5283],[43.8444,14.2506,1109.2563],[43.8473,14.2435,1101.9656],[43.8386,14.2337,1066.3113],[43.83,14.2201,956.9643],[43.8267,14.2105,887.2474],[43.8254,14.2029,877.3881],[43.8291,14.1889,799.5113],[43.8782,14.2095,934.2118],[43.9048,14.2265,1492.5459],[43.9133,14.2349,1498.8516],[43.922,14.2488,1356.4548],[43.9293,14.269,1794.502],[43.9316,14.2837,1931.2788],[43.9223,14.3183,1409.6821],[43.9159,14.3283,1458.7854],[43.9107,14.342,1713.6062],[43.9144,14.3472,1453.0411],[43.9193,14.3481,1423.0483],[43.929,14.3463,1382.6992],[43.9322,14.3548,1545.1589],[43.9397,14.3593,1283.7208],[43.946,14.3608,1275.6265],[43.9555,14.36,1194.8657],[43.9586,14.3518,1195.0375],[43.9642,14.3442,1177.7433],[43.9694,14.3449,1153.0062],[43.9682,14.3554,1193.5187],[43.9693,14.3633,1193.6483],[43.9681,14.3659,1199.5702],[43.9708,14.3726,1296.3818],[43.9762,14.3788,1366.9319],[43.9869,14.3814,1233.1455],[43.9929,14.38,1248.2219],[43.9962,14.3817,1272.3541],[43.9982,14.3878,1298.376],[44.0043,14.3937,1268.1294],[44.0101,14.3945,1252.7371],[44.0139,14.3968,1237.0247],[44.0187,14.4031,1217.8915],[44.0199,14.4097,1253.5625],[44.0188,14.4138,1254.3599],[44.0317,14.4272,1316.3757],[44.0325,14.4342,1354.2606],[44.043,14.438,1368.9148],[44.0484,14.4471,1396.1367],[44.0532,14.4489,1482.447],[44.0573,14.453,1526.8118],[44.063,14.4545,1436.9924],[44.0666,14.458,1470.7476],[44.0672,14.463,1533.5284],[44.0693,14.4656,1597.3882],[44.0741,14.4647,1477.304],[44.0768,14.4577,1601.0502],[44.0772,14.4442,1785.0032],[44.0805,14.43,1396.3877],[44.0782,14.4113,1279.5543],[44.08,14.3976,1342.6394],[44.0755,14.3773,1286.8339],[44.0856,14.3738,1316.2849],[44.0876,14.3704,1340.8857],[44.086,14.3642,1333.1484],[44.088,14.364,1335.1692],[44.0915,14.3681,1333.3497],[44.094,14.3669,1306.4658],[44.0931,14.3643,1303.7604],[44.0951,14.3641,1308.46],[44.1038,14.3688,1391.5934],[44.1128,14.3679,1445.3384],[44.1254,14.3706,1493.2225],[44.1308,14.3738,1562.2734],[44.1383,14.3739,1527.1116],[44.1449,14.3715,1498.6692],[44.1523,14.3732,1668.0386],[44.1519,14.3776,1763.0798],[44.1568,14.3829,1851.1144],[44.1793,14.3886,1894.4392],[44.1815,14.3973,1869.9617],[44.1866,14.4049,2115.8557],[44.1892,14.415,2039.3307],[44.1946,14.4593,1674.5839],[44.2045,14.4577,1739.2544],[44.2182,14.4462,1854.3384],[44.2359,14.4435,1777.208],[44.2536,14.4133,2011.5261],[44.2721,14.4136,1874.1879],[44.2789,14.4046,1943.0527],[44.2727,14.3957,1959.8597],[44.2839,14.3875,2096.9194],[44.2956,14.3749,2493.2703],[44.3163,14.3775,2228.8179],[44.3267,14.3813,2495.8853],[44.35,14.3763,2571.8901],[44.3656,14.3638,2404.678],[44.3695,14.3562,2451.7097],[44.3915,14.3562,2539.1736],[44.4174,14.3538,2552.9761],[44.4356,14.3488,2548.1372],[44.4447,14.3412,2595.3027],[44.4499,14.3286,2495.375],[44.4642,14.316,2495.0498],[44.4787,14.2965,2430.7524],[44.4974,14.3005,2376.189],[44.5032,14.2992,2413.8057],[44.511,14.3005,2387.4312],[44.5401,14.2961,2287.8787],[44.5483,14.2917,2239.0537],[44.5456,14.2793,2388.2156],[44.5422,14.278,2437.8149],[44.5679,14.2694,2214.6748],[44.5856,14.2936,2271.0488],[44.5976,14.2939,2398.8506],[44.5967,14.3008,2467.6602],[44.5861,14.3286,2452.5322],[44.6119,14.3565,2729.7114],[44.6127,14.3622,2749.9148],[44.6304,14.3655,2743.8474],[44.665,14.3635,2677.1494],[44.6696,14.3664,2715.782],[44.6779,14.377,2418.7463],[44.6844,14.3887,2333.5723],[44.7007,14.4478,2393.2837],[44.7001,14.4573,2370.3281],[44.7141,14.4692,2353.1726],[44.7306,14.4775,2341.562],[44.742,14.4804,2311.1951],[44.7319,14.513,2457.1631],[44.7124,14.5545,2617.9243],[44.7062,14.5749,2804.7117],[44.7062,14.5968,2619.5459],[44.7084,14.6136,2506.4255],[44.7192,14.6434,2396.0005],[44.7353,14.6704,2322.3992],[44.7465,14.6843,2268.7751],[44.7803,14.7119,2041.3898],[44.8365,14.7473,1888.5419],[44.815,14.7833,1977.5547999999999],[44.7951,14.813,1937.925],[44.7645,14.8362,1830.6564],[44.7505,14.8577,1957.3845],[44.7143,14.8622,1905.1202],[44.7058,14.9301,1899.6699],[44.7022,15.0093,2035.1422],[44.6809,15.0181,2186.0986],[44.6324,15.0123,2126.4976],[44.5437,14.9813,2177.7017],[44.5355,14.9709,2232.4424],[44.5115,14.9546,2224.2798],[44.4603,14.9394,2317.7102],[44.4385,14.9348,2382.3105],[44.3915,14.9579,2417.1772],[44.3781,14.9698,2507.9392],[44.3706,14.9822,2515.3723],[44.3667,14.9843,2588.5469],[44.3539,14.9856,2610.6338],[44.3445,14.9713,2561.4578],[44.3493,14.9584,2763.7192],[44.355,14.9506,2482.5352],[44.3506,14.9278,2513.6245],[44.226,14.9274,2389.2983],[44.214,14.9625,2701.9287],[44.2068,14.9701,2467.8564],[44.1798,14.9692,2008.3696],[44.1758,14.9889,1569.5879],[44.1564,14.9979,1532.7676],[44.1341,15.0027,1584.9946],[44.0924,14.999,1439.2781],[44.0486,14.9988,1320.8068],[44.0321,14.9926,1318.6764],[44.0218,14.9794,1313.9468],[44.0224,14.9714,1256.5356],[44.0165,14.9688,1296.9604],[44.0158,14.9661,1276.3588],[44.0187,14.9642,1251.2451],[44.0182,14.9617,1276.0483],[44.0121,14.9616,1243.2168],[44.0046,14.9543,1227.4865],[44.0018,14.9539,1254.2251],[43.9936,14.9474,1210.6104],[43.9901,14.9469,1200.8478],[43.9875,14.9443,1199.7217],[43.9859,14.939,1193.1877],[43.9804,14.9375,1304.951],[43.9773,14.9325,1181.9197],[43.9692,14.9321,1182.2015],[43.9521,14.9125,1153.2627],[43.9467,14.9093,1162.1179],[43.9308,14.909,1118.157],[43.9267,14.9063,1125.4873],[43.925,14.9081,1125.5669],[43.9241,14.9054,1141.2825],[43.922,14.9046,1118.8687],[43.9203,14.9061,1105.5803],[43.9153,14.9022,1113.0457],[43.9172,14.8999,1127.3779],[43.9131,14.8981,1090.8225],[43.9147,14.89,1138.0007],[43.9052,14.8831,1079.4644],[43.8989,14.8631,1129.4103],[43.8856,14.8611,1081.6022],[43.8732,14.8544,1051.2809],[43.8684,14.8482,1047.9463],[43.8608,14.8485,1089.1587],[43.8495,14.8543,1020.6239],[43.8175,14.8604,1019.1223],[43.8042,14.8611,1016.2325],[43.7791,14.8595,1604.6321],[43.7594,14.8547,1003.9938],[43.7547,14.8397,862.5012],[43.7566,14.8329,893.2577],[43.7692,14.8099,894.4832],[43.7919,14.7835,962.7756],[43.8264,14.7544,967.5541],[43.8357,14.7523,1012.059],[43.8595,14.7296,1056.7209],[43.879,14.7172,1125.3002],[43.891,14.6922,1191.2133],[43.9085,14.674,1226.9723],[43.9069,14.6694,1213.1469],[43.9001,14.6599,1214.968],[43.9025,14.6399,1290.3845],[43.9109,14.6297,1279.17],[43.92,14.6247,1242.6343],[43.9223,14.612,1392.6311],[43.9296,14.6042,1299.5443],[43.936,14.6037,1251.6483],[43.9356,14.5975,1187.724],[43.929,14.5941,1202.3292],[43.9244,14.5809,1180.8572],[43.9125,14.5658,1138.7552],[43.9061,14.5504,1088.0613],[43.8956,14.5454,1177.5295],[43.8909,14.5313,1119.3862],[43.8814,14.5292,1046.255],[43.8753,14.5257,1033.2521],[43.8695,14.5182,1046.2831],[43.8631,14.5036,1090.0334],[43.8533,14.4984,1023.0083],[43.8342,14.4961,936.3923],[43.8112,14.48,902.6747],[43.7699,14.4625,1023.2142],[43.7511,14.4578,868.9865],[43.7489,14.451,888.4232],[43.7447,14.4496,801.0063],[43.7317,14.4514,782.1478],[43.7301,14.4537,778.9937],[43.7302,14.4574,888.7745],[43.7272,14.4557,765.3779],[43.7163,14.4704,721.393],[43.7013,14.471,728.1481],[43.6927,14.4675,717.8409],[43.6815,14.4703,766.7579],[43.6629,14.4715,668.074],[43.6561,14.4684,662.9349],[43.65,14.4621,618.0547],[43.6472,14.4613,589.4641],[43.6464,14.4557,595.6395],[43.6485,14.4533,563.4357],[43.6442,14.4433,575.2614],[43.643,14.4326,526.1558],[43.6309,14.4214,512.8517],[43.6175,14.4118,478.1669],[43.6114,14.4094,473.7705],[43.6078,14.4038,475.2801],[43.6013,14.4057,513.2926],[43.5907,14.4009,438.4178],[43.5847,14.3941,427.1106],[43.5765,14.3885,421.9849],[43.5741,14.383,418.3274],[43.5746,14.3762,426.2502],[43.5714,14.3739,394.4099],[43.5624,14.371,385.0573],[43.5445,14.3697,365.9759],[43.5351,14.3776,368.1549],[43.5317,14.3781,368.3669],[43.5181,14.379,347.8483],[43.4758,14.3759,282.98],[43.4763,14.3587,293.5529],[43.4796,14.3408,306.3543],[43.4853,14.3284,361.0364],[43.5012,14.3025,256.1892],[43.5035,14.2955,257.6082],[43.5072,14.2918,278.7284],[43.5117,14.279,276.7327],[43.5164,14.2555,620.8745],[43.5261,14.243,426.0321],[43.532,14.219,374.3931],[43.5298,14.2113,341.1775],[43.5266,14.2074,404.1653],[43.515,14.1986,621.9872],[43.5005,14.1904,464.4528],[43.5024,14.179,497.3342]]]]}}