{"type":"Feature","properties":{"ISO3166-1-Alpha-3":"YEM","country":"Yemen","fill":"#00F","id":"153","name":"Dhamar"},
"geometry":{"type": "Polygon","coordinates": [[[44.68268,15.02596,2169.8228],[44.65627,15.02937,2098.4849],[44.63503,15.02624,2010.4028],[44.61131,15.01154,2224.5808],[44.59436,14.98611,2196.0342],[44.57126,14.95904,2085.0027],[44.55111,14.94811,2076.6233],[44.5092,14.93289,2230.855],[44.48279,14.93578,2270.6953],[44.45675,14.95237,2459.3699],[44.43877,14.97397,2585.0493],[44.41468,14.97702,2525.9243],[44.406,14.96232,2445.395],[44.40042,14.94299,2584.9866],[44.38662,14.92428,2340.1794],[44.3565,14.91532,2589.4121],[44.28079,14.93098,2565.1401],[44.25717,14.9501,2892.623],[44.23671,14.97102,2678.7407],[44.20984,14.98115,2000.0745],[44.19186,14.99327,1607.1731],[44.16426,14.99157,1543.262],[44.13274,14.98555,1651.1405],[44.09749,14.97382,1455.9395],[44.04292,14.93508,1384.4172],[44.01962,14.92278,1340.58],[44.00024,14.90994,1311.326],[43.98081,14.89945,1256.6597],[43.9467,14.86873,1473.9036],[43.92464,14.86204,1280.0604],[43.88603,14.85883,1098.7966],[43.83792,14.86333,1226.1951],[43.82397,14.85036,1245.4219],[43.82475,14.83235,1049.4607],[43.83653,14.7976,1467.78],[43.85963,14.76659,1649.2526],[43.9251,14.69533,1513.4298],[43.94515,14.66494,1477.2798],[43.95585,14.63846,1279.1256],[43.97228,14.61717,1351.0485],[43.98143,14.59875,1470.667],[43.97259,14.57423,1371.1881],[43.94252,14.53596,1571.5029],[43.92541,14.52278,1450.7042],[43.90758,14.50601,1864.8193],[43.84475,14.46868,1362.6792],[43.83033,14.45803,1221.9636],[43.81322,14.45392,946.2742],[43.80222,14.4531,1098.884],[43.78764,14.44966,936.9523],[43.77261,14.45178,1028.7438],[43.751,14.45927,981.6644],[43.72077,14.45819,934.6486],[43.70336,14.45108,1195.1201],[43.69313,14.43824,1017.1353],[43.65918,14.40946,901.0848],[43.59861,14.37731,516.2648],[43.58187,14.37514,454.547],[43.5583,14.37432,418.1114],[43.53877,14.37344,373.1578],[43.53159,14.35985,391.9032],[43.56528,14.22296,542.0789],[43.56605,14.18924,516.5848],[43.57939,14.15557,392.6841],[43.59603,14.14126,511.9124],[43.61897,14.12689,427.8524],[43.64998,14.11689,570.0978],[43.70599,14.084,903.3818],[43.72573,14.07604,759.5149],[43.74139,14.07806,624.3604],[43.7541,14.08963,649.4867],[43.76935,14.09793,740.9043],[43.78191,14.10785,686.1207],[43.79756,14.11405,797.4375],[43.81276,14.1458,794.7084],[43.8263,14.16539,932.5812],[43.84273,14.20782,946.6323],[43.85854,14.23014,1361.7242],[43.86567,14.24554,1358.7716],[43.87425,14.24686,1789.2994],[43.87937,14.23696,2099.0747],[43.87518,14.21572,1071.0555],[43.87968,14.19789,815.942],[43.89596,14.19079,1139.2852],[43.92247,14.19673,919.6155],[43.94593,14.20849,962.8553],[43.9729,14.25665,1161.9027],[43.97368,14.27923,1075.8427],[43.97089,14.30207,1122.0399],[43.96298,14.31812,1169.0701],[43.96252,14.33533,1190.9484],[43.96996,14.3446,1153.0062],[43.98567,14.35171,1546.2861],[43.99853,14.35241,1274.5834],[44.00939,14.35101,1241.2399],[44.03156,14.37879,1235.642],[44.05936,14.40036,1231.1726],[44.08261,14.42542,1378.5875],[44.10153,14.43372,1757.7244],[44.11615,14.43072,1540.6245],[44.13041,14.37871,1579.6322],[44.1377,14.36486,1487.4951],[44.16349,14.35938,2059.4202],[44.20891,14.37672,2165.8049],[44.22028,14.39349,2147.3799],[44.22834,14.41028,2266.8252],[44.22958,14.42362,1928.223],[44.24074,14.44101,1848.0691],[44.25299,14.44356,1912.2739],[44.26927,14.43798,2072.124],[44.31242,14.40349,2056.1179],[44.33092,14.38452,2614.8501],[44.3534,14.37383,2612.3289],[44.40337,14.36091,2526.321],[44.42538,14.34744,2633.3843],[44.45365,14.33897,2491.7329],[44.47721,14.32889,2731.9839],[44.52284,14.2998,2313.5405],[44.5801,14.28125,2281.3081],[44.59824,14.27251,2169.2019],[44.61023,14.26823,2438.8569],[44.63038,14.2766,2492.9783],[44.65379,14.33024,2609.145],[44.69028,14.34845,2448.3354],[44.72397,14.37974,2287.5769],[44.74908,14.4276,2233.9482],[44.76753,14.56896,2330.1211],[44.79254,14.66675,2009.9619],[44.86871,14.75623,1704.2262],[44.86763,14.79049,1810.3887],[44.85709,14.81292,1949.948],[44.81735,14.86762,1913.8326],[44.79874,14.90395,1688.25],[44.78448,14.97154,1934.032],[44.75513,15.01203,2135.7705],[44.73249,15.02678,2062.3481],[44.70733,15.02906,1894.1034],[44.68268,15.02596,2169.8228]]]}}