{"type":"Feature","properties":{"GID_2":"YEM.12.14_1","GID_0":"YEM","country":"Yemen","GID_1":"YEM.12_1","province":"Hadramawt","NL_NAME_1":"حضرموت","county":"GhaylBaWazir","VARNAME_2":"NA","NL_NAME_2":"غيلباوزير","TYPE_2":"Muderiah","ENGTYPE_2":"District","CC_2":"1917","HASC_2":"NA","name":"Ghayl_Ba_Wazir.county"},
"geometry":{"type": "MultiPolygon","coordinates": [[[[49.3939,14.6568,0.0],[49.4185,14.6651,0.0],[49.4313,14.6726,3.7124],[49.4561,14.6832,5.5529],[49.4666,14.7227,20.9299],[49.4677,14.7805,68.6584],[49.4521,14.836,111.2333],[49.3789,14.9559,692.6987],[49.3268,14.9815,882.1362],[49.2759,14.9824,1140.8198],[49.2089,14.9729,1249.5732],[49.1574,14.9739,1232.8613],[49.1254,14.9576,1313.8783],[49.039,14.999,1319.782],[48.9012,15.0546,1304.8698],[48.8176,15.0846,1321.2158],[48.7424,15.104,1312.3763],[48.7128,15.0784,1276.8561],[48.6259,15.0777,1352.0613],[48.608,15.0463,1423.9939],[48.5812,14.9836,1490.8905],[48.5815,14.9711,1521.6963],[48.6345,14.9629,1568.2783],[48.6641,14.9442,1605.9462],[48.6652,14.9451,1610.7552],[48.697,14.9312,1677.4631],[48.7154,14.8961,1686.9796],[48.7295,14.8632,1897.5366],[48.7475,14.8501,1940.4115],[48.8049,14.8398,2005.5361],[48.8355,14.8226,1227.2937],[48.9893,14.79,835.6541],[49.0435,14.7557,956.4645],[49.1498,14.7538,295.395],[49.1803,14.7332,559.5886],[49.2315,14.7207,359.8767],[49.3018,14.6753,34.6884],[49.3048,14.6673,25.3782],[49.3628,14.6742,27.7423],[49.3828,14.6738,16.0595],[49.3939,14.6568,0.0]]]]}}