{"type":"Feature","properties":{"GID_2":"YEM.11.12_1","GID_0":"YEM","country":"Yemen","GID_1":"YEM.11_1","province":"Dhamar","NL_NAME_1":"ذمار","county":"WusabAsSafil","VARNAME_2":"NA","NL_NAME_2":"وصابالسافل","TYPE_2":"Muderiah","ENGTYPE_2":"District","CC_2":"2007","HASC_2":"NA","name":"Wusab_As_Safil.county"},
"geometry":{"type": "MultiPolygon","coordinates": [[[[43.5429,14.1297,344.8919],[43.5523,14.1285,353.4406],[43.5904,14.1292,396.0122],[43.602,14.1242,407.5034],[43.6286,14.1058,479.4872],[43.6435,14.0914,504.325],[43.6732,14.0679,515.8866],[43.6929,14.0663,781.7168],[43.7054,14.0682,592.5052],[43.7188,14.0746,791.2691],[43.7309,14.0849,843.6343],[43.7615,14.1154,691.6556],[43.7786,14.1395,739.103],[43.7835,14.1518,774.1709],[43.7892,14.1928,806.1594],[43.7753,14.1955,837.113],[43.7487,14.2121,940.3634],[43.7401,14.2385,824.2633],[43.7304,14.2563,910.8356],[43.7335,14.2588,963.6115],[43.7237,14.2757,1195.481],[43.7228,14.2823,1245.9611],[43.7251,14.2868,1216.6936],[43.7405,14.2937,1167.6385],[43.7444,14.299,1106.5151],[43.7373,14.3103,1043.5297],[43.7365,14.3209,1203.7761],[43.7332,14.3323,1267.4719],[43.7348,14.341,1342.3497],[43.7324,14.3422,1251.5713],[43.728,14.3408,1288.3777],[43.7224,14.3428,1232.241],[43.7237,14.35,1294.5122],[43.7286,14.35,1408.1173],[43.7216,14.3571,1355.9733],[43.7132,14.3583,1517.8549],[43.7117,14.3619,1501.5942],[43.7121,14.376,1466.0667],[43.7094,14.3871,1329.7842],[43.7055,14.3889,1278.272],[43.6997,14.388,1048.5682],[43.6958,14.3842,959.6575],[43.6858,14.3831,870.0286],[43.677,14.3858,766.5319],[43.6729,14.3918,757.7326],[43.6686,14.3901,811.9955],[43.667,14.3939,767.8453],[43.6701,14.3992,704.09],[43.6676,14.404,762.6078],[43.6689,14.4076,701.8954],[43.6742,14.4031,783.2212],[43.6754,14.4092,784.4692],[43.6482,14.4369,616.3825],[43.6447,14.4431,575.2614],[43.643,14.4326,526.1558],[43.6309,14.4214,512.8517],[43.6175,14.4118,478.1669],[43.6114,14.4094,473.7705],[43.6078,14.4038,475.2801],[43.6013,14.4057,513.2926],[43.5907,14.4009,438.4178],[43.5847,14.3941,427.1106],[43.5765,14.3885,421.9849],[43.5741,14.383,418.3274],[43.5746,14.3762,426.2502],[43.5714,14.3739,394.4099],[43.5624,14.371,385.0573],[43.5445,14.3697,365.9759],[43.5351,14.3776,368.1549],[43.5317,14.3781,368.3669],[43.5181,14.379,347.8483],[43.4758,14.3759,282.98],[43.4763,14.3587,293.5529],[43.4796,14.3408,306.3543],[43.4853,14.3284,361.0364],[43.5012,14.3025,256.1892],[43.5035,14.2955,257.6082],[43.5072,14.2918,278.7284],[43.5117,14.279,276.7327],[43.5164,14.2555,620.8745],[43.5261,14.243,426.0321],[43.532,14.219,374.3931],[43.5298,14.2113,341.1775],[43.5266,14.2074,404.1653],[43.515,14.1986,621.9872],[43.5005,14.1904,464.4528],[43.5007,14.184,447.3002],[43.504,14.1745,378.6886],[43.5188,14.1614,382.7195],[43.5429,14.1297,344.8919]]]]}}