{"type":"Feature","properties":{"GID_2":"YEM.19.6_1","GID_0":"YEM","country":"Yemen","GID_1":"YEM.19_1","province":"San`a'","NL_NAME_1":"صنعاء","county":"BaniDhabyan","VARNAME_2":"NA","NL_NAME_2":"بنيضبيان","TYPE_2":"Muderiah","ENGTYPE_2":"District","CC_2":"2314","HASC_2":"NA","name":"Bani_Dhabyan.county"},
"geometry":{"type": "MultiPolygon","coordinates": [[[[44.908,14.7945,1810.1196],[44.9072,14.857,2118.4766],[44.9101,14.8829,1916.1517],[44.9299,14.9159,1961.1265],[44.9405,14.9297,1653.6908],[44.9426,14.9482,1438.9872],[44.951,14.9694,1509.1228],[44.9737,15.006,1550.2811],[45.0348,15.0764,1425.7959],[45.0573,15.0943,1535.0493],[45.0801,15.1221,1448.7371],[45.1087,15.2857,1243.6711],[44.9672,15.3488,1790.6755],[44.9522,15.3221,1696.2898],[44.9504,15.3225,1696.2898],[44.9335,15.2997,1675.4513],[44.9056,15.2705,1781.4502],[44.8744,15.2543,1627.1842],[44.8444,15.2542,1702.6362],[44.8176,15.265,1860.6256],[44.7847,15.2833,2038.4332],[44.7652,15.2661,1983.5863],[44.7575,15.2423,2080.4785],[44.7653,15.2163,2203.6345],[44.7709,15.1785,2271.9009],[44.7576,15.159,2056.0862],[44.7342,15.1546,1988.9745],[44.6863,15.1351,2201.4568],[44.6634,15.1344,2135.3967],[44.6646,15.1233,2094.9829],[44.6614,15.0965,1949.3518],[44.6484,15.0838,1992.3065],[44.6436,15.0649,2091.8904],[44.635,15.0427,1985.8562],[44.6484,15.0142,2188.4797],[44.6809,15.0181,2186.0986],[44.7022,15.0093,2035.1422],[44.7058,14.9301,1899.6699],[44.7143,14.8622,1905.1202],[44.7505,14.8577,1957.3845],[44.7645,14.8362,1830.6564],[44.7951,14.813,1937.925],[44.815,14.7833,1977.5547999999999],[44.8365,14.7473,1888.5419],[44.8892,14.7904,1748.3057],[44.908,14.7945,1810.1196]]]]}}