{"type":"Feature","properties":{"GID_2":"YEM.20.12_1","GID_0":"YEM","country":"Yemen","GID_1":"YEM.20_1","province":"Shabwah","NL_NAME_1":"شبوة","county":"Mayfa'a","VARNAME_2":"NA","NL_NAME_2":"ميفعه","TYPE_2":"Muderiah","ENGTYPE_2":"District","CC_2":"2116","HASC_2":"NA","name":"Mayfa'a.county"},
"geometry":{"type": "MultiPolygon","coordinates": [[[[47.9123,14.4817,1046.9761],[47.7953,14.5171,1086.3394],[47.5854,14.6315,989.6251],[47.5186,14.5838,1481.6251],[47.486,14.5842,1639.3066],[47.4782,14.5892,1642.549],[47.4602,14.5754,1348.4703],[47.4284,14.5689,1113.0],[47.4123,14.5309,1044.3995],[47.3961,14.4738,764.1567],[47.3682,14.4321,1154.9012],[47.3639,14.394,712.7498],[47.3827,14.3212,784.0341],[47.3819,14.2449,899.2025],[47.3862,14.1642,1149.5894],[47.6983,14.1919,267.3547],[47.972,14.2111,615.4994],[48.0104,14.227,625.9556],[48.1101,14.2491,286.9653],[48.117,14.2539,294.4012],[48.0989,14.3259,861.0732],[47.981,14.4127,1035.538],[47.9332,14.455,1125.8756],[47.9123,14.4817,1046.9761]]]]}}