{"type":"Feature","properties":{"GID_2":"YEM.16.4_1","GID_0":"YEM","country":"Yemen","GID_1":"YEM.16_1","province":"Ma'rib","NL_NAME_1":"مأرب","county":"Harib","VARNAME_2":"NA","NL_NAME_2":"حريب","TYPE_2":"Muderiah","ENGTYPE_2":"District","CC_2":"2609","HASC_2":"NA","name":"Harib.county"},
"geometry":{"type": "MultiPolygon","coordinates": [[[[45.4933,14.8499,1383.5626],[45.5035,14.886,1176.1818],[45.51,14.8932,1179.5294],[45.5124,14.8926,1182.7344],[45.5157,14.8953,1167.2605],[45.5158,14.9091,1160.079],[45.5065,14.9304,1150.7292],[45.5069,14.9379,1150.6959],[45.5117,14.9449,1148.5033],[45.5186,14.9691,1137.0723],[45.5231,14.9793,1136.572],[45.5352,14.9984,1126.1167],[45.5783,15.0807,1098.2087],[45.5054,15.1538,1227.725],[45.472,15.1163,1208.9316],[45.4485,15.1012,1416.7722],[45.424,15.0794,1380.0685],[45.3771,15.0225,1574.9153],[45.3174,14.9647,1599.6794],[45.2881,14.9496,1555.1152],[45.2178,14.8994,1970.7964],[45.1775,14.8683,1944.8608],[45.1581,14.8603,1992.3496],[45.1689,14.832,2002.3179],[45.1955,14.8032,1754.4604],[45.2317,14.7253,1736.2009],[45.2767,14.7236,1906.5764],[45.2841,14.7516,1862.0505],[45.2939,14.763,1889.0521],[45.3074,14.7742,1858.9224],[45.307,14.778,1952.175],[45.294,14.772,1977.3063],[45.2921,14.7733,1969.6962],[45.2913,14.7785,1897.2118],[45.2927,14.784,1827.2294],[45.3067,14.805,1721.7876],[45.3358,14.8328,1515.7891],[45.3533,14.8448,1488.1262],[45.4411,14.8574,1488.8094],[45.486,14.8498,1603.9028],[45.4933,14.8499,1383.5626]]]]}}