{"type":"Feature","properties":{"GID_2":"YEM.20.5_1","GID_0":"YEM","country":"Yemen","GID_1":"YEM.20_1","province":"Shabwah","NL_NAME_1":"شبوة","county":"AsSaid","VARNAME_2":"NA","NL_NAME_2":"الصعيد","TYPE_2":"Muderiah","ENGTYPE_2":"District","CC_2":"2112","HASC_2":"NA","name":"As_Said.county"},
"geometry":{"type": "MultiPolygon","coordinates": [[[[47.0462,14.2056,1230.8256],[47.0346,14.2807,1403.5249],[47.0299,14.3235,1156.2009],[47.0301,14.3483,1101.0961],[47.0219,14.3747,1065.6633],[47.0119,14.383,1526.67],[46.9933,14.3831,1316.4702],[46.9763,14.38,1210.7939],[46.9543,14.3752,1325.8871],[46.9442,14.3704,1330.7864],[46.9306,14.3672,1344.8228],[46.9222,14.3739,1303.0406],[46.902,14.3839,1370.4689],[46.8599,14.3958,1540.2494],[46.8177,14.4116,1276.9952],[46.7646,14.4165,1292.5554],[46.7248,14.4067,1250.3314],[46.7045,14.4035,1246.7762],[46.696,14.3937,1246.0675],[46.6925,14.3756,1246.9055],[46.6955,14.3328,1309.3726],[46.7003,14.2981,1596.4653],[46.7033,14.2421,1686.5823],[46.7029,14.1953,1494.7356],[46.7624,14.2007,1506.1331],[46.7949,14.1903,1039.946],[46.8304,14.1765,1141.4578],[46.8639,14.1686,794.396],[46.9034,14.1625,776.8459],[46.931,14.1622,905.9383],[46.9468,14.1583,895.4764],[46.9664,14.1369,873.0356],[46.9762,14.1368,854.9239],[46.9862,14.1483,844.6938],[46.9963,14.1733,932.3315],[47.0143,14.1963,1174.7499],[47.0381,14.2057,1078.886],[47.0462,14.2056,1230.8256]]]]}}