{"type":"Feature","properties":{"GID_2":"YEM.19.4_1","GID_0":"YEM","country":"Yemen","GID_1":"YEM.19_1","province":"San`a'","NL_NAME_1":"صنعاء","county":"Arhab","VARNAME_2":"NA","NL_NAME_2":"ارحب","TYPE_2":"Muderiah","ENGTYPE_2":"District","CC_2":"2302","HASC_2":"NA","name":"Arhab.county"},
"geometry":{"type": "MultiPolygon","coordinates": [[[[44.3495,16.0455,1741.8979],[44.3379,16.0366,1384.9775],[44.3258,16.0311,1452.9495],[44.2585,16.032,1521.8979],[44.2585,16.0265,1522.2048],[44.2605,16.0228,1532.3014],[44.2551,16.0153,1537.4929],[44.221,15.9951,1611.167],[44.2093,15.9938,1612.8201],[44.1943,15.9958,1624.3894],[44.1772,15.9944,1657.0295],[44.1626,15.9961,1811.4062],[44.1574,15.9939,2143.6411],[44.1562,15.9855,1906.8391],[44.1659,15.9584,2235.3103],[44.1625,15.9334,2667.072],[44.1478,15.9082,2411.3516],[44.1489,15.8716,2682.2644],[44.1772,15.8407,2626.855],[44.1823,15.8329,2625.6074],[44.1808,15.8267,2641.0266],[44.1762,15.822,2700.8],[44.1642,15.8034,2699.5312],[44.143,15.7787,2807.8179],[44.1234,15.7519,2807.55],[44.0987,15.728,2615.2666],[44.0964,15.7183,2603.5845],[44.1009,15.6765,2588.9031],[44.107,15.6569,2585.041],[44.1076,15.6487,2619.2341],[44.1037,15.6439,2666.7964],[44.1155,15.6205,2569.0088],[44.1287,15.5826,2426.4321],[44.1483,15.5716,2282.5325],[44.1781,15.5745,2225.3237],[44.2109,15.5535,2179.365],[44.2232,15.5577,2166.4885],[44.233,15.5583,2161.6772],[44.2342,15.5595,2161.1184],[44.2333,15.5692,2163.6228],[44.2359,15.5714,2167.9302],[44.2603,15.5702,2148.4521],[44.2625,15.5714,2147.5933],[44.2616,15.5782,2145.3125],[44.2634,15.5812,2143.7119],[44.2765,15.5936,2147.8965],[44.2791,15.5998,2200.6301],[44.285,15.6037,2196.5349],[44.3061,15.6117,2076.2246],[44.3191,15.6117,2080.6646],[44.3509,15.5994,2072.197],[44.3744,15.5775,2180.2842],[44.3817,15.5881,2188.6216],[44.3817,15.5924,2183.9121],[44.3608,15.6201,2243.8423],[44.3507,15.6442,2061.4358],[44.3516,15.656,2094.7844],[44.3613,15.6797,2143.2178],[44.3888,15.7192,2167.2922],[44.3968,15.7745,1948.3876],[44.3966,15.8377,1747.9651],[44.3932,15.9055,1513.6765],[44.3913,15.9923,1773.1135],[44.3846,16.0286,1691.0668],[44.3666,16.0428,1494.9636],[44.3495,16.0455,1741.8979]]]]}}