{"type":"Feature","properties":{"GID_2":"YEM.13.14_1","GID_0":"YEM","country":"Yemen","GID_1":"YEM.13_1","province":"Hajjah","NL_NAME_1":"حجه","county":"Hajjah","VARNAME_2":"NA","NL_NAME_2":"حجة","TYPE_2":"Muderiah","ENGTYPE_2":"District","CC_2":"1729","HASC_2":"NA","name":"Hajjah.county"},
"geometry":{"type": "MultiPolygon","coordinates": [[[[43.6554,15.6559,1491.0553],[43.6542,15.6643,1346.0414],[43.6455,15.6688,1742.8339],[43.6463,15.6757,1547.2126],[43.6501,15.679,1504.3328],[43.6532,15.6905,1418.6458],[43.6512,15.6917,1517.4807],[43.6457,15.6922,1552.9802],[43.6375,15.6871,1402.2823],[43.6315,15.6869,1383.6421],[43.6319,15.6821,1366.0664],[43.6303,15.68,1378.3961],[43.6208,15.6803,1555.4432],[43.6208,15.6757,1586.4448],[43.6308,15.6758,1490.4518],[43.6312,15.6677,1531.3064],[43.6237,15.663,1692.5186],[43.6241,15.6461,2305.1321],[43.6068,15.6438,1650.1868],[43.6046,15.6512,1660.6122],[43.6128,15.6545,1890.9688],[43.6127,15.663,1695.6592],[43.5822,15.6643,1151.627],[43.5733,15.6685,951.5992],[43.5568,15.6715,816.2224],[43.5692,15.6543,1083.7877],[43.5697,15.6491,1151.4991],[43.566,15.6432,1279.9249],[43.5652,15.6375,1594.9314],[43.5665,15.6313,1649.8835],[43.5693,15.6282,1617.3059],[43.5697,15.623,1347.3741],[43.574,15.6179,1608.7135],[43.5782,15.6172,1670.2963],[43.5803,15.6187,1606.6196],[43.5806,15.6252,1669.8506],[43.5837,15.6283,1836.2109],[43.5897,15.6308,1768.1418],[43.5952,15.6261,1693.8136],[43.6061,15.6205,1756.8657],[43.6137,15.6105,1534.158],[43.6175,15.6107,1568.9381],[43.6213,15.6081,1452.6147],[43.6271,15.6111,1542.4825],[43.6312,15.6226,1746.9368],[43.6406,15.6246,2042.4836],[43.6401,15.6309,1986.1338],[43.6469,15.6476,1601.8413],[43.6554,15.6559,1491.0553]]],
[[[43.5037,15.6648,662.443],[43.5076,15.6678,642.9623],[43.5076,15.6743,632.8378],[43.4942,15.682,581.3862],[43.4932,15.6884,580.8217],[43.4908,15.6906,608.5427],[43.4825,15.6884,561.4792],[43.4748,15.6913,728.4033],[43.4631,15.7006,486.3159],[43.4586,15.7018,572.557],[43.438,15.7143,469.8729],[43.4373,15.7115,494.7221],[43.4242,15.7034,507.0014],[43.421,15.6989,617.5375],[43.4227,15.6897,620.561],[43.4274,15.6828,617.9265],[43.4471,15.6642,629.4893],[43.4541,15.6484,603.8307],[43.4599,15.6456,627.6302],[43.4666,15.6464,562.0804],[43.4716,15.6533,603.3165],[43.4695,15.6638,631.3408],[43.4709,15.6667,649.0707],[43.4756,15.6696,627.0681],[43.4843,15.6713,615.86],[43.5004,15.663,653.3043],[43.5037,15.6648,662.443]]]]}}