{"type":"Feature","properties":{"GID_2":"YEM.21.15_1","GID_0":"YEM","country":"Yemen","GID_1":"YEM.21_1","province":"Ta`izz","NL_NAME_1":"تعز","county":"Maqbanah","VARNAME_2":"NA","NL_NAME_2":"مقبنة","TYPE_2":"Muderiah","ENGTYPE_2":"District","CC_2":"1505","HASC_2":"NA","name":"Maqbanah.county"},
"geometry":{"type": "MultiPolygon","coordinates": [[[[43.4776,13.7951,190.4337],[43.5032,13.7866,289.839],[43.5037,13.7238,192.4757],[43.5086,13.7235,218.1026],[43.5086,13.713,196.4394],[43.5657,13.6848,364.6231],[43.5797,13.6739,438.298],[43.5852,13.6652,455.5003],[43.5894,13.6248,480.0088],[43.5828,13.5864,366.0763],[43.5988,13.576,499.4988],[43.6177,13.5085,642.3269],[43.641,13.453,550.9125],[43.6562,13.4311,453.4857],[43.6558,13.4218,440.2656],[43.6639,13.4088,430.4524],[43.6785,13.4128,445.8006],[43.6945,13.4233,475.8729],[43.7006,13.4234,489.517],[43.7141,13.4112,623.9471],[43.7208,13.375,982.274],[43.7554,13.3414,720.1732],[43.7571,13.3341,824.9009],[43.7917,13.3278,670.3683],[43.7967,13.3311,612.5802],[43.7976,13.3368,750.769],[43.8059,13.3418,709.3929],[43.8226,13.364,763.2611],[43.8259,13.3739,774.4341],[43.8242,13.3796,729.8815],[43.8183,13.3829,733.9088],[43.8166,13.3902,741.6156],[43.8224,13.4017,828.8821],[43.8382,13.4141,917.3392],[43.8289,13.4346,927.9301],[43.8272,13.437,956.6664],[43.8214,13.437,935.837],[43.8146,13.4493,891.5624],[43.8137,13.4575,1043.0828],[43.8171,13.4624,999.3267],[43.8221,13.4649,1126.8429],[43.8195,13.4698,1087.7383],[43.8137,13.4723,1056.748],[43.8103,13.4763,878.3098],[43.8144,13.4846,887.8387],[43.8102,13.4862,818.7201],[43.8001,13.4968,915.8035],[43.795,13.5058,857.6431],[43.79,13.5099,834.2026],[43.7858,13.5172,815.3282],[43.7891,13.5214,771.5643],[43.805,13.5206,795.5574],[43.8092,13.5247,918.3798],[43.8184,13.5297,1050.7236],[43.8183,13.5445,1078.803],[43.8208,13.5519,1223.2798],[43.8275,13.5576,1099.996],[43.8384,13.561,1212.5576],[43.8459,13.561,1248.7487],[43.8575,13.564,1119.7161],[43.8616,13.5671,1121.2346],[43.8657,13.5668,1195.4663],[43.8657,13.5717,1067.6918],[43.8611,13.58,1097.6902],[43.8389,13.585,1093.3514],[43.8349,13.5922,988.8311],[43.828,13.5974,952.9266],[43.8195,13.6095,1017.4099],[43.8134,13.6141,961.0778],[43.7941,13.619,857.9334],[43.7868,13.619,842.2341],[43.7743,13.6292,798.7115],[43.7663,13.6388,759.7727],[43.7517,13.6624,803.7867],[43.7528,13.681,994.0696],[43.757,13.6932,940.0317],[43.7602,13.6979,933.437],[43.748,13.7117,1071.1115],[43.7418,13.7283,1119.9989],[43.7404,13.7373,1181.4175],[43.7334,13.7488,930.137],[43.7307,13.75,910.6323],[43.7248,13.7615,844.5396],[43.7125,13.7707,1017.7958],[43.7089,13.7707,988.472],[43.7005,13.7671,860.5644],[43.6993,13.7601,937.4429],[43.6897,13.7553,684.8397],[43.6716,13.7576,611.4448],[43.6607,13.7622,672.3147],[43.6205,13.8245,435.731],[43.6265,13.8351,479.3664],[43.6518,13.8424,497.3811],[43.6719,13.8559,589.897],[43.6648,13.8625,679.4715],[43.6548,13.9014,598.0634],[43.6548,13.9144,431.5217],[43.61,13.9147,361.2051],[43.6009,13.9062,341.8627],[43.5798,13.8984,308.4554],[43.5562,13.8952,291.7279],[43.5491,13.899,281.562],[43.5334,13.8974,254.1258],[43.5272,13.8943,253.0553],[43.5115,13.8934,229.5102],[43.4879,13.8871,207.1953],[43.484,13.8825,199.4178],[43.4819,13.8533,180.9673],[43.4694,13.8325,234.9044],[43.4687,13.8202,171.1491],[43.4798,13.805,207.0163],[43.4776,13.7951,190.4337]]]]}}