{"type":"Feature","properties":{"GID_2":"YEM.21.4_1","GID_0":"YEM","country":"Yemen","GID_1":"YEM.21_1","province":"Ta`izz","NL_NAME_1":"تعز","county":"AlMisrakh","VARNAME_2":"NA","NL_NAME_2":"المسراخ","TYPE_2":"Muderiah","ENGTYPE_2":"District","CC_2":"1512","HASC_2":"NA","name":"Al_Misrakh.county"},
"geometry":{"type": "MultiPolygon","coordinates": [[[[44.0526,13.4116,1930.7849],[44.0681,13.4137,2013.24],[44.0826,13.4124,1825.5502],[44.0884,13.4229,1852.7534],[44.0984,13.4263,1775.4221],[44.1026,13.4392,1486.8621],[44.0686,13.4533,1857.376],[44.0573,13.4602,2109.2246],[44.0516,13.4615,2002.85],[44.0448,13.4589,1825.8492],[44.0429,13.4598,1852.9011],[44.0397,13.4704,1611.0298],[44.0464,13.4731,1762.5521],[44.0513,13.4779,2021.2085],[44.0487,13.4887,2261.8872],[44.0436,13.4945,2207.7065],[44.037,13.4946,1989.5271],[44.029,13.4903,1959.6155],[44.0236,13.4848,1784.2018],[44.0209,13.4857,1843.4266],[44.0188,13.4919,1655.3789],[44.02,13.4963,1695.3856],[44.0287,13.5064,2302.9045],[44.0401,13.5106,2541.1099],[44.0414,13.5124,2618.8521],[44.0401,13.5158,2671.7412],[44.0207,13.5177,2220.4968],[43.9915,13.5153,1640.2469],[43.9796,13.5224,1511.3756],[43.9686,13.521,1286.5165],[43.9671,13.5187,1307.0143],[43.9773,13.5077,1547.9163],[43.9844,13.4929,1434.4725],[43.9837,13.4896,1351.2661],[43.9754,13.4852,1374.2397],[43.9762,13.4787,1274.4022],[43.9739,13.4749,1317.5331],[43.9824,13.4735,1230.0554],[43.9865,13.4713,1217.1665],[43.9879,13.4639,1202.74],[43.9905,13.4639,1208.2615],[43.9981,13.4688,1260.0385],[44.0014,13.4678,1246.8019],[44.0014,13.4654,1246.1665],[44.0082,13.4582,1293.2135],[44.0077,13.4495,1264.0272],[44.0107,13.4486,1289.7981],[44.0099,13.4461,1331.3574],[44.0155,13.441,1398.3168],[44.0175,13.4355,1643.845],[44.0188,13.4088,1470.1769],[44.0216,13.4078,1498.3691],[44.0526,13.4116,1930.7849]]],
[[[44.1081,13.5218,1455.3914],[44.1081,13.5245,1410.1071],[44.103,13.5252,1450.3539],[44.0987,13.5227,1589.5885],[44.0932,13.5239,1574.5131],[44.0835,13.5326,1667.4672],[44.0797,13.5214,1970.5503],[44.0712,13.5197,2315.3027],[44.0687,13.5147,2155.1931],[44.0696,13.5114,2023.4136],[44.0747,13.5114,1840.4976],[44.0814,13.5073,1785.6725],[44.0844,13.5032,1879.8718],[44.0844,13.4974,1871.1021],[44.0895,13.4945,1904.4896],[44.0942,13.4953,1714.5164],[44.1005,13.5007,1639.1648],[44.1084,13.5035,1501.3138],[44.1081,13.5218,1455.3914]]]]}}