{"type":"Feature","properties":{"GID_2":"YEM.11.11_1","GID_0":"YEM","country":"Yemen","GID_1":"YEM.11_1","province":"Dhamar","NL_NAME_1":"ذمار","county":"WusabAlAli","VARNAME_2":"NA","NL_NAME_2":"وصابالعالي","TYPE_2":"Muderiah","ENGTYPE_2":"District","CC_2":"2006","HASC_2":"NA","name":"Wusab_Al_Ali.county"},
"geometry":{"type": "MultiPolygon","coordinates": [[[[43.8112,14.48,902.6747],[43.7699,14.4625,1023.2142],[43.7511,14.4578,868.9865],[43.7489,14.451,888.4232],[43.7447,14.4496,801.0063],[43.7317,14.4514,782.1478],[43.7301,14.4537,778.9937],[43.7302,14.4574,888.7745],[43.7272,14.4557,765.3779],[43.7163,14.4704,721.393],[43.7013,14.471,728.1481],[43.6927,14.4675,717.8409],[43.6815,14.4703,766.7579],[43.6629,14.4715,668.074],[43.6561,14.4684,662.9349],[43.65,14.4621,618.0547],[43.6472,14.4613,589.4641],[43.6464,14.4557,595.6395],[43.6485,14.4533,563.4357],[43.6442,14.4433,575.2614],[43.6482,14.4369,616.3825],[43.6754,14.4092,784.4692],[43.6742,14.4031,783.2212],[43.6689,14.4076,701.8954],[43.6676,14.404,762.6078],[43.6701,14.3992,704.09],[43.667,14.3939,767.8453],[43.6686,14.3901,811.9955],[43.6729,14.3918,757.7326],[43.677,14.3858,766.5319],[43.6858,14.3831,870.0286],[43.6958,14.3842,959.6575],[43.6997,14.388,1048.5682],[43.7055,14.3889,1278.272],[43.7094,14.3871,1329.7842],[43.7121,14.376,1466.0667],[43.7117,14.3619,1501.5942],[43.7132,14.3583,1517.8549],[43.7216,14.3571,1355.9733],[43.7286,14.35,1408.1173],[43.7237,14.35,1294.5122],[43.7224,14.3428,1232.241],[43.728,14.3408,1288.3777],[43.7324,14.3422,1251.5713],[43.7348,14.341,1342.3497],[43.7332,14.3323,1267.4719],[43.7365,14.3209,1203.7761],[43.7373,14.3103,1043.5297],[43.7444,14.299,1106.5151],[43.7405,14.2937,1167.6385],[43.7251,14.2868,1216.6936],[43.7226,14.281,1243.6322],[43.7237,14.2757,1195.481],[43.7335,14.2588,963.6115],[43.7304,14.2563,910.8356],[43.7401,14.2385,824.2633],[43.7487,14.2121,940.3634],[43.7753,14.1955,837.113],[43.7892,14.1928,806.1594],[43.8042,14.2286,1084.1899],[43.8199,14.2341,1138.7805],[43.8248,14.2381,1062.2631],[43.8266,14.252,1152.0201],[43.8246,14.2519,1139.9812],[43.8239,14.2469,1303.8263],[43.8213,14.2472,1239.98],[43.8187,14.2487,1282.874],[43.8175,14.2549,1484.7859],[43.8208,14.258,1451.5283],[43.8305,14.2559,1394.5194],[43.8444,14.2506,1109.2563],[43.8473,14.2435,1101.9656],[43.8386,14.2337,1066.3113],[43.83,14.2201,956.9643],[43.8267,14.2105,887.2474],[43.8254,14.2029,877.3881],[43.8291,14.1889,799.5113],[43.8782,14.2095,934.2118],[43.8956,14.2206,1061.0356],[43.9048,14.2265,1492.5459],[43.9133,14.2349,1498.8516],[43.922,14.2488,1356.4548],[43.9293,14.269,1794.502],[43.9316,14.2837,1931.2788],[43.9223,14.3183,1409.6821],[43.9159,14.3283,1458.7854],[43.9107,14.342,1713.6062],[43.9144,14.3472,1453.0411],[43.9193,14.3481,1423.0483],[43.929,14.3463,1382.6992],[43.9322,14.3548,1545.1589],[43.9405,14.3595,1271.6691],[43.9449,14.3785,1446.7704],[43.9421,14.3956,1347.288],[43.9452,14.4009,1319.7662],[43.9371,14.4136,1447.5405],[43.9285,14.4188,1394.9066],[43.9259,14.4236,1476.9602],[43.9212,14.4276,1561.7736],[43.9112,14.42,1794.702],[43.9035,14.4022,1798.9333],[43.8996,14.4029,1768.4443],[43.8915,14.3956,1598.2343],[43.8834,14.3911,1511.9065],[43.8736,14.3926,1598.4224],[43.874,14.3983,1389.356],[43.8542,14.3969,1295.8787],[43.8528,14.4035,1295.6238],[43.8492,14.4079,1394.6047],[43.8469,14.4083,1447.2081],[43.8469,14.4171,1144.2742],[43.8383,14.4289,1070.8119],[43.8341,14.4417,1116.6814],[43.8292,14.4456,1031.5111],[43.8193,14.4457,1024.14],[43.8179,14.4438,1145.2358],[43.8134,14.4459,1254.27],[43.8083,14.4732,970.0857],[43.811,14.4767,918.6049],[43.8112,14.48,902.6747]]]]}}