{"type":"Feature","properties":{"GID_2":"YEM.13.1_1","GID_0":"YEM","country":"Yemen","GID_1":"YEM.13_1","province":"Hajjah","NL_NAME_1":"حجه","county":"Abs","VARNAME_2":"NA","NL_NAME_2":"عبس","TYPE_2":"Muderiah","ENGTYPE_2":"District","CC_2":"1704","HASC_2":"NA","name":"Abs.county"},
"geometry":{"type": "MultiPolygon","coordinates": [[[[42.8093,15.8754,0.0],[42.8068,15.8757,0.0],[42.8088,15.8726,0.0],[42.8099,15.8729,0.0],[42.8093,15.8754,0.0]]],
[[[42.8121,15.8924,0.0],[42.8085,15.8915,0.0],[42.811,15.8882,0.0],[42.8129,15.8907,0.0],[42.8121,15.8924,0.0]]],
[[[42.8813,15.8191,24.4422],[42.8947,15.8198,27.4561],[42.902,15.8172,29.9007],[42.9278,15.8147,38.7521],[42.9458,15.8057,42.7768],[42.9664,15.814,51.4012],[43.012,15.8178,68.3768],[43.0402,15.8225,81.8566],[43.1301,15.8558,125.4472],[43.2116,15.8742,186.3201],[43.2151,15.9311,285.9598],[43.2443,15.9504,237.6395],[43.2639,15.9576,262.4724],[43.2873,15.9575,292.1699],[43.2883,15.9724,279.9354],[43.2825,15.9915,286.6887],[43.2623,16.0158,255.1562],[43.2588,16.0262,278.0931],[43.2518,16.0328,236.2681],[43.233,16.0403,204.9099],[43.2266,16.0464,213.7501],[43.2226,16.0545,336.2319],[43.2275,16.1668,228.3755],[43.2197,16.1895,183.1741],[43.2069,16.215,192.7072],[43.201,16.2226,196.9423],[43.193,16.227,190.6538],[43.1742,16.227,170.8769],[43.1587,16.2373,156.0647],[43.1316,16.2361,125.9356],[43.0753,16.2256,102.1562],[43.0416,16.2095,74.8983],[42.9418,16.199,35.2733],[42.9411,16.1137,37.0282],[42.9339,16.0922,35.6208],[42.9341,16.0707,39.6964],[42.938,16.0502,41.3356],[42.9337,16.0198,39.1813],[42.9247,16.0036,34.5855],[42.922,15.9938,32.5681],[42.9196,15.9914,35.1793],[42.9197,15.9813,31.9612],[42.9146,15.9696,28.1353],[42.8957,15.9576,20.0424],[42.8619,15.9555,11.9594],[42.8605,15.9539,11.8263],[42.8522,15.952,8.4413],[42.8319,15.95,1.7938],[42.8232,15.9528,0.4099],[42.8246,15.9474,0.0],[42.8174,15.9296,0.0],[42.8185,15.9246,0.0],[42.8176,15.9046,0.0],[42.8154,15.9063,0.0],[42.8149,15.9051,0.0],[42.8154,15.9035,0.0],[42.8176,15.9032,0.4876],[42.8143,15.9013,0.0],[42.8165,15.8985,1.7261],[42.8143,15.8965,0.0],[42.8135,15.8857,0.5524],[42.8099,15.8846,0.0],[42.8135,15.8826,0.4906],[42.8135,15.8813,0.6563],[42.8092,15.8682,0.0],[42.8531,15.8427,13.0259],[42.862,15.8406,16.59],[42.8695,15.8272,20.4732],[42.8813,15.8191,24.4422]]]]}}