{"type":"Feature","properties":{"GID_2":"YEM.13.9_1","GID_0":"YEM","country":"Yemen","GID_1":"YEM.13_1","province":"Hajjah","NL_NAME_1":"حجه","county":"AshShahil","VARNAME_2":"NA","NL_NAME_2":"الشاهل","TYPE_2":"Muderiah","ENGTYPE_2":"District","CC_2":"1721","HASC_2":"NA","name":"Ash_Shahil.county"},
"geometry":{"type": "MultiPolygon","coordinates": [[[[43.4225,15.8944,1144.9407],[43.4111,15.891,1150.6871],[43.4009,15.8908,1142.9583],[43.3948,15.8957,1162.2175],[43.3848,15.8973,1155.0242],[43.3828,15.8939,1216.2572],[43.3748,15.8907,1195.5098],[43.3714,15.8844,1193.778],[43.3747,15.8609,840.2031],[43.3833,15.8569,1105.083],[43.3873,15.8517,949.3798],[43.3946,15.8478,1104.4819],[43.4043,15.8329,1093.1532],[43.4094,15.8191,1068.7708],[43.4158,15.8141,1159.9353],[43.4344,15.8142,906.8169],[43.4545,15.8226,1003.6808],[43.4545,15.8317,1068.1826],[43.4613,15.8368,810.9216],[43.4685,15.8356,830.1754],[43.491,15.8207,828.4099],[43.5091,15.8246,1137.3773],[43.5242,15.8565,696.2795],[43.5319,15.869,869.8237],[43.4825,15.8811,987.16],[43.4742,15.8937,1280.6393],[43.469,15.8965,1078.7296],[43.4511,15.8964,1084.0721],[43.4385,15.894,1016.3705],[43.4225,15.8944,1144.9407]]]]}}