{"type":"Feature","properties":{"GID_2":"YEM.10.2_1","GID_0":"YEM","country":"Yemen","GID_1":"YEM.10_1","province":"Amran","NL_NAME_1":"عمران","county":"AlMadan","VARNAME_2":"NA","NL_NAME_2":"المــدان","TYPE_2":"Muderiah","ENGTYPE_2":"District","CC_2":"2906","HASC_2":"NA","name":"Al_Madan.county"},
"geometry":{"type": "MultiPolygon","coordinates": [[[[43.6012,16.1869,1161.0635],[43.6137,16.1715,1388.9894],[43.6311,16.1546,1187.3186],[43.6353,16.1615,1189.7761],[43.661,16.1742,1390.3086],[43.6639,16.1788,1592.8406],[43.6653,16.1857,1813.8676],[43.6628,16.195,2276.1729],[43.6632,16.201,2500.2874],[43.6671,16.2033,2260.5608],[43.6776,16.2043,1916.9119],[43.678,16.2075,1848.6125],[43.6735,16.2347,1718.0192],[43.6783,16.281,1406.9302],[43.6508,16.2937,1340.3372],[43.6443,16.2935,1319.7178],[43.6247,16.3082,1252.03],[43.6159,16.311,1250.9174],[43.6093,16.3081,1226.13],[43.6009,16.2963,1251.5087],[43.6008,16.2749,1307.4734],[43.6041,16.258,1373.1576],[43.6021,16.2483,1213.0206],[43.6038,16.2108,1179.6072],[43.5996,16.1928,1146.1917],[43.6012,16.1869,1161.0635]]]]}}