{"type":"Feature","properties":{"GID_2":"YEM.7.5_1","GID_0":"YEM","country":"Yemen","GID_1":"YEM.7_1","province":"AlMahrah","NL_NAME_1":"المهره","county":"Huswain","VARNAME_2":"NA","NL_NAME_2":"حصوين","TYPE_2":"Muderiah","ENGTYPE_2":"District","CC_2":"2809","HASC_2":"NA","name":"Huswain.county"},
"geometry":{"type": "MultiPolygon","coordinates": [[[[51.6162,16.0052,329.565],[51.6347,15.8716,976.3195],[51.689,15.7393,323.4939],[51.7356,15.6719,175.801],[51.8479,15.4446,6.8756],[51.8499,15.4468,14.7067],[51.8601,15.4468,2.8107],[51.8501,15.4543,0.0],[51.8493,15.4582,31.9504],[51.8526,15.4613,0.0],[51.8543,15.4654,0.0],[51.8471,15.4707,3.437],[51.8554,15.4821,17.3177],[51.8638,15.4865,0.0],[51.8646,15.4899,0.0],[51.8682,15.4929,1.5139],[51.9326,15.5204,0.0],[51.9376,15.5196,1.1219],[51.9418,15.5257,5.0274],[51.9468,15.5285,3.9721],[52.0093,15.5518,3.6886],[52.0951,15.5801,0.0],[52.0982,15.5832,4.2276],[52.1012,15.5826,1.4908],[52.1157,15.5885,0.9934],[52.1207,15.5888,1.972],[52.1738,15.6076,4.0383],[52.1768,15.6074,1.1556],[52.1843,15.6107,2.1073],[52.1865,15.6085,0.0],[52.196,15.609,0.0],[52.1985,15.6132,2.7123],[52.2024,15.6143,14.0578],[52.2073,15.619,36.5886],[52.2007,15.6459,557.4222],[52.1722,15.7364,695.5521],[52.0973,15.7875,651.8942],[51.9725,15.8479,560.2524],[51.8752,15.8664,571.9245],[51.8129,15.9017,536.5361],[51.7459,15.955,445.4048],[51.6792,15.9887,359.8641],[51.6162,16.0052,329.565]]]]}}