{"type":"Feature","properties":{"GID_2":"YEM.5.16_1","GID_0":"YEM","country":"Yemen","GID_1":"YEM.5_1","province":"AlHudaydah","NL_NAME_1":"الحديده","county":"AsSukhnah","VARNAME_2":"NA","NL_NAME_2":"السخنة","TYPE_2":"Muderiah","ENGTYPE_2":"District","CC_2":"1815","HASC_2":"NA","name":"As_Sukhnah.county"},
"geometry":{"type": "MultiPolygon","coordinates": [[[[43.2429,14.6561,84.579],[43.2836,14.6483,92.4291],[43.2831,14.6569,96.9804],[43.2789,14.6723,112.2845],[43.2598,14.7115,104.9803],[43.2604,14.7172,103.3026],[43.2645,14.7201,102.5047],[43.2779,14.7219,106.8303],[43.3036,14.7329,120.2492],[43.326,14.7268,137.3038],[43.3981,14.717,170.9767],[43.4128,14.7211,189.9243],[43.4214,14.7395,196.4084],[43.4273,14.7429,207.764],[43.4355,14.7447,227.5896],[43.4413,14.7442,235.5227],[43.4472,14.7413,243.5637],[43.4531,14.7357,256.8212],[43.4632,14.7203,275.1476],[43.4708,14.7175,278.4746],[43.4726,14.7147,282.3996],[43.4703,14.7061,288.5608],[43.4744,14.7012,301.4901],[43.476,14.7014,305.3898],[43.4888,14.7144,582.7191],[43.5024,14.7202,429.7322],[43.5075,14.7274,374.4528],[43.489,14.762,348.0858],[43.4739,14.8089,341.1047],[43.4704,14.815,346.5596],[43.463,14.8186,301.2168],[43.4428,14.8229,512.083],[43.418,14.8336,195.767],[43.4092,14.8342,190.3886],[43.3939,14.8382,161.7885],[43.3799,14.8448,145.5118],[43.3683,14.8485,136.597],[43.3645,14.8481,134.3452],[43.3367,14.8378,118.5236],[43.3249,14.8272,113.9234],[43.3218,14.8203,111.3631],[43.2691,14.8033,86.6652],[43.2618,14.7991,90.9046],[43.2582,14.7936,89.8109],[43.2539,14.7789,91.0628],[43.2461,14.7722,83.824],[43.2025,14.7506,76.4758],[43.1906,14.7495,67.7941],[43.1832,14.7518,67.6406],[43.1771,14.7507,65.1614],[43.1712,14.7411,70.7544],[43.1667,14.7256,73.0073],[43.1659,14.7139,68.2298],[43.162,14.701,59.8501],[43.1608,14.6886,60.5575],[43.1877,14.6794,64.5787],[43.235,14.6798,98.1973],[43.2479,14.6639,95.1331],[43.2429,14.6561,84.579]]]]}}