{"type":"Feature","properties":{"GID_2":"YEM.17.1_1","GID_0":"YEM","country":"Yemen","GID_1":"YEM.17_1","province":"Raymah","NL_NAME_1":"ريمة","county":"AlJabin","VARNAME_2":"NA","NL_NAME_2":"الجبين","TYPE_2":"Muderiah","ENGTYPE_2":"District","CC_2":"3102","HASC_2":"NA","name":"Al_Jabin.county"},
"geometry":{"type": "MultiPolygon","coordinates": [[[[43.4765,14.6523,300.1209],[43.4763,14.6253,253.4332],[43.4785,14.6193,262.1334],[43.4932,14.5985,293.8174],[43.5006,14.5927,319.2236],[43.5091,14.5935,318.9213],[43.5118,14.6016,556.1363],[43.5143,14.6185,497.979],[43.5179,14.6283,656.6892],[43.5354,14.6287,1146.7422],[43.5423,14.6262,887.1155],[43.5514,14.6263,885.2625],[43.5527,14.6339,1107.3835],[43.5496,14.6389,1143.0602],[43.5509,14.6432,996.1927],[43.5474,14.6473,807.4402],[43.5495,14.6499,869.3239],[43.5573,14.6512,756.6255],[43.5621,14.6445,1075.8531],[43.5669,14.6433,1157.543],[43.5708,14.6395,1372.3591],[43.5803,14.6404,1700.825],[43.5859,14.6459,1878.438],[43.5876,14.6505,1951.3473],[43.5746,14.6597,1166.3165],[43.5741,14.6661,864.7071],[43.5797,14.6695,1078.599],[43.5927,14.6662,1231.4121],[43.5953,14.6628,1385.6057],[43.5947,14.6583,1494.0852],[43.5962,14.6548,1692.3894],[43.6006,14.6536,1877.2178],[43.6084,14.6464,1640.563],[43.6162,14.6441,1295.5977],[43.6319,14.6452,1884.9946],[43.6335,14.6501,1905.4313],[43.6365,14.6514,1990.397],[43.6522,14.652,2628.5786],[43.6668,14.6426,2223.3901],[43.6668,14.6577,2332.7517],[43.6635,14.6659,2413.469],[43.6789,14.671,2170.1851],[43.7032,14.6744,1875.5164],[43.7177,14.6729,1915.8201],[43.7319,14.6674,1953.9706],[43.7436,14.6611,1402.3076],[43.7568,14.65,1398.6238],[43.7698,14.6514,1728.408],[43.7643,14.6671,1463.9156],[43.7508,14.6921,1789.4624],[43.7452,14.6943,1662.1798],[43.7418,14.6975,1701.3839],[43.7405,14.7204,1814.6664],[43.7325,14.7541,1594.1511],[43.7073,14.7862,1540.459],[43.6955,14.7694,1635.8743],[43.6865,14.7605,1811.9897],[43.6758,14.7587,1532.0741],[43.6404,14.786,1307.5918],[43.6298,14.7872,1087.1208],[43.6214,14.7791,862.941],[43.6193,14.779,857.9362],[43.6194,14.772,930.4998],[43.6127,14.7621,1102.8167],[43.6016,14.7555,1328.3392],[43.5848,14.7554,1496.2437],[43.5758,14.7521,1084.4224],[43.5624,14.7509,848.8833],[43.5535,14.7432,726.3518],[43.5526,14.7344,555.95],[43.5312,14.7289,504.9167],[43.5285,14.73,435.2256],[43.5075,14.7274,374.4528],[43.5024,14.7202,429.7322],[43.4888,14.7144,582.7191],[43.4744,14.7012,301.4901],[43.4694,14.6905,294.4004],[43.4765,14.6523,300.1209]]]]}}