{"type":"Feature","properties":{"GID_2":"YEM.18.15_1","GID_0":"YEM","country":"Yemen","GID_1":"YEM.18_1","province":"Sa`dah","NL_NAME_1":"صعدة","county":"Shada'a","VARNAME_2":"NA","NL_NAME_2":"شداء","TYPE_2":"Muderiah","ENGTYPE_2":"District","CC_2":"2206","HASC_2":"NA","name":"Shada'a.county"},
"geometry":{"type": "MultiPolygon","coordinates": [[[[43.1375,16.9106,346.7246],[43.1395,16.902,278.976],[43.1454,16.9001,268.6809],[43.1498,16.8903,279.5718],[43.1516,16.8801,262.1411],[43.176,16.8669,405.9148],[43.1751,16.8579,450.1815],[43.18,16.8491,313.2722],[43.19,16.8483,299.1719],[43.1939,16.8516,337.546],[43.1993,16.8533,361.4243],[43.211,16.8539,505.7072],[43.2148,16.8519,562.4746],[43.2185,16.8456,474.72],[43.2214,16.8459,409.5776],[43.2216,16.8654,635.303],[43.2296,16.8708,547.4428],[43.2351,16.8801,559.1741],[43.2366,16.8863,648.3257],[43.2278,16.8908,619.8884],[43.2109,16.9061,758.3149],[43.2099,16.9253,864.2581],[43.2026,16.9399,925.0839],[43.1947,16.9445,809.2917],[43.1755,16.9369,460.6599],[43.1723,16.9314,421.1721],[43.1542,16.9289,335.0209],[43.1437,16.9246,291.9099],[43.1381,16.9176,419.7208],[43.1375,16.9106,346.7246]]],
[[[43.1866,16.9593,1013.4873],[43.1865,16.9594,1013.4873],[43.1808,16.962,911.7079],[43.1904,16.9574,1045.4412],[43.1866,16.9593,1013.4873]]]]}}