{"type":"Feature","properties":{"GID_1":"YEM.14_1","GID_0":"YEM","country":"Yemen","province":"Ibb","VARNAME_1":"NA","NL_NAME_1":"إب","TYPE_1":"Muhafazah","ENGTYPE_1":"Governorate","CC_1":"11","HASC_1":"YE.IB","ISO_1":"YE-IB","name":"Ibb.province"},
"geometry":{"type": "MultiPolygon","coordinates": [[[[44.2258,13.7358,1455.0273],[44.244,13.7411,1457.1692],[44.2548,13.7385,1464.2782],[44.2636,13.7334,1470.3856],[44.2623,13.7269,1576.6113],[44.2671,13.7132,1464.8347],[44.2761,13.7085,1458.5878],[44.2991,13.7053,1612.2704],[44.3243,13.7064,2183.1069],[44.34,13.7177,1951.2832],[44.3594,13.7381,2001.3995],[44.3665,13.7502,1900.0184],[44.3694,13.7584,1694.1436],[44.3699,13.7696,1599.8485],[44.3806,13.7874,1660.0354],[44.3809,13.7937,1699.92],[44.3763,13.8004,1586.9652],[44.3702,13.8036,1580.2169],[44.3688,13.8081,1573.5619],[44.3688,13.8238,1588.5564],[44.3822,13.8296,1441.0066],[44.396,13.8323,1442.2471],[44.4077,13.8302,1407.9532],[44.4128,13.8352,1399.9136],[44.4117,13.8405,1429.8882],[44.4073,13.8433,1436.1401],[44.4055,13.8472,1443.6333],[44.4054,13.8588,1471.4954],[44.4091,13.8635,1517.6018],[44.4347,13.872,1588.574],[44.434,13.8849,1683.4265],[44.4354,13.8877,1664.1484],[44.4392,13.8882,1657.4397],[44.4416,13.8857,1668.6594],[44.4444,13.887,1634.6104],[44.4487,13.9047,1628.2047],[44.4596,13.9185,1494.3075],[44.46,13.923,1504.9343],[44.4532,13.9307,1554.1997],[44.4499,13.9462,1563.4952],[44.4503,13.95,1612.217],[44.453,13.9541,1610.1638],[44.4594,13.9604,1590.0294],[44.4781,13.9666,1825.4487],[44.4846,13.9728,1810.7556],[44.49,13.9806,2041.4165],[44.5153,13.985,2121.4534],[44.5221,13.9929,2369.3718],[44.5213,13.9936,2369.3718],[44.5389,13.9953,2239.27],[44.5571,13.9865,1945.8817],[44.5607,13.9865,1881.5342],[44.5928,13.9993,2056.9351],[44.6045,14.0076,2360.5806],[44.607,14.0101,2392.3291],[44.5908,14.0162,2129.1379],[44.5795,14.0179,2412.5469],[44.5635,14.0228,2406.6914],[44.553,14.0318,2284.7041],[44.5526,14.0599,2051.6106],[44.5578,14.0674,2015.2701],[44.5685,14.0731,2006.4775],[44.5752,14.0789,1993.5372],[44.5921,14.082,1981.0114],[44.5924,14.0851,2038.5688],[44.5881,14.0932,2389.2903],[44.5996,14.0975,2263.5737],[44.6042,14.101,2246.3994],[44.606,14.1046,2285.7012],[44.605,14.1161,2135.3384],[44.6005,14.1188,2203.364],[44.5925,14.1204,2313.0894],[44.5942,14.1373,2268.4165],[44.5975,14.1399,2279.3777],[44.6044,14.1383,2262.0759],[44.6098,14.1421,2356.9702],[44.6298,14.1339,2313.2009],[44.637,14.1235,2028.3322],[44.6494,14.1252,1995.7593],[44.6601,14.1374,1929.6931],[44.6725,14.1461,2121.2383],[44.6796,14.1617,2096.1492],[44.6815,14.1777,2041.8813],[44.6659,14.1774,2264.0713],[44.6413,14.188,2229.6575],[44.6318,14.197,2277.5164],[44.6231,14.1969,2074.0061],[44.6182,14.2009,2052.6187],[44.6167,14.2064,2043.8752],[44.6185,14.2129,2067.1619],[44.6167,14.2253,2088.1372],[44.6149,14.2274,2081.3633],[44.6148,14.2386,2097.291],[44.6176,14.2466,2166.9053],[44.6175,14.2555,2306.9807],[44.6294,14.2675,2584.9846],[44.6343,14.2817,2414.8853],[44.6343,14.2884,2391.3608],[44.6329,14.2905,2374.0632],[44.6202,14.2945,2388.8145],[44.5856,14.2936,2271.0488],[44.5679,14.2694,2214.6748],[44.5422,14.278,2437.8149],[44.5456,14.2793,2388.2156],[44.5483,14.2917,2239.0537],[44.5401,14.2961,2287.8787],[44.511,14.3005,2387.4312],[44.5032,14.2992,2413.8057],[44.4974,14.3005,2376.189],[44.4787,14.2965,2430.7524],[44.4642,14.316,2495.0498],[44.4499,14.3286,2495.375],[44.4447,14.3412,2595.3027],[44.4356,14.3488,2548.1372],[44.4174,14.3538,2552.9761],[44.3915,14.3562,2539.1736],[44.3695,14.3562,2451.7097],[44.3656,14.3638,2404.678],[44.35,14.3763,2571.8901],[44.3267,14.3813,2495.8853],[44.3163,14.3775,2228.8179],[44.2956,14.3749,2493.2703],[44.2839,14.3875,2096.9194],[44.2727,14.3957,1959.8597],[44.2789,14.4046,1943.0527],[44.2721,14.4136,1874.1879],[44.2536,14.4133,2011.5261],[44.2359,14.4435,1777.208],[44.2182,14.4462,1854.3384],[44.2045,14.4577,1739.2544],[44.1946,14.4593,1674.5839],[44.1892,14.415,2039.3307],[44.1866,14.4049,2115.8557],[44.1815,14.3973,1869.9617],[44.1793,14.3886,1894.4392],[44.1568,14.3829,1851.1144],[44.1519,14.3776,1763.0798],[44.1523,14.3732,1668.0386],[44.1449,14.3715,1498.6692],[44.1383,14.3739,1527.1116],[44.1308,14.3738,1562.2734],[44.1254,14.3706,1493.2225],[44.1128,14.3679,1445.3384],[44.1038,14.3688,1391.5934],[44.0951,14.3641,1308.46],[44.0931,14.3643,1303.7604],[44.094,14.3669,1306.4658],[44.0915,14.3681,1333.3497],[44.088,14.364,1335.1692],[44.086,14.3642,1333.1484],[44.0876,14.3704,1340.8857],[44.0856,14.3738,1316.2849],[44.0755,14.3773,1286.8339],[44.08,14.3976,1342.6394],[44.0782,14.4113,1279.5543],[44.0805,14.43,1396.3877],[44.0772,14.4442,1785.0032],[44.0768,14.4577,1601.0502],[44.0741,14.4647,1477.304],[44.0693,14.4656,1597.3882],[44.0672,14.463,1533.5284],[44.0666,14.458,1470.7476],[44.063,14.4545,1436.9924],[44.0573,14.453,1526.8118],[44.0532,14.4489,1482.447],[44.0484,14.4471,1396.1367],[44.043,14.438,1368.9148],[44.0325,14.4342,1354.2606],[44.0317,14.4272,1316.3757],[44.0188,14.4138,1254.3599],[44.0199,14.4097,1253.5625],[44.0187,14.4031,1217.8915],[44.0139,14.3968,1237.0247],[44.0101,14.3945,1252.7371],[44.0043,14.3937,1268.1294],[43.9982,14.3878,1298.376],[43.9962,14.3817,1272.3541],[43.9929,14.38,1248.2219],[43.9869,14.3814,1233.1455],[43.9762,14.3788,1366.9319],[43.9708,14.3726,1296.3818],[43.9681,14.3659,1199.5702],[43.9693,14.3633,1193.6483],[43.9682,14.3554,1193.5187],[43.9694,14.3449,1153.0062],[43.9642,14.3442,1177.7433],[43.9586,14.3518,1195.0375],[43.9555,14.36,1194.8657],[43.946,14.3608,1275.6265],[43.9397,14.3593,1283.7208],[43.9322,14.3548,1545.1589],[43.929,14.3463,1382.6992],[43.9193,14.3481,1423.0483],[43.9144,14.3472,1453.0411],[43.9107,14.342,1713.6062],[43.9159,14.3283,1458.7854],[43.9223,14.3183,1409.6821],[43.9316,14.2837,1931.2788],[43.9293,14.269,1794.502],[43.922,14.2488,1356.4548],[43.9133,14.2349,1498.8516],[43.9048,14.2265,1492.5459],[43.8782,14.2095,934.2118],[43.8291,14.1889,799.5113],[43.8254,14.2029,877.3881],[43.8267,14.2105,887.2474],[43.83,14.2201,956.9643],[43.8386,14.2337,1066.3113],[43.8473,14.2435,1101.9656],[43.8444,14.2506,1109.2563],[43.8208,14.258,1451.5283],[43.8175,14.2549,1484.7859],[43.8187,14.2487,1282.874],[43.8213,14.2472,1239.98],[43.8239,14.2469,1303.8263],[43.8246,14.2519,1139.9812],[43.8266,14.252,1152.0201],[43.8248,14.2381,1062.2631],[43.8199,14.2341,1138.7805],[43.8042,14.2286,1084.1899],[43.8008,14.2228,929.843],[43.7893,14.1934,806.1594],[43.787,14.1833,773.469],[43.7857,14.1622,755.2367],[43.7786,14.1395,739.103],[43.7615,14.1154,691.6556],[43.7479,14.1027,669.0457],[43.7526,14.1001,621.0996],[43.7564,14.0911,648.7387],[43.7741,14.0703,675.9906],[43.777,14.0572,644.771],[43.7733,14.0499,719.7607],[43.7687,14.0481,701.231],[43.7537,14.0503,628.5629],[43.7449,14.0429,594.4178],[43.736,14.0309,629.9149],[43.7317,14.0209,674.2961],[43.7246,13.9909,701.0323],[43.7231,13.9807,736.077],[43.7257,13.9741,744.1818],[43.7227,13.9708,644.6349],[43.7153,13.9676,631.2817],[43.7125,13.959,649.4777],[43.7088,13.9558,635.2369],[43.7051,13.9567,644.4601],[43.7042,13.9594,641.0315],[43.705,13.9775,597.173],[43.7038,13.9808,596.1937],[43.6886,14.0037,558.9679],[43.6788,14.0055,560.2578],[43.6697,14.0039,588.021],[43.6608,13.9986,561.9329],[43.6525,13.9804,419.4443],[43.6517,13.9677,410.2281],[43.6709,13.9425,542.2317],[43.6825,13.9339,664.5302],[43.7062,13.9295,784.1445],[43.709,13.9263,827.5877],[43.7081,13.92,799.9075],[43.6966,13.9086,1056.4235],[43.6887,13.9104,695.3058],[43.6859,13.9149,719.2897],[43.6775,13.9185,516.2129],[43.6605,13.9209,477.1857],[43.6548,13.9144,431.5217],[43.6548,13.9014,598.0634],[43.6648,13.8625,679.4715],[43.6703,13.8564,507.2119],[43.6803,13.8532,567.6179],[43.6995,13.8531,654.0562],[43.7174,13.8471,697.5632],[43.7395,13.8522,808.9714],[43.7486,13.863,880.6422],[43.7518,13.883,779.7553],[43.7543,13.8873,880.7822],[43.7601,13.8857,859.4581],[43.783,13.8621,846.7958],[43.7847,13.8593,837.8757],[43.7842,13.8565,800.9323],[43.7859,13.8556,816.8309],[43.7841,13.8525,805.5784],[43.7849,13.8497,819.512],[43.7896,13.8486,789.7367],[43.7931,13.8497,790.2099],[43.7985,13.8705,938.2357],[43.8346,13.8786,1050.4559],[43.8403,13.8832,1314.1772],[43.8408,13.8875,1180.2719],[43.8641,13.8908,1469.6093],[43.8695,13.8837,1694.5638],[43.8705,13.8799,1742.4962],[43.8653,13.8776,1576.3575],[43.8626,13.8726,1858.2886],[43.8629,13.87,1933.0149],[43.8695,13.8645,1951.8044],[43.8607,13.8574,1586.0632],[43.8595,13.8447,1436.1301],[43.8478,13.8397,1358.1106],[43.852,13.8299,1162.6287],[43.8584,13.8202,1122.8191],[43.8605,13.8197,1160.3726],[43.8696,13.8282,1257.5195],[43.8741,13.8333,1317.9484],[43.8762,13.8384,1327.7462],[43.8881,13.8436,1457.259],[43.8903,13.846,1612.5903],[43.8894,13.8539,1741.9313],[43.8971,13.856,1952.3247],[43.9018,13.8552,2260.5056],[43.9055,13.8571,2297.4155],[43.9071,13.8663,2368.7417],[43.9097,13.8691,2412.062],[43.915,13.871,2286.2234],[43.9224,13.8704,1999.4365],[43.9281,13.8679,1955.5527],[43.9354,13.8581,2079.4641],[43.938,13.8471,2248.7942],[43.9378,13.8376,2208.7412],[43.9357,13.8273,1935.282],[43.9264,13.8188,1733.6815],[43.9118,13.8232,1703.6863],[43.9091,13.8215,1594.8236],[43.9081,13.8109,1506.8418],[43.9093,13.8017,1258.1379],[43.9382,13.7925,1332.9641],[43.9616,13.7954,1767.7737],[43.9661,13.7941,1757.8577],[43.9673,13.7907,1601.87],[43.9694,13.7898,1624.848],[43.9734,13.7899,1532.5608],[43.9765,13.7925,1544.7583],[43.9817,13.8005,1876.5879],[44.0004,13.7854,1819.2834],[44.0304,13.7703,1569.8995],[44.0396,13.7675,1700.6334],[44.0581,13.7672,1609.9583],[44.0707,13.7695,1621.4757],[44.0853,13.7773,1554.8114],[44.1128,13.7577,1619.647],[44.1283,13.7501,1558.7596],[44.1558,13.7496,1540.415],[44.1689,13.7514,1676.2833],[44.1781,13.7406,1675.5109],[44.1919,13.7197,1440.9546],[44.1978,13.7176,1440.4867],[44.2029,13.718,1440.1665],[44.2111,13.7219,1448.3999],[44.2258,13.7358,1455.0273]]]]}}