{"type":"Feature","properties":{"ISO3166-1-Alpha-3":"YEM","country":"Yemen","fill":"#F00","id":"156","name":"Ibb"},
"geometry":{"type": "Polygon","coordinates": [[[44.61023,14.26823,2438.8569],[44.59824,14.27251,2169.2019],[44.5801,14.28125,2281.3081],[44.52284,14.2998,2313.5405],[44.47721,14.32889,2731.9839],[44.45365,14.33897,2491.7329],[44.42538,14.34744,2633.3843],[44.40337,14.36091,2526.321],[44.3534,14.37383,2612.3289],[44.33092,14.38452,2614.8501],[44.31242,14.40349,2056.1179],[44.26927,14.43798,2072.124],[44.25299,14.44356,1912.2739],[44.24074,14.44101,1848.0691],[44.22958,14.42362,1928.223],[44.22834,14.41028,2266.8252],[44.22028,14.39349,2147.3799],[44.20891,14.37672,2165.8049],[44.16349,14.35938,2059.4202],[44.1377,14.36486,1487.4951],[44.13041,14.37871,1579.6322],[44.11615,14.43072,1540.6245],[44.10153,14.43372,1757.7244],[44.08261,14.42542,1378.5875],[44.05936,14.40036,1231.1726],[44.03156,14.37879,1235.642],[44.00939,14.35101,1241.2399],[43.99853,14.35241,1274.5834],[43.98567,14.35171,1546.2861],[43.96996,14.3446,1153.0062],[43.96252,14.33533,1190.9484],[43.96298,14.31812,1169.0701],[43.97089,14.30207,1122.0399],[43.97368,14.27923,1075.8427],[43.9729,14.25665,1161.9027],[43.94593,14.20849,962.8553],[43.92247,14.19673,919.6155],[43.89596,14.19079,1139.2852],[43.87968,14.19789,815.942],[43.87518,14.21572,1071.0555],[43.87937,14.23696,2099.0747],[43.87425,14.24686,1789.2994],[43.86567,14.24554,1358.7716],[43.85854,14.23014,1361.7242],[43.84273,14.20782,946.6323],[43.8263,14.16539,932.5812],[43.81276,14.1458,794.7084],[43.79756,14.11405,797.4375],[43.80036,14.0864,854.5403],[43.80501,14.06906,731.901],[43.79896,14.04168,804.6855],[43.76046,13.98132,960.9536],[43.74465,13.97152,774.4128],[43.73535,13.9777,688.8342],[43.72,13.98434,659.0886],[43.70181,13.9761,598.327],[43.69824,13.96354,705.5217],[43.71225,13.94584,653.0553],[43.72015,13.93321,686.7137],[43.72217,13.9176,705.1339],[43.71023,13.92008,813.9838],[43.68429,13.91199,641.9545],[43.71178,13.86125,682.8855],[43.77167,13.85923,835.7084],[43.79384,13.87014,868.5691],[43.81927,13.86264,1070.168],[43.83978,13.87161,1304.2498],[43.8865,13.87773,2019.4955],[43.89317,13.86326,1792.1606],[43.89224,13.84523,1735.9066],[43.90076,13.83512,1624.4789],[43.94608,13.85321,2075.145],[43.96097,13.8468,2048.2502],[43.96081,13.82784,2055.3735],[43.956,13.81585,1839.5303],[43.96345,13.80182,2068.5381],[44.07967,13.76929,1595.4313],[44.13057,13.76425,1626.9595],[44.15496,13.74939,1540.415],[44.22989,13.72588,1411.0305],[44.26586,13.725,1521.4065],[44.28575,13.71803,1497.6604],[44.30048,13.71048,1607.2201],[44.32125,13.70301,1973.0333],[44.34533,13.70542,1706.5549],[44.38378,13.73167,1730.6395],[44.39717,13.74658,1493.3826],[44.40693,13.76105,1694.9987],[44.41251,13.78637,1844.5978],[44.41112,13.79254,1527.3752],[44.41872,13.81063,1437.9877],[44.43515,13.82078,1418.2866],[44.45039,13.86065,1570.6877],[44.46202,13.86874,1656.6985],[44.47427,13.8676,1392.9608],[44.48372,13.87285,1569.0441],[44.48574,13.88422,1465.3452],[44.49086,13.90179,1484.4567],[44.49365,13.92031,1521.4215],[44.50967,13.94551,1584.7418],[44.53494,13.9623,1703.3296],[44.56026,13.97235,2115.1792],[44.58413,13.97661,1800.6843],[44.60382,13.97654,2173.1199],[44.62248,13.98101,2211.9175],[44.63193,13.99907,2342.7954],[44.61395,14.01648,2758.4438],[44.60754,14.03705,2357.4905],[44.61503,14.05842,2120.9983],[44.631,14.07434,2011.2202],[44.64154,14.0956,1936.2053],[44.64247,14.10916,1937.8406],[44.65162,14.11733,1932.8455],[44.67214,14.11919,1936.9137],[44.69152,14.11914,1931.7648],[44.70733,14.13012,1968.147],[44.71803,14.16169,2336.5601],[44.68345,14.18265,2048.1953],[44.67167,14.18559,2160.1914],[44.66263,14.2003,2349.5901],[44.66346,14.25665,2755.4404],[44.63038,14.2766,2492.9783],[44.61023,14.26823,2438.8569]]]}}