{"type":"Feature","properties":{"GID_2":"YEM.2.9_1","GID_0":"YEM","country":"Yemen","GID_1":"YEM.2_1","province":"Abyan","NL_NAME_1":"أبين","county":"Sarar","VARNAME_2":"NA","NL_NAME_2":"سرار","TYPE_2":"Muderiah","ENGTYPE_2":"District","CC_2":"1207","HASC_2":"NA","name":"Sarar.county"},
"geometry":{"type": "MultiPolygon","coordinates": [[[[45.51,13.58,844.47],[45.5217,13.6305,855.7845],[45.5068,13.6967,945.5879],[45.4768,13.7336,1129.6592],[45.4525,13.756,1273.368],[45.4134,13.7293,1485.3654],[45.3996,13.7145,1437.0609],[45.3347,13.6683,1767.5394],[45.3186,13.6656,1836.824],[45.3129,13.6688,1857.3269],[45.3058,13.6697,1630.4225],[45.3048,13.6623,1884.2148],[45.2973,13.6591,1995.4574],[45.2873,13.6614,1980.9409],[45.2797,13.661,1812.4121],[45.2757,13.6507,1803.8145],[45.2776,13.6488,1820.7493],[45.2805,13.6535,1932.5947],[45.2828,13.6535,1987.5627],[45.2876,13.6386,1595.3793],[45.2843,13.6367,1539.467],[45.28,13.64,1455.6636],[45.2762,13.6358,1412.6102],[45.2709,13.6195,1326.2212],[45.2407,13.568,699.0122],[45.2136,13.5392,590.3171],[45.19,13.5058,532.5298],[45.1799,13.4787,405.8388],[45.2288,13.4477,417.6325],[45.246,13.4322,669.5381],[45.2575,13.4181,491.5445],[45.2975,13.41,418.6244],[45.3594,13.4392,456.9447],[45.3887,13.4607,505.4428],[45.4291,13.4786,621.8671],[45.4658,13.5036,911.8509],[45.472,13.5251,564.6144],[45.5084,13.5734,729.0677],[45.51,13.58,844.47]]]]}}