{"type":"Feature","properties":{"GID_2":"YEM.21.7_1","GID_0":"YEM","country":"Yemen","GID_1":"YEM.21_1","province":"Ta`izz","NL_NAME_1":"تعز","county":"AlWazi'iyah","VARNAME_2":"NA","NL_NAME_2":"الوازعية","TYPE_2":"Muderiah","ENGTYPE_2":"District","CC_2":"1516","HASC_2":"NA","name":"Al_Wazi'iyah.county"},
"geometry":{"type": "MultiPolygon","coordinates": [[[[43.8644,13.1185,849.1657],[43.8722,13.1314,642.8254],[43.8744,13.1382,760.0873],[43.8686,13.1795,1096.5564],[43.8587,13.1903,1100.5919],[43.8392,13.1945,1087.7852],[43.8152,13.1943,959.6082],[43.8065,13.2028,734.5015],[43.7977,13.222,751.4686],[43.8055,13.2422,767.564],[43.8054,13.2553,643.1414],[43.7904,13.279,670.6683],[43.7818,13.2875,581.5543],[43.7745,13.2994,585.397],[43.7598,13.2899,505.5742],[43.7392,13.2812,489.3994],[43.7241,13.2716,469.5314],[43.6371,13.1697,336.057],[43.6345,13.1555,439.9769],[43.5916,13.1314,228.1587],[43.5852,13.1165,235.8303],[43.6006,13.0782,240.1995],[43.6949,13.0767,604.8041],[43.721,13.0744,526.3896],[43.7485,13.0698,492.5145],[43.7625,13.0707,542.3563],[43.7772,13.081,646.9694],[43.7994,13.1081,773.8882],[43.8128,13.1154,742.3673],[43.8481,13.1224,986.5475],[43.8644,13.1185,849.1657]]]]}}