{"type":"Feature","properties":{"GID_2":"YEM.12.13_1","GID_0":"YEM","country":"Yemen","GID_1":"YEM.12_1","province":"Hadramawt","NL_NAME_1":"حضرموت","county":"Daw'an","VARNAME_2":"NA","NL_NAME_2":"دوعن","TYPE_2":"Muderiah","ENGTYPE_2":"District","CC_2":"1918","HASC_2":"NA","name":"Daw'an.county"},
"geometry":{"type": "MultiPolygon","coordinates": [[[[48.0942,14.7333,1184.4],[48.159,14.6942,1063.905],[48.2376,14.6744,964.9929],[48.2664,14.674,909.4685],[48.33,14.6843,969.509],[48.355,14.6864,1462.2537],[48.4854,14.7431,1243.1346],[48.5306,14.7475,1537.5824],[48.5733,14.8268,1748.7913],[48.583,14.9044,1510.1913],[48.5812,14.9836,1490.8905],[48.608,15.0463,1423.9939],[48.6247,15.0757,1377.7927],[48.5582,15.1803,1227.5232],[48.5261,15.2229,1233.9685],[48.4923,15.2825,1149.157],[48.4392,15.3573,1140.4116],[48.3812,15.4274,1062.3301],[48.2866,15.4092,1104.0453],[48.2068,15.3981,1174.8751],[48.1411,15.3991,1233.6967],[48.132,15.3747,1206.7693],[48.1144,15.3403,1227.2767],[48.0783,15.309,1239.2728],[48.0322,15.2737,1271.7773],[48.0047,15.2464,1260.0344],[47.9914,15.2134,1310.5869],[47.9896,15.1934,1339.942],[48.0366,15.1865,1330.8807],[48.0549,15.1696,1355.9076],[48.0656,15.1252,1393.1877],[48.0682,15.1058,1421.9584],[48.0752,15.0988,1413.0272],[48.084,15.1125,1392.9437],[48.0884,15.1235,1378.0736],[48.0998,15.1234,1406.9795],[48.128,15.1078,1373.8269],[48.1365,15.1008,1373.1927],[48.1278,15.094,1368.9468],[48.132,15.087,1378.1835],[48.1329,15.0538,1451.5023],[48.137,15.0413,1461.1652],[48.1768,15.0352,1382.1638],[48.2076,15.0016,1440.1526],[48.2355,14.9482,1470.3756],[48.2264,14.8834,1567.71],[48.2192,14.8656,1619.5559],[48.2015,14.8359,1631.3271],[48.1801,14.8194,1659.0352],[48.1549,14.8122,1703.4907],[48.1084,14.7904,1519.7782],[48.0947,14.77,1245.5173],[48.0942,14.7333,1184.4]]]]}}