{"type":"Feature","properties":{"GID_2":"YEM.5.24_1","GID_0":"YEM","country":"Yemen","GID_1":"YEM.5_1","province":"AlHudaydah","NL_NAME_1":"الحديده","county":"JabalRa's","VARNAME_2":"NA","NL_NAME_2":"جبلراس","TYPE_2":"Muderiah","ENGTYPE_2":"District","CC_2":"1818","HASC_2":"NA","name":"Jabal_Ra's.county"},
"geometry":{"type": "MultiPolygon","coordinates": [[[[43.479,14.0938,247.9537],[43.4857,14.0823,272.5948],[43.4905,14.0701,303.5682],[43.4958,14.0334,284.3727],[43.4991,14.0271,379.6443],[43.5027,14.0345,527.4825],[43.5147,14.0418,701.9531],[43.5325,14.0377,444.4018],[43.5381,14.0314,396.7468],[43.5456,14.0097,263.7416],[43.5533,13.9731,251.9894],[43.5584,13.9686,270.9385],[43.5728,13.9664,281.9998],[43.5816,13.9619,280.4618],[43.5928,13.9624,314.2953],[43.6007,13.9575,308.3832],[43.6063,13.9455,307.0573],[43.6103,13.9216,350.1882],[43.61,13.9147,361.2051],[43.6548,13.9144,431.5217],[43.6605,13.9209,477.1857],[43.6775,13.9185,516.2129],[43.6859,13.9149,719.2897],[43.6887,13.9104,695.3058],[43.6966,13.9086,1056.4235],[43.7016,13.9127,1021.6598],[43.7081,13.92,799.9075],[43.709,13.9263,827.5877],[43.7062,13.9295,784.1445],[43.6825,13.9339,664.5302],[43.6709,13.9425,542.2317],[43.6517,13.9677,410.2281],[43.6525,13.9804,419.4443],[43.6548,13.9877,433.59],[43.6608,13.9986,561.9329],[43.6643,14.0015,607.7384],[43.6788,14.0055,560.2578],[43.6886,14.0037,558.9679],[43.7038,13.9808,596.1937],[43.705,13.9775,597.173],[43.7042,13.9594,641.0315],[43.7051,13.9567,644.4601],[43.7088,13.9558,635.2369],[43.7125,13.959,649.4777],[43.7153,13.9676,631.2817],[43.7227,13.9708,644.6349],[43.7257,13.9741,744.1818],[43.7231,13.9807,736.077],[43.7246,13.9909,701.0323],[43.7317,14.0209,674.2961],[43.736,14.0309,629.9149],[43.7449,14.0429,594.4178],[43.7537,14.0503,628.5629],[43.7687,14.0481,701.231],[43.7733,14.0499,719.7607],[43.777,14.0572,644.771],[43.7741,14.0703,675.9906],[43.7564,14.0911,648.7387],[43.7526,14.1001,621.0996],[43.7478,14.1028,669.0457],[43.7309,14.0849,843.6343],[43.7188,14.0746,791.2691],[43.7054,14.0682,592.5052],[43.6929,14.0663,781.7168],[43.679,14.0667,593.3646],[43.6732,14.0679,515.8866],[43.6692,14.0707,498.4835],[43.6435,14.0914,504.325],[43.6286,14.1058,479.4872],[43.602,14.1242,407.5034],[43.5904,14.1292,396.0122],[43.5523,14.1285,353.4406],[43.5318,14.1324,332.1026],[43.5216,14.1392,317.7993],[43.5122,14.1513,281.6311],[43.508,14.1531,279.9487],[43.5034,14.1517,289.1971],[43.5016,14.1484,291.2349],[43.4985,14.1474,289.2314],[43.496,14.1339,292.4769],[43.4841,14.1149,270.5484],[43.4791,14.1013,256.3546],[43.479,14.0938,247.9537]]]]}}