{"type":"Feature","properties":{"GID_2":"YEM.7.3_1","GID_0":"YEM","country":"Yemen","GID_1":"YEM.7_1","province":"AlMahrah","NL_NAME_1":"المهره","county":"Hat","VARNAME_2":"NA","NL_NAME_2":"حات","TYPE_2":"Muderiah","ENGTYPE_2":"District","CC_2":"2802","HASC_2":"NA","name":"Hat.county"},
"geometry":{"type": "MultiPolygon","coordinates": [[[[52.0,19.0,311.3847],[51.9103,18.9078,334.0526],[51.677,18.6149,347.4111],[51.5952,18.4067,371.1977],[51.5003,18.2715,393.1469],[51.4946,18.2435,400.8752],[51.4741,17.8997,534.379],[51.4474,17.8108,575.7091],[51.37,17.6111,707.9772],[51.3192,17.5004,769.9373],[51.2193,17.3163,901.407],[51.098,17.1851,971.5366],[51.0601,17.1131,1046.5487],[51.0775,17.1189,1048.5653],[51.2059,17.1201,913.1804],[51.3678,17.0889,1037.7723],[51.5286,16.9566,910.7906],[51.6074,16.8411,710.3657],[51.7045,16.662,518.1454],[51.7886,16.6062,574.411],[51.8406,16.6177,608.3097],[51.9229,16.7046,709.2976],[52.0166,16.8175,963.4055],[52.1297,16.8932,1003.3087],[52.1647,16.9096,975.5511],[52.2096,16.9021,982.76],[52.2294,17.0752,959.1387],[52.2209,17.1533,916.9059],[52.2189,17.3981,702.7975],[52.197,17.7214,627.9862],[52.2001,17.7992,613.9333],[52.1502,18.0012,542.3498],[52.2038,18.3162,392.39],[52.2899,18.3897,390.1743],[52.0,19.0,311.3847]]]]}}