{"type":"Feature","properties":{"GID_2":"YEM.10.12_1","GID_0":"YEM","country":"Yemen","GID_1":"YEM.10_1","province":"Amran","NL_NAME_1":"عمران","county":"IyalSurayh","VARNAME_2":"NA","NL_NAME_2":"عيالسريح","TYPE_2":"Muderiah","ENGTYPE_2":"District","CC_2":"2918","HASC_2":"NA","name":"Iyal_Surayh.county"},
"geometry":{"type": "MultiPolygon","coordinates": [[[[43.8985,15.6255,2619.8228],[43.8932,15.6271,2677.3503],[43.8985,15.5975,2592.9912],[43.912,15.5773,2737.8584],[43.925,15.5854,2416.2258],[43.9381,15.5973,2313.0095],[43.9541,15.6056,2366.1353],[43.9578,15.6056,2351.8677],[43.9616,15.6029,2326.4932],[43.9617,15.5965,2409.5479],[43.9561,15.5846,2467.7705],[43.9561,15.5709,2471.1401],[43.9618,15.5609,2496.8755],[43.9666,15.5573,2500.8435],[43.9998,15.5627,2633.2656],[44.0246,15.5731,2639.0537],[44.0449,15.5856,2643.9194],[44.0624,15.6185,2607.5281],[44.0778,15.6277,2555.3777],[44.0839,15.6411,2578.2473],[44.0706,15.646,2609.7974],[44.0482,15.6635,2647.5925],[44.0319,15.689,2394.7036],[44.0197,15.7134,2244.7688],[44.0206,15.7252,2225.3887],[44.0255,15.7343,2210.3042],[44.0114,15.737,2201.9604],[43.9908,15.7245,2205.0181],[43.9863,15.7045,2211.9614],[43.9742,15.6897,2218.5615],[43.9682,15.6749,2229.7664],[43.9662,15.6582,2269.6145],[43.9623,15.6435,2313.9207],[43.9552,15.6425,2296.0066],[43.9501,15.6484,2280.7969],[43.946,15.6503,2274.2932],[43.941,15.6503,2241.584],[43.9329,15.6453,2304.062],[43.9279,15.6375,2387.332],[43.9178,15.6286,2488.4536],[43.8985,15.6255,2619.8228]]],
[[[43.8258,15.9193,1870.0972],[43.8248,15.9182,1832.4738],[43.8393,15.8917,1738.1775],[43.8455,15.8869,1944.0745],[43.8526,15.887,1960.4237],[43.8592,15.8922,1866.6775],[43.8612,15.8979,2057.9954],[43.8629,15.8983,2053.0981],[43.8949,15.894,2523.2769],[43.9074,15.8949,2596.0625],[43.9093,15.8957,2605.2266],[43.9094,15.9269,2558.8081],[43.9067,15.9338,2514.5564],[43.9098,15.9432,2516.3184],[43.9033,15.9479,2488.7432],[43.8726,15.9446,1842.1135],[43.8548,15.9476,1882.8717],[43.8474,15.9508,1579.9485],[43.8402,15.9429,1583.6295],[43.8321,15.9381,1596.4648],[43.8322,15.9272,1607.6293],[43.8258,15.9193,1870.0972]]]]}}