{"type":"Feature","properties":{"GID_2":"YEM.13.4_1","GID_0":"YEM","country":"Yemen","GID_1":"YEM.13_1","province":"Hajjah","NL_NAME_1":"حجه","county":"AlJamimah","VARNAME_2":"NA","NL_NAME_2":"الجميمة","TYPE_2":"Muderiah","ENGTYPE_2":"District","CC_2":"1708","HASC_2":"NA","name":"Al_Jamimah.county"},
"geometry":{"type": "MultiPolygon","coordinates": [[[[43.5759,16.0973,1192.8633],[43.5173,16.0955,1251.2904],[43.5044,16.0817,1020.424],[43.4879,16.0797,1201.6719],[43.4745,16.0808,1191.5222],[43.4649,16.0866,1221.197],[43.4497,16.0898,1203.7168],[43.4492,16.0959,1156.9187],[43.4396,16.0989,1221.6628],[43.4367,16.097,1217.9497],[43.4335,16.0777,1263.1523],[43.4385,16.0746,1282.0065],[43.4439,16.0623,1459.2739],[43.4555,16.0665,1475.1331],[43.4689,16.0687,1282.0897],[43.4899,16.0678,1584.09],[43.4956,16.0637,1542.2988],[43.4964,16.0558,1583.6437],[43.4912,16.0529,1574.6587],[43.4874,16.046,1395.729],[43.4894,16.0357,1407.2352],[43.4917,16.0345,1486.3582],[43.4958,16.0359,1360.6172],[43.5055,16.0207,1338.6709],[43.5102,16.0024,1572.6638],[43.5145,15.9994,1393.3827],[43.5249,16.0009,1368.3038],[43.5355,15.9969,1308.3867],[43.5451,15.986,1119.4695],[43.5457,15.9774,1088.4791],[43.557,15.9748,1063.2625],[43.5687,15.96,783.5583],[43.5768,15.9579,823.0115],[43.5784,15.9635,819.3411],[43.5784,15.9739,913.8986],[43.5846,15.9779,860.0338],[43.6031,15.9844,935.0966],[43.6167,15.9913,932.5519],[43.6244,16.001,954.2187],[43.6258,16.0146,991.1111],[43.6202,16.0249,1015.8415],[43.6023,16.0424,967.8152],[43.598,16.0583,1020.4293],[43.5965,16.071,1032.0803],[43.5915,16.0806,1068.2632],[43.5759,16.0973,1192.8633]]]]}}