{"type":"Feature","properties":{"GID_2":"YEM.12.6_1","GID_0":"YEM","country":"Yemen","GID_1":"YEM.12_1","province":"Hadramawt","NL_NAME_1":"حضرموت","county":"AlQaf","VARNAME_2":"NA","NL_NAME_2":"القف","TYPE_2":"Muderiah","ENGTYPE_2":"District","CC_2":"1903","HASC_2":"NA","name":"Al_Qaf.county"},
"geometry":{"type": "MultiPolygon","coordinates": [[[[48.5957,18.3651,493.6795],[48.5658,17.1799,858.4229],[48.556,17.1739,824.7947],[48.5177,17.0696,867.0558],[48.4451,16.918,956.1331],[48.2901,16.7214,980.8611],[48.1467,16.6286,1013.9403],[48.2865,16.4678,1028.8798],[48.3421,16.3916,1130.0503],[48.3656,16.3351,1111.8904],[48.3442,16.2341,890.2916],[48.4469,16.2116,1081.4756],[48.5692,16.1772,1073.3257],[48.6604,16.1876,994.1276],[48.7404,16.2162,1018.7517],[48.7579,16.2288,997.8178],[48.7586,16.2626,1041.3127],[48.8006,16.2886,1040.0728],[48.8564,16.3143,1036.3441],[48.8849,16.3605,1028.7961],[48.9531,16.4366,959.6174],[49.0209,16.4637,961.5935],[49.0477,16.4689,939.7783],[49.067,16.4701,946.5466],[49.0822,16.4667,970.0867],[49.1071,16.4646,992.1308],[49.1472,16.4705,996.8817],[49.2206,16.552,1029.252],[49.4098,16.8023,923.6208],[49.5517,16.9761,862.3616],[49.5776,17.0971,823.5795],[49.5831,17.318,716.9359],[49.6428,17.4051,640.4583],[49.6762,17.424,626.2222],[49.7056,17.6168,539.1179],[49.7258,18.3667,382.7912],[49.7253,18.3994,357.4484],[49.7343,18.6803,335.6641],[49.1167,18.6167,396.2437],[48.5957,18.3651,493.6795]]]]}}