{"type":"Feature","properties":{"GID_1":"YEM.17_1","GID_0":"YEM","country":"Yemen","province":"Raymah","VARNAME_1":"NA","NL_NAME_1":"ريمة","TYPE_1":"Muhafazah","ENGTYPE_1":"Governorate","CC_1":"31","HASC_1":"NA","ISO_1":"NA","name":"Raymah.province"},
"geometry":{"type": "MultiPolygon","coordinates": [[[[43.7716,14.4634,1077.5947],[43.8112,14.48,902.6747],[43.8342,14.4961,936.3923],[43.8533,14.4984,1023.0083],[43.8631,14.5036,1090.0334],[43.8721,14.5222,1084.153],[43.8814,14.5292,1046.255],[43.8909,14.5313,1119.3862],[43.8956,14.5454,1177.5295],[43.9061,14.5504,1088.0613],[43.9125,14.5658,1138.7552],[43.9244,14.5809,1180.8572],[43.929,14.5941,1202.3292],[43.9356,14.5975,1187.724],[43.936,14.6037,1251.6483],[43.9296,14.6042,1299.5443],[43.9241,14.6092,1412.0209],[43.9206,14.6181,1296.2925],[43.92,14.6247,1242.6343],[43.9109,14.6297,1279.17],[43.9025,14.6399,1290.3845],[43.9001,14.6599,1214.968],[43.9069,14.6694,1213.1469],[43.9085,14.674,1226.9723],[43.891,14.6922,1191.2133],[43.879,14.7172,1125.3002],[43.8595,14.7296,1056.7209],[43.8357,14.7523,1012.059],[43.8264,14.7544,967.5541],[43.7919,14.7835,962.7756],[43.7692,14.8099,894.4832],[43.7566,14.8329,893.2577],[43.7547,14.8397,862.5012],[43.7348,14.8462,884.7078],[43.7226,14.8462,799.0224],[43.718,14.855,729.6627],[43.718,14.8585,755.463],[43.6764,14.8638,677.6343],[43.6656,14.8961,694.1088],[43.6625,14.9107,684.7122],[43.6408,14.9418,648.2336],[43.6307,14.9341,627.2678],[43.6185,14.9316,598.5975],[43.607,14.9356,668.8032],[43.599,14.9414,600.9141],[43.5846,14.9464,549.6703],[43.57,14.949,496.4912],[43.5713,14.9321,541.2296],[43.5679,14.9135,579.2633],[43.5646,14.9064,600.0964],[43.5517,14.9003,637.9524],[43.5379,14.8876,706.4249],[43.5153,14.8855,1068.6433],[43.5039,14.8809,1212.7175],[43.4874,14.8438,532.9173],[43.4799,14.8334,638.1653],[43.4708,14.8259,441.0358],[43.4684,14.8159,339.244],[43.4739,14.8089,341.1047],[43.489,14.762,348.0858],[43.5075,14.7274,374.4528],[43.5024,14.7202,429.7322],[43.4888,14.7144,582.7191],[43.4744,14.7012,301.4901],[43.4694,14.6905,294.4004],[43.4772,14.646,271.1772],[43.4763,14.6253,253.4332],[43.4785,14.6193,262.1334],[43.4932,14.5985,293.8174],[43.5006,14.5927,319.2236],[43.5093,14.5935,318.9213],[43.5076,14.5781,342.1798],[43.5109,14.5528,337.4427],[43.5247,14.5151,420.0401],[43.5337,14.4802,404.7904],[43.5394,14.4691,472.6817],[43.5453,14.4489,378.203],[43.5468,14.4269,437.9064],[43.5416,14.4002,520.972],[43.5347,14.3776,368.1549],[43.5445,14.3697,365.9759],[43.5624,14.371,385.0573],[43.5746,14.3762,426.2502],[43.5741,14.383,418.3274],[43.5765,14.3885,421.9849],[43.5847,14.3941,427.1106],[43.5907,14.4009,438.4178],[43.6013,14.4057,513.2926],[43.6078,14.4038,475.2801],[43.6114,14.4094,473.7705],[43.6175,14.4118,478.1669],[43.6309,14.4214,512.8517],[43.643,14.4326,526.1558],[43.6442,14.4433,575.2614],[43.6485,14.4533,563.4357],[43.6464,14.4557,595.6395],[43.6472,14.4613,589.4641],[43.65,14.4621,618.0547],[43.6561,14.4684,662.9349],[43.6629,14.4715,668.074],[43.6815,14.4703,766.7579],[43.6927,14.4675,717.8409],[43.7013,14.471,728.1481],[43.7163,14.4704,721.393],[43.7272,14.4557,765.3779],[43.7302,14.4574,888.7745],[43.7301,14.4537,778.9937],[43.7317,14.4514,782.1478],[43.7361,14.45,943.16],[43.7447,14.4496,801.0063],[43.7489,14.451,888.4232],[43.7511,14.4578,868.9865],[43.7716,14.4634,1077.5947]]]]}}