{"type":"Feature","properties":{"ISO3166-1-Alpha-3":"YEM","country":"Yemen","fill":"#FF0","id":"3499","name":"Raymah"},
"geometry":{"type": "Polygon","coordinates": [[[43.67297,14.9217,793.1104],[43.64207,14.93273,648.2928],[43.63153,14.93402,630.5773],[43.62409,14.91971,581.4128],[43.59458,14.88963,628.1741],[43.57582,14.87403,649.061],[43.55691,14.8484,1290.0466],[43.54104,14.80442,839.6368],[43.55381,14.73055,692.7492],[43.549,14.7145,752.5992],[43.53763,14.70021,799.1227],[43.53453,14.68303,809.0309],[43.53608,14.66507,520.8209],[43.53856,14.65011,888.3705],[43.53453,14.6336,1036.0372],[43.53815,14.61441,907.554],[43.57737,14.51356,1036.2388],[43.58001,14.49749,743.1761],[43.59334,14.47242,960.674],[43.59603,14.46036,670.019],[43.59706,14.43436,594.8436],[43.59365,14.41599,678.0621],[43.5583,14.37432,418.1114],[43.58187,14.37514,454.547],[43.59861,14.37731,516.2648],[43.65918,14.40946,901.0848],[43.69313,14.43824,1017.1353],[43.70336,14.45108,1195.1201],[43.72077,14.45819,934.6486],[43.751,14.45927,981.6644],[43.77261,14.45178,1028.7438],[43.78764,14.44966,936.9523],[43.80222,14.4531,1098.884],[43.81322,14.45392,946.2742],[43.83033,14.45803,1221.9636],[43.84475,14.46868,1362.6792],[43.90758,14.50601,1864.8193],[43.92541,14.52278,1450.7042],[43.94252,14.53596,1571.5029],[43.97259,14.57423,1371.1881],[43.98143,14.59875,1470.667],[43.97228,14.61717,1351.0485],[43.95585,14.63846,1279.1256],[43.94515,14.66494,1477.2798],[43.9251,14.69533,1513.4298],[43.85963,14.76659,1649.2526],[43.83653,14.7976,1467.78],[43.82475,14.83235,1049.4607],[43.82397,14.85036,1245.4219],[43.78195,14.86228,1491.0338],[43.77778,14.8727,889.9498],[43.7257,14.87999,1214.9991],[43.71841,14.9102,1116.001],[43.70196,14.9334,968.8967],[43.68817,14.9239,1011.2024],[43.67297,14.9217,793.1104]]]}}