{"type":"Feature","properties":{"GID_2":"YEM.4.1_1","GID_0":"YEM","country":"Yemen","GID_1":"YEM.4_1","province":"AlDali'","NL_NAME_1":"الضالع","county":"AdDhale'e","VARNAME_2":"NA","NL_NAME_2":"الضالع","TYPE_2":"Muderiah","ENGTYPE_2":"District","CC_2":"3006","HASC_2":"NA","name":"Ad_Dhale'e.county"},
"geometry":{"type": "MultiPolygon","coordinates": [[[[44.7607,13.608,1245.199],[44.7773,13.5984,1281.8793],[44.8039,13.5871,962.592],[44.8188,13.5842,934.6416],[44.8375,13.586,813.8669],[44.8286,13.6444,999.4774],[44.8072,13.7243,1366.0691],[44.7978,13.7311,1502.325],[44.7814,13.7515,1442.8788],[44.7599,13.7676,1374.5901],[44.7518,13.7862,1356.1626],[44.7483,13.7907,1344.5286],[44.7391,13.7929,1322.894],[44.7345,13.7963,1315.5969],[44.7253,13.8075,1301.2607],[44.718,13.8124,1297.019],[44.7153,13.8197,1305.9946],[44.7185,13.8308,1304.7979],[44.7142,13.8402,1309.3794],[44.7071,13.8439,1315.8013],[44.6763,13.8422,1260.0083],[44.6602,13.8372,1233.0366],[44.6526,13.8278,1219.8474],[44.6462,13.8253,1209.5565],[44.6347,13.8242,1218.0996],[44.5974,13.8153,1202.2145],[44.5792,13.8135,1194.4385],[44.5682,13.8154,1200.7372],[44.5676,13.8095,1186.915],[44.5642,13.8039,1201.6396],[44.5596,13.7881,1207.5806],[44.5608,13.7488,1471.5625],[44.5589,13.7441,1537.6974],[44.5862,13.7286,1046.3821],[44.5978,13.7178,1194.5542],[44.646,13.744,1359.4751],[44.6538,13.7533,1455.1282],[44.663,13.769,1709.3107],[44.6775,13.7679,1843.1287],[44.6827,13.7617,1860.6423],[44.6966,13.7524,2169.2827],[44.7127,13.7378,1613.6086],[44.715,13.7276,1712.577],[44.7047,13.7186,1662.9875],[44.7026,13.7126,1681.4619],[44.7039,13.7057,1723.9525],[44.7104,13.7029,1671.9475],[44.7162,13.695,1619.1692],[44.7174,13.6881,1540.7986],[44.715,13.6833,1421.948],[44.7473,13.6445,1410.578],[44.7611,13.6242,1590.0491],[44.7607,13.608,1245.199]]]]}}