{"type":"Feature","properties":{"GID_2":"YEM.11.6_1","GID_0":"YEM","country":"Yemen","GID_1":"YEM.11_1","province":"Dhamar","NL_NAME_1":"ذمار","county":"JabalAshsharq","VARNAME_2":"NA","NL_NAME_2":"جبلالشرق","TYPE_2":"Muderiah","ENGTYPE_2":"District","CC_2":"2003","HASC_2":"NA","name":"Jabal_Ashsharq.county"},
"geometry":{"type": "MultiPolygon","coordinates": [[[[44.0547,14.689,1627.3872],[44.0484,14.6957,1601.0614],[44.0457,14.7047,1616.2762],[44.041,14.7057,1581.6899],[44.0341,14.7101,1618.8668],[44.0255,14.7184,1687.0194],[44.0198,14.7167,1716.7632],[44.0144,14.7195,1763.0592],[44.0021,14.7221,1919.7205],[43.9964,14.7265,1965.4141],[43.9878,14.7398,2013.1711],[43.9844,14.7492,1945.9047],[43.9815,14.7492,1910.7944],[43.974,14.7571,1810.7354],[43.9705,14.7676,1875.1987],[43.9666,14.7732,2153.3257],[43.9741,14.781,1914.3392],[43.976,14.7888,1690.5881],[43.9619,14.7956,1960.9072],[43.9619,14.7976,1993.1693],[43.9501,14.7986,1595.7747],[43.9446,14.8062,1530.8738],[43.9297,14.8099,1383.9827],[43.9147,14.8289,1418.3081],[43.8989,14.8631,1129.4103],[43.8856,14.8611,1081.6022],[43.8732,14.8544,1051.2809],[43.8684,14.8482,1047.9463],[43.8608,14.8485,1089.1587],[43.8495,14.8543,1020.6239],[43.8175,14.8604,1019.1223],[43.8042,14.8611,1016.2325],[43.7791,14.8595,1604.6321],[43.7594,14.8547,1003.9938],[43.7547,14.8397,862.5012],[43.7566,14.8329,893.2577],[43.7692,14.8099,894.4832],[43.7919,14.7835,962.7756],[43.8093,14.7675,1005.4932],[43.8264,14.7544,967.5541],[43.8357,14.7523,1012.059],[43.8595,14.7296,1056.7209],[43.879,14.7172,1125.3002],[43.891,14.6922,1191.2133],[43.9085,14.674,1226.9723],[43.9069,14.6694,1213.1469],[43.9001,14.6599,1214.968],[43.9025,14.6399,1290.3845],[43.9109,14.6297,1279.17],[43.92,14.6247,1242.6343],[43.9223,14.612,1392.6311],[43.9296,14.6042,1299.5443],[43.9467,14.6034,1195.226],[43.956,14.5988,1277.3119],[43.9708,14.5961,1295.5974],[43.9862,14.5995,1485.8789],[43.9975,14.6129,1508.646],[44.0105,14.6334,1334.8435],[44.022,14.6362,1346.0999],[44.023,14.6401,1354.0634],[44.0264,14.6435,1385.5989],[44.0361,14.6446,1373.632],[44.0452,14.6408,1428.8777],[44.0578,14.6407,1426.3759],[44.0577,14.6519,1721.6116],[44.055,14.6536,1611.1196],[44.0503,14.6658,1480.1353],[44.0496,14.6763,1600.4258],[44.0547,14.689,1627.3872]]]]}}