{"type":"Feature","properties":{"GID_2":"YEM.5.26_1","GID_0":"YEM","country":"Yemen","GID_1":"YEM.5_1","province":"AlHudaydah","NL_NAME_1":"الحديده","county":"Zabid","VARNAME_2":"NA","NL_NAME_2":"زبيد","TYPE_2":"Muderiah","ENGTYPE_2":"District","CC_2":"1824","HASC_2":"NA","name":"Zabid.county"},
"geometry":{"type": "MultiPolygon","coordinates": [[[[43.4503,14.0071,148.2564],[43.4506,13.9937,156.8388],[43.4566,13.98,169.1205],[43.465,13.9767,176.0611],[43.4848,13.9795,249.7978],[43.4837,13.9955,294.0802],[43.4911,14.0023,330.2198],[43.4934,14.0145,203.1149],[43.4991,14.0271,379.6443],[43.4958,14.0334,284.3727],[43.4905,14.0701,303.5682],[43.4857,14.0823,272.5948],[43.479,14.0938,247.9537],[43.4734,14.0921,241.8921],[43.4625,14.0425,178.3348],[43.4503,14.0071,148.2564]]],
[[[43.4959,14.3041,251.9699],[43.4977,14.3083,253.0578],[43.4853,14.3284,361.0364],[43.4796,14.3408,306.3543],[43.4763,14.3587,293.5529],[43.4754,14.3781,287.243],[43.4729,14.3828,294.3253],[43.4659,14.3844,284.9377],[43.4561,14.3839,270.3886],[43.4159,14.376,216.8632],[43.4087,14.3731,206.2153],[43.3709,14.3658,166.561],[43.3631,14.3657,156.6233],[43.3511,14.3624,143.0319],[43.3414,14.3553,134.4368],[43.3323,14.3433,125.5811],[43.3165,14.3352,112.5381],[43.2583,14.3203,82.866],[43.2471,14.3219,82.5305],[43.2333,14.3173,75.1587],[43.2093,14.3172,70.5079],[43.2013,14.3192,67.9939],[43.1936,14.3191,66.3428],[43.1512,14.3108,56.4781],[43.1405,14.3051,49.5798],[43.1251,14.2808,26.82],[43.1135,14.278,24.4887],[43.1204,14.2616,25.3888],[43.265,14.2193,76.8614],[43.2958,14.2144,94.2024],[43.2962,14.1832,92.0571],[43.3004,14.1741,98.2251],[43.3224,14.1586,114.2957],[43.3323,14.1675,120.4939],[43.3339,14.1712,121.3891],[43.3731,14.1746,157.7606],[43.4037,14.1614,176.9593],[43.4517,14.1645,227.5117],[43.4415,14.195,205.1355],[43.4759,14.216,228.1736],[43.4734,14.2328,220.2253],[43.4728,14.2519,194.8849],[43.4959,14.3041,251.9699]]]]}}