{"type":"Feature","properties":{"GID_2":"YEM.3.18_1","GID_0":"YEM","country":"Yemen","GID_1":"YEM.3_1","province":"AlBayda'","NL_NAME_1":"البيضاء","county":"RadmanAlAwad","VARNAME_2":"NA","NL_NAME_2":"ردمان","TYPE_2":"Muderiah","ENGTYPE_2":"District","CC_2":"1412","HASC_2":"NA","name":"Radman_Al_Awad.county"},
"geometry":{"type": "MultiPolygon","coordinates": [[[[45.3586,14.4134,2033.5015],[45.3634,14.4202,2043.2504],[45.3607,14.423,2034.4861],[45.3521,14.4289,2032.1794],[45.3421,14.4295,2047.3469],[45.3395,14.4284,2052.9111],[45.3336,14.4677,2058.1528],[45.327,14.4936,2047.673],[45.3159,14.5295,2127.8103],[45.3114,14.5328,2117.374],[45.2966,14.5346,2092.1963],[45.2569,14.5576,2083.2612],[45.2481,14.5603,2147.7405],[45.2242,14.5577,2016.6906],[45.1916,14.521,1907.7339],[45.187,14.5068,1852.772],[45.1854,14.4777,1962.1713],[45.2198,14.4181,1924.3409],[45.2131,14.3939,1898.5406],[45.2089,14.3864,1904.0032],[45.2763,14.3818,1971.8495],[45.2815,14.3798,1980.0126],[45.2863,14.383,1962.6661],[45.3115,14.3785,2004.0571],[45.3235,14.3785,2013.0098],[45.3379,14.384,2019.8126],[45.3586,14.4134,2033.5015]]],
[[[45.3148,14.5548,2089.7686],[45.3183,14.5765,2172.501],[45.2916,14.5888,2068.0342],[45.2802,14.5861,2042.875],[45.2764,14.5734,2068.2144],[45.2806,14.569,2069.0957],[45.3039,14.5603,2100.4224],[45.3023,14.5565,2078.2378],[45.3094,14.5576,2093.0425],[45.3148,14.5548,2089.7686]]]]}}