{"type":"Feature","properties":{"GID_2":"YEM.1.8_1","GID_0":"YEM","country":"Yemen","GID_1":"YEM.1_1","province":"`Adan","NL_NAME_1":"عدن","county":"KhurMaksar","VARNAME_2":"NA","NL_NAME_2":"خورمكسر","TYPE_2":"Muderiah","ENGTYPE_2":"District","CC_2":"2408","HASC_2":"NA","name":"Khur_Maksar.county"},
"geometry":{"type": "MultiPolygon","coordinates": [[[[45.0204,12.8107,1.0987],[45.0174,12.8107,0.0],[45.016,12.8085,0.0],[45.0157,12.801,0.4887],[45.0171,12.7999,0.0],[45.0221,12.8099,1.5549],[45.0204,12.8107,1.0987]]],
[[[45.0192,12.8438,1.6082],[45.0204,12.841,1.2102],[45.0248,12.8393,1.7546],[45.0246,12.8357,2.0869],[45.0229,12.8357,1.3838],[45.0199,12.8399,1.6803],[45.0096,12.8374,0.0],[45.0151,12.8324,0.5],[45.0169,12.8324,0.5],[45.0174,12.8343,0.9074],[45.0185,12.8315,1.2936],[45.0179,12.8288,0.5],[45.0121,12.8277,0.0],[45.0118,12.8254,0.0],[45.021,12.8246,3.7624],[45.0221,12.8232,1.2811],[45.0243,12.8149,0.5978],[45.0223,12.8129,0.4101],[45.0263,12.8065,0.0],[45.0237,12.7975,11.2038],[45.03,12.7963,1.6456],[45.0349,12.789,60.1148],[45.0404,12.7889,1.5186],[45.0404,12.8001,1.6028],[45.0446,12.8201,2.9563],[45.0596,12.8654,0.0],[45.0624,12.8687,0.0],[45.0629,12.8727,2.7171],[45.0651,12.8735,0.0],[45.0676,12.8832,1.9834],[45.0782,12.9043,0.0],[45.0988,12.9403,0.0],[45.0776,12.9426,2.7065],[45.0662,12.9404,4.499],[45.045,12.9404,12.7808],[45.0506,12.9135,4.9469],[45.0436,12.8855,1.6824],[45.0312,12.8479,1.3832],[45.0216,12.8476,3.207],[45.0192,12.8438,1.6082]]]]}}