{"type":"Feature","properties":{"GID_2":"YEM.12.24_1","GID_0":"YEM","country":"Yemen","GID_1":"YEM.12_1","province":"Hadramawt","NL_NAME_1":"حضرموت","county":"Sayun","VARNAME_2":"NA","NL_NAME_2":"سيئون","TYPE_2":"Muderiah","ENGTYPE_2":"District","CC_2":"1910","HASC_2":"NA","name":"Sayun.county"},
"geometry":{"type": "MultiPolygon","coordinates": [[[[48.6886,16.1977,1037.4158],[48.7105,16.1664,958.7446],[48.7183,16.1049,1034.8875],[48.7166,16.0375,999.4326],[48.7082,15.9526,826.4129],[48.7031,15.9386,650.7707],[48.6933,15.9283,654.9902],[48.6943,15.9165,662.8332],[48.721,15.878,961.5202],[48.728,15.794,941.7228],[48.746,15.7722,981.3809],[48.7843,15.7375,965.8868],[48.7962,15.7845,966.5629],[48.8346,15.8181,981.6423],[48.8805,15.8486,907.9541],[48.8894,15.8738,914.9768],[48.9205,15.8859,900.2655],[48.9487,15.9188,909.1541],[48.9534,15.9314,766.5847],[48.9649,15.9422,908.3209],[48.9739,15.9678,623.0304],[48.9744,15.9912,616.196],[48.9674,16.0054,657.09],[48.9446,16.0152,712.4999],[48.8858,16.048,958.2534],[48.8548,16.0445,973.1007],[48.8418,16.066,982.7333],[48.8072,16.1092,973.402],[48.7819,16.1285,980.1417],[48.7577,16.2141,1044.1569],[48.7579,16.2288,997.8178],[48.7404,16.2162,1018.7517],[48.6886,16.1977,1037.4158]]]]}}