{"type":"Feature","properties":{"GID_2":"YEM.8.4_1","GID_0":"YEM","country":"Yemen","GID_1":"YEM.8_1","province":"AlMahwit","NL_NAME_1":"المحويت","county":"ArRujum","VARNAME_2":"NA","NL_NAME_2":"الرجم","TYPE_2":"Muderiah","ENGTYPE_2":"District","CC_2":"2703","HASC_2":"NA","name":"Ar_Rujum.county"},
"geometry":{"type": "MultiPolygon","coordinates": [[[[43.5657,15.4512,1827.2926],[43.5731,15.4496,1829.4419],[43.5835,15.4573,2097.781],[43.5901,15.4543,2098.5464],[43.5938,15.4388,1804.2622],[43.6054,15.4043,1534.7897],[43.6359,15.3778,1197.9625],[43.6519,15.3713,1129.9569],[43.6676,15.3613,1144.3799],[43.6696,15.3583,1040.2786],[43.6685,15.3422,974.5667],[43.6808,15.3191,1035.274],[43.6823,15.3095,931.0829],[43.6795,15.2857,898.8674],[43.6818,15.2794,841.8417],[43.6898,15.277,924.8537],[43.7074,15.2847,1116.918],[43.7532,15.3159,1388.3076],[43.7699,15.3315,1093.7852],[43.7532,15.3463,1619.5286],[43.7534,15.3604,1531.545],[43.7576,15.3663,1370.3394],[43.7411,15.4277,2008.7749],[43.748,15.4303,2018.2555],[43.7489,15.4329,2114.7739],[43.7451,15.4337,2059.9609],[43.7443,15.4356,2160.6025],[43.7465,15.4389,2156.6941],[43.7474,15.4463,2333.2393],[43.7453,15.4611,2508.469],[43.7424,15.4659,2576.9937],[43.7359,15.4654,2499.6851],[43.728,15.4589,2281.7793],[43.7189,15.4571,2274.4155],[43.7124,15.4585,2209.8494],[43.7104,15.4641,2206.1179],[43.7064,15.4648,2193.7798],[43.7052,15.4722,2097.7654],[43.6966,15.4722,2199.7134],[43.6926,15.4746,2126.564],[43.6909,15.4869,1939.7042],[43.6706,15.4993,1366.5831],[43.6633,15.5096,1239.9629],[43.6547,15.5265,1053.0182],[43.647,15.5316,1126.3601],[43.6337,15.5358,1029.7407],[43.6284,15.5313,937.1274],[43.6173,15.535,909.0892],[43.6132,15.5408,909.6506],[43.6067,15.5419,900.7194],[43.596,15.5408,835.375],[43.5924,15.5378,984.4224],[43.5837,15.5353,875.5979],[43.5802,15.5426,822.8173],[43.5737,15.5432,750.0839],[43.5757,15.5405,748.88],[43.5745,15.5333,821.1435],[43.5704,15.5307,865.864],[43.5663,15.531,865.6107],[43.563,15.5275,898.8303],[43.5587,15.5265,872.0907],[43.5598,15.5196,1023.0415],[43.5588,15.5134,1435.6855],[43.5563,15.5067,1595.189],[43.5539,15.5067,1576.1365],[43.5513,15.4987,1625.9132],[43.5523,15.4941,1737.4614],[43.5594,15.4861,2219.7058],[43.5592,15.4774,2074.5259],[43.5639,15.4649,1960.5182],[43.563,15.4562,1943.1263],[43.5657,15.4512,1827.2926]]]]}}