{"type":"Feature","properties":{"GID_2":"YEM.3.7_1","GID_0":"YEM","country":"Yemen","GID_1":"YEM.3_1","province":"AlBayda'","NL_NAME_1":"البيضاء","county":"AsSawadiyah","VARNAME_2":"NA","NL_NAME_2":"السوادية","TYPE_2":"Muderiah","ENGTYPE_2":"District","CC_2":"1411","HASC_2":"NA","name":"As_Sawadiyah.county"},
"geometry":{"type": "MultiPolygon","coordinates": [[[[45.285,14.3785,1983.0709],[45.2763,14.3818,1971.8495],[45.2089,14.3864,1904.0032],[45.1894,14.3526,1929.9969],[45.1739,14.3319,1933.8447],[45.2008,14.2266,1959.0968],[45.2008,14.193,1856.3748],[45.2714,14.1936,1921.0226],[45.2871,14.2718,2006.0184],[45.3021,14.3013,2009.239],[45.3056,14.3182,1996.0656],[45.3035,14.3372,1989.877],[45.3075,14.3544,1987.8801],[45.3009,14.3578,1996.0905],[45.2942,14.3643,1986.0822],[45.2903,14.3727,1965.4552],[45.285,14.3785,1983.0709]]],
[[[45.4371,14.482,1912.6182],[45.4501,14.4945,1917.7043],[45.4449,14.4972,1964.2288],[45.4355,14.5906,1926.8903],[45.4358,14.5991,1963.5742],[45.4229,14.6319,2099.4688],[45.4179,14.6352,2066.7742],[45.4025,14.6337,2096.168],[45.3836,14.5965,2134.1035],[45.3733,14.5815,2103.1631],[45.3647,14.5781,2030.0974],[45.3539,14.577,2084.5691],[45.3183,14.5765,2172.501],[45.3114,14.5328,2117.374],[45.3159,14.5295,2127.8103],[45.327,14.4936,2047.673],[45.3336,14.4677,2058.1528],[45.3395,14.4284,2052.9111],[45.3421,14.4295,2047.3469],[45.3521,14.4289,2032.1794],[45.3634,14.4202,2043.2504],[45.3814,14.4285,1999.4915],[45.4371,14.482,1912.6182]]]]}}