{"type":"Feature","properties":{"GID_2":"YEM.13.15_1","GID_0":"YEM","country":"Yemen","GID_1":"YEM.13_1","province":"Hajjah","NL_NAME_1":"حجه","county":"HajjahCity","VARNAME_2":"NA","NL_NAME_2":"مدينةحجة","TYPE_2":"Muderiah","ENGTYPE_2":"District","CC_2":"1728","HASC_2":"NA","name":"Hajjah_City.county"},
"geometry":{"type": "MultiPolygon","coordinates": [[[[43.6315,15.6869,1383.6421],[43.6279,15.691,1299.083],[43.6273,15.7006,1571.7424],[43.6295,15.7059,1433.7413],[43.6293,15.7118,1605.5504],[43.6223,15.7194,1456.1282],[43.607,15.7211,1262.9839],[43.5974,15.7142,1313.2646],[43.5874,15.7096,1505.3438],[43.5713,15.7068,1516.8265],[43.5647,15.7031,1411.5061],[43.5593,15.6985,1195.095],[43.5541,15.6908,1118.9551],[43.5501,15.6796,961.5076],[43.5568,15.6715,816.2224],[43.5733,15.6685,951.5992],[43.5822,15.6643,1151.627],[43.6127,15.663,1695.6592],[43.6128,15.6545,1890.9688],[43.6046,15.6512,1660.6122],[43.6068,15.6438,1650.1868],[43.6241,15.6461,2305.1321],[43.6237,15.663,1692.5186],[43.6312,15.6677,1531.3064],[43.6308,15.6758,1490.4518],[43.6208,15.6757,1586.4448],[43.6208,15.6803,1555.4432],[43.6303,15.68,1378.3961],[43.6319,15.6821,1366.0664],[43.6315,15.6869,1383.6421]]]]}}