{"type":"Feature","properties":{"GID_2":"YEM.14.2_1","GID_0":"YEM","country":"Yemen","GID_1":"YEM.14_1","province":"Ibb","NL_NAME_1":"إب","county":"AlMakhadir","VARNAME_2":"NA","NL_NAME_2":"المخادر","TYPE_2":"Muderiah","ENGTYPE_2":"District","CC_2":"1107","HASC_2":"NA","name":"Al_Makhadir.county"},
"geometry":{"type": "MultiPolygon","coordinates": [[[[44.137,14.1896,1349.9426],[44.135,14.1873,1292.1055],[44.1346,14.1835,1288.1084],[44.1389,14.1814,1295.7498],[44.1381,14.1721,1311.4846],[44.1434,14.1702,1313.0679],[44.1474,14.1625,1351.7915],[44.1475,14.1569,1356.2604],[44.1513,14.1478,1406.5081],[44.1606,14.142,1536.5923],[44.1649,14.1341,1567.4473],[44.164,14.1188,1465.689],[44.1613,14.1109,1447.5409],[44.1615,14.0802,1502.96],[44.1584,14.0732,1523.9875],[44.1576,14.0661,1534.1272],[44.1598,14.0624,1582.8267],[44.1598,14.0583,1680.7655],[44.1665,14.0513,1556.2537],[44.1645,14.048,1590.1931],[44.1652,14.0456,1593.7664],[44.1714,14.0461,1577.2604],[44.1802,14.0497,1599.3134],[44.2,14.0406,1927.1582],[44.218,14.0406,2135.5623],[44.2363,14.0441,2229.9858],[44.2395,14.049,2234.8904],[44.2533,14.0518,2456.6819],[44.2526,14.0551,2459.334],[44.2434,14.0615,2459.4902],[44.2436,14.0666,2646.5427],[44.2387,14.0713,2653.3049],[44.2354,14.0713,2526.5156],[44.2333,14.0737,2471.8503],[44.2345,14.0734,2514.4907],[44.2348,14.0759,2541.9888],[44.2366,14.0769,2571.8984],[44.2466,14.081,2341.1484],[44.2607,14.0847,2607.1047],[44.272,14.0917,3067.9966],[44.2621,14.1022,2810.3979],[44.2528,14.118,2992.2612],[44.2524,14.1492,2818.7053],[44.2443,14.153,2418.9043],[44.2399,14.153,2264.6436],[44.2295,14.1476,2050.5967],[44.2234,14.1481,1796.2926],[44.2223,14.1513,1844.7816],[44.2366,14.1589,2046.366],[44.2416,14.1632,2149.1011],[44.2416,14.1653,2119.2866],[44.2514,14.1734,2451.9102],[44.2618,14.1934,2415.6013],[44.2699,14.1992,2480.6746],[44.2698,14.205,2375.8247],[44.2601,14.2127,2214.9302],[44.2498,14.2157,1882.881],[44.2505,14.2172,1914.9701],[44.2489,14.2172,1914.9701],[44.247,14.2207,1907.2024],[44.2371,14.2269,1758.7998],[44.2216,14.2299,1709.9768],[44.2115,14.2394,1600.8539],[44.2045,14.2399,1589.2147],[44.1889,14.2268,1523.0588],[44.16,14.2188,1390.292],[44.1584,14.215,1429.5063],[44.1514,14.2112,1395.3055],[44.1484,14.2074,1398.8654],[44.1485,14.2037,1362.9292],[44.152,14.1962,1371.004],[44.137,14.1896,1349.9426]]]]}}