{"type":"Feature","properties":{"GID_2":"YEM.3.16_1","GID_0":"YEM","country":"Yemen","GID_1":"YEM.3_1","province":"AlBayda'","NL_NAME_1":"البيضاء","county":"Nati'","VARNAME_2":"NA","NL_NAME_2":"ناطع","TYPE_2":"Muderiah","ENGTYPE_2":"District","CC_2":"1402","HASC_2":"NA","name":"Nati'.county"},
"geometry":{"type": "MultiPolygon","coordinates": [[[[45.4887,14.3878,1895.6001],[45.5294,14.4034,1487.8557],[45.5483,14.4149,1525.0287],[45.5665,14.4315,1469.9242],[45.5849,14.4373,1384.4342],[45.599,14.4457,1491.7887],[45.6516,14.4887,1410.103],[45.685,14.5524,1726.5492],[45.6826,14.5727,1343.6774],[45.6826,14.5953,1490.167],[45.6644,14.5916,1394.7734],[45.6557,14.5922,1286.8727],[45.6511,14.5949,1255.3206],[45.646,14.6011,1463.0803],[45.6497,14.6203,1408.1248],[45.6502,14.6706,1682.0084],[45.6548,14.676,1551.323],[45.6651,14.6948,1325.9159],[45.6559,14.7159,1488.9136],[45.6516,14.7196,1383.5974],[45.645,14.7201,1239.3535],[45.6284,14.7153,1224.5933],[45.6179,14.7153,1380.448],[45.6089,14.7135,1715.9048],[45.602,14.7001,1410.0587],[45.6102,14.6967,1260.0388],[45.6171,14.6967,1241.1471],[45.6218,14.6933,1472.1099],[45.6182,14.6786,1555.6825],[45.6089,14.6537,1839.167],[45.5949,14.6379,1801.384],[45.5751,14.6243,1365.3138],[45.554,14.5791,1567.5635],[45.5415,14.5401,1758.6541],[45.5166,14.5026,1778.2466],[45.4999,14.4819,1849.5435],[45.4876,14.4751,1911.0026],[45.4849,14.4082,1959.3546],[45.4887,14.3878,1895.6001]]]]}}