{"type":"Feature","properties":{"GID_2":"YEM.13.19_1","GID_0":"YEM","country":"Yemen","GID_1":"YEM.13_1","province":"Hajjah","NL_NAME_1":"حجه","county":"Ku'aydinah","VARNAME_2":"NA","NL_NAME_2":"كعيدنه","TYPE_2":"Muderiah","ENGTYPE_2":"District","CC_2":"1722","HASC_2":"NA","name":"Ku'aydinah.county"},
"geometry":{"type": "MultiPolygon","coordinates": [[[[43.2386,15.6812,186.4907],[43.2663,15.6789,237.6163],[43.2686,15.6841,306.0532],[43.2673,15.6889,362.5364],[43.2697,15.6944,457.5264],[43.2737,15.729,510.4003],[43.2913,15.7427,459.3354],[43.3166,15.7526,556.4927],[43.3323,15.7508,430.4733],[43.3361,15.7463,431.2126],[43.3584,15.7327,451.5525],[43.367,15.7319,473.0443],[43.3741,15.7357,571.8139],[43.3743,15.742,426.9344],[43.3698,15.7523,623.5648],[43.3698,15.7566,555.3451],[43.3736,15.7612,560.3978],[43.3926,15.7585,466.002],[43.444,15.7308,553.9383],[43.4478,15.7348,612.3594],[43.4574,15.74,539.774],[43.4706,15.7366,570.6477],[43.477,15.7379,523.6397],[43.4822,15.7354,554.2332],[43.4931,15.7368,743.2999],[43.4934,15.7421,813.4057],[43.4915,15.7471,625.9377],[43.485,15.7523,568.553],[43.4826,15.7657,544.4529],[43.4832,15.776,486.7597],[43.4993,15.7792,581.1664],[43.506,15.7888,538.0547],[43.5081,15.8245,1137.3773],[43.491,15.8207,828.4099],[43.4685,15.8356,830.1754],[43.4613,15.8368,810.9216],[43.4545,15.8317,1068.1826],[43.4545,15.8226,1003.6808],[43.4344,15.8142,906.8169],[43.4158,15.8141,1159.9353],[43.4094,15.8191,1068.7708],[43.4043,15.8329,1093.1532],[43.3946,15.8478,1104.4819],[43.3873,15.8517,949.3798],[43.3833,15.8569,1105.083],[43.3745,15.861,840.2031],[43.3707,15.8587,1017.4409],[43.3607,15.8579,1115.538],[43.3416,15.8691,602.0162],[43.3358,15.8765,597.3219],[43.3255,15.879,522.946],[43.3235,15.8826,550.2939],[43.3114,15.8844,465.1789],[43.305,15.8917,451.5179],[43.3019,15.9056,539.8995],[43.3014,15.9314,338.3101],[43.3027,15.9513,317.7319],[43.294,15.9564,308.2046],[43.2639,15.9576,262.4724],[43.2443,15.9504,237.6395],[43.2151,15.9311,285.9598],[43.2116,15.8742,186.3201],[43.2208,15.8763,190.6943],[43.2391,15.874,239.5746],[43.2431,15.8692,217.8885],[43.245,15.8193,213.7286],[43.2397,15.7666,222.4087],[43.2355,15.7579,182.8202],[43.2238,15.7433,174.8739],[43.2139,15.7248,166.6545],[43.2148,15.712,171.6916],[43.2245,15.6986,173.174],[43.2365,15.6862,185.156],[43.2386,15.6812,186.4907]]]]}}