{"type":"Feature","properties":{"GID_2":"YEM.5.2_1","GID_0":"YEM","country":"Yemen","GID_1":"YEM.5_1","province":"AlHudaydah","NL_NAME_1":"الحديده","county":"AdDurayhimi","VARNAME_2":"NA","NL_NAME_2":"الدريهمي","TYPE_2":"Muderiah","ENGTYPE_2":"District","CC_2":"1814","HASC_2":"NA","name":"Ad_Durayhimi.county"},
"geometry":{"type": "MultiPolygon","coordinates": [[[[42.9357,14.6001,1.0214],[42.9299,14.5999,0.2887],[42.929,14.5985,0.0],[42.9332,14.5971,0.4234],[42.9357,14.6001,1.0214]]],
[[[43.0687,14.7967,38.4753],[43.0593,14.7907,33.8238],[43.0504,14.7601,28.1417],[43.0323,14.7372,21.701],[42.9576,14.7212,0.1377],[42.958,14.723,0.0],[42.9513,14.7302,0.0],[42.95,14.7376,0.0],[42.9467,14.7424,0.0],[42.9513,14.7477,0.0],[42.9504,14.7507,0.0],[42.9465,14.744,0.0],[42.9471,14.7371,0.0],[42.9454,14.7351,0.0],[42.9493,14.7274,0.0],[42.9476,14.7232,0.0],[42.949,14.7168,0.0],[42.954,14.7065,0.0],[42.9554,14.7071,0.3677],[42.9565,14.7026,0.0],[42.9626,14.6974,1.1027],[42.9671,14.6893,0.4753],[42.9651,14.6771,0.0],[42.9668,14.6751,0.0],[42.9726,14.674,0.2091],[42.9746,14.6701,0.0],[42.9826,14.6635,0.0],[42.9846,14.6593,0.2284],[42.984,14.6487,0.6849],[42.981,14.6363,0.0],[42.9824,14.6271,0.0],[42.9868,14.6163,0.2174],[42.9865,14.6126,0.0],[42.9907,14.6088,0.2094],[42.991,14.6029,0.0],[42.9896,14.6032,0.0],[42.9893,14.5999,0.0],[42.9924,14.5938,0.0],[42.991,14.5938,0.0],[42.9901,14.591,0.0],[42.9968,14.5821,0.0],[42.9946,14.5801,0.0],[42.9974,14.5763,0.0],[43.0004,14.5754,0.0],[43.0024,14.5715,0.0],[43.0004,14.566,0.0],[42.9971,14.5626,0.0],[42.9879,14.5643,0.0],[42.9874,14.5612,0.0],[42.9896,14.5579,0.0],[43.0021,14.5554,0.0],[43.0049,14.5474,0.0],[43.0104,14.5463,0.0],[43.0135,14.541,0.0],[43.0143,14.5349,0.0],[43.0126,14.5293,0.0],[43.0065,14.521,0.0],[43.0018,14.5204,0.2309],[43.0015,14.5179,0.0],[43.0035,14.5182,0.0],[43.0065,14.5146,0.0],[43.0082,14.506,0.0],[42.9968,14.4943,0.0],[43.0035,14.4954,0.0],[43.0099,14.4935,0.0],[43.0143,14.4901,3.4461],[43.0149,14.4865,1.7789],[43.0099,14.4785,0.0],[43.0029,14.4788,0.0],[43.0051,14.4735,0.0],[43.0004,14.4796,0.0],[42.9949,14.4771,0.0],[42.9946,14.4749,0.0],[42.9957,14.4735,0.0],[43.0013,14.4757,0.0],[43.0062,14.4713,0.0],[43.009,14.4718,0.0],[43.0132,14.4643,0.0],[43.0185,14.4626,5.9871],[43.0196,14.459,0.0],[43.0176,14.4471,0.0],[43.0135,14.4449,0.0],[43.0171,14.4421,3.1405],[43.0176,14.4371,0.0],[43.0137,14.436,0.0],[43.0104,14.4374,0.0],[43.0082,14.4421,0.0],[43.0082,14.4476,0.0],[43.0054,14.4504,0.2549],[43.0026,14.4693,0.0],[42.994,14.4715,0.6424],[42.9924,14.4763,0.0],[42.989,14.479,0.0],[42.9899,14.4812,0.0],[42.9879,14.484,0.0],[42.9901,14.4893,0.0],[42.9738,14.4899,0.455],[42.9738,14.4963,0.0],[42.9724,14.4963,0.5905],[42.9696,14.5018,0.2815],[42.9701,14.5251,0.0],[42.9682,14.5246,0.7749],[42.9665,14.5293,0.7762],[42.9701,14.5324,0.0],[42.9593,14.5329,0.333],[42.9596,14.5349,0.4139],[42.9524,14.5374,0.0],[42.9499,14.5421,0.0],[42.9499,14.5582,0.0],[42.9518,14.5621,0.0],[42.9471,14.566,0.0],[42.9529,14.5754,0.0],[42.9479,14.5715,0.0],[42.9468,14.5674,0.3821],[42.944,14.5671,0.7976],[42.941,14.5588,0.0],[42.9432,14.5418,0.0],[42.9435,14.5404,0.0],[42.9601,14.5307,0.0],[42.964,14.526,1.005],[42.9679,14.514,0.842],[42.9668,14.5074,0.0],[42.971,14.4988,0.0],[42.9704,14.496,0.1679],[42.9732,14.4882,0.8253],[42.9729,14.4821,0.7722],[42.984,14.4646,0.7438],[42.9843,14.4496,0.0],[42.9921,14.4379,1.138],[42.9921,14.4307,0.0],[42.9965,14.4174,1.0795],[42.9957,14.411,0.6109],[42.9974,14.3976,0.0],[43.0104,14.3787,0.0],[43.0312,14.3908,14.8306],[43.0515,14.412,22.8073],[43.0786,14.4591,29.9507],[43.1044,14.5197,30.7427],[43.1339,14.5605,45.289],[43.143,14.5664,47.0499],[43.2163,14.5711,81.5377],[43.2418,14.5819,79.7197],[43.2394,14.6016,64.5866],[43.2464,14.6354,72.4891],[43.2397,14.6357,71.3842],[43.2429,14.6561,84.579],[43.2479,14.6639,95.1331],[43.235,14.6798,98.1973],[43.1877,14.6794,64.5787],[43.1288,14.6996,47.4791],[43.1205,14.7117,49.3938],[43.1236,14.7377,41.3791],[43.1299,14.7589,44.0689],[43.1249,14.77,45.2757],[43.1134,14.7768,45.3746],[43.104,14.7984,45.3281],[43.0976,14.8038,44.0925],[43.0839,14.8018,40.0991],[43.0746,14.8078,39.376],[43.0771,14.8297,43.668],[43.0716,14.831,43.5524],[43.0581,14.8282,36.9416],[43.065,14.8184,38.5286],[43.0728,14.802,37.594],[43.0735,14.7988,37.859],[43.0687,14.7967,38.4753]]],
[[[42.9185,14.624,0.0],[42.9121,14.6215,0.5107],[42.9074,14.6221,0.0],[42.9049,14.6263,0.6161],[42.9079,14.6304,0.0],[42.9068,14.6324,0.634],[42.9007,14.6321,1.0755],[42.8985,14.6293,0.0],[42.8988,14.6237,0.0],[42.9043,14.6149,0.0],[42.921,14.6024,0.0],[42.9276,14.5993,0.0],[42.9285,14.6024,0.5721],[42.9304,14.6012,0.0],[42.931,14.6046,0.5456],[42.9374,14.6082,0.1275],[42.9418,14.6085,0.0],[42.944,14.6121,0.1102],[42.9435,14.6126,0.1102],[42.9296,14.6076,0.4367],[42.9207,14.6085,0.3915],[42.9171,14.6104,0.0],[42.9176,14.6121,0.1473],[42.9201,14.6124,0.0],[42.9199,14.6138,0.0],[42.9151,14.6146,0.0],[42.919,14.6204,0.0],[42.9176,14.6226,0.0],[42.9185,14.624,0.0]]],
[[[42.919,14.6246,0.0],[42.9221,14.6243,0.0],[42.9232,14.6263,0.0],[42.9279,14.6279,0.0],[42.9343,14.6285,0.0],[42.9274,14.629,0.0],[42.919,14.6246,0.0]]]]}}