{"type":"Feature","properties":{"GID_2":"YEM.17.5_1","GID_0":"YEM","country":"Yemen","GID_1":"YEM.17_1","province":"Raymah","NL_NAME_1":"ريمة","county":"Kusmah","VARNAME_2":"NA","NL_NAME_2":"كسمه","TYPE_2":"Muderiah","ENGTYPE_2":"District","CC_2":"3104","HASC_2":"NA","name":"Kusmah.county"},
"geometry":{"type": "MultiPolygon","coordinates": [[[[43.7806,14.4673,1002.6592],[43.7718,14.4828,1180.5725],[43.7657,14.4891,1095.6522],[43.7553,14.4918,1177.9877],[43.7463,14.4974,1228.901],[43.7411,14.5134,1449.0446],[43.7361,14.5235,1402.0518],[43.7205,14.5455,1478.9696],[43.6984,14.5685,1333.4541],[43.7013,14.5711,1368.0588],[43.7009,14.5741,1348.0939],[43.693,14.586,1527.7637],[43.6874,14.5885,1590.54],[43.6733,14.5993,1800.3678],[43.6695,14.6062,1735.1682],[43.6598,14.6098,1790.1802],[43.6524,14.6195,2002.2456],[43.6465,14.6331,2405.9746],[43.6371,14.6416,2241.6619],[43.6371,14.6443,2128.6931],[43.6134,14.6448,1271.7069],[43.6134,14.6409,1531.6616],[43.607,14.6377,1254.8562],[43.6042,14.6324,1059.2852],[43.5867,14.6194,866.0856],[43.586,14.6144,832.4645],[43.5886,14.606,1105.5669],[43.5927,14.6008,857.5654],[43.5967,14.5987,982.449],[43.5982,14.5914,1056.1605],[43.6048,14.5823,1230.9532],[43.6039,14.5744,1362.8005],[43.5976,14.571,1537.3134],[43.594,14.5653,1774.377],[43.5935,14.5541,2032.4796],[43.5969,14.5499,1580.5845],[43.6094,14.5543,2246.5569],[43.6125,14.5516,2044.7462],[43.6123,14.546,1786.6172],[43.6092,14.5373,1516.0342],[43.6088,14.5257,1337.9803],[43.6102,14.5219,1336.4407],[43.6137,14.5203,1160.9199],[43.6211,14.5052,1016.1651],[43.6301,14.5008,799.1842],[43.6423,14.4903,800.7784],[43.6558,14.468,673.1247],[43.6629,14.4715,668.074],[43.6815,14.4703,766.7579],[43.6927,14.4675,717.8409],[43.7013,14.471,728.1481],[43.7163,14.4704,721.393],[43.7272,14.4557,765.3779],[43.7302,14.4574,888.7745],[43.7301,14.4537,778.9937],[43.7317,14.4514,782.1478],[43.7447,14.4496,801.0063],[43.7489,14.451,888.4232],[43.7511,14.4578,868.9865],[43.7699,14.4625,1023.2142],[43.7806,14.4673,1002.6592]]]]}}