{"type":"Feature","properties":{"GID_2":"YEM.5.21_1","GID_0":"YEM","country":"Yemen","GID_1":"YEM.5_1","province":"AlHudaydah","NL_NAME_1":"الحديده","county":"BaytAlFaqiah","VARNAME_2":"NA","NL_NAME_2":"بيتالفقيه","TYPE_2":"Muderiah","ENGTYPE_2":"District","CC_2":"1817","HASC_2":"NA","name":"Bayt_Al_Faqiah.county"},
"geometry":{"type": "MultiPolygon","coordinates": [[[[43.0104,14.3787,0.0],[43.0229,14.3582,3.5811],[43.0326,14.3326,17.8186],[43.0343,14.3115,0.0],[43.0365,14.3038,0.2191],[43.0354,14.2979,0.4926],[43.0426,14.2857,0.8056],[43.051,14.2634,0.0],[43.1251,14.2808,26.82],[43.1405,14.3051,49.5798],[43.1512,14.3108,56.4781],[43.1936,14.3191,66.3428],[43.2013,14.3192,67.9939],[43.2093,14.3172,70.5079],[43.2333,14.3173,75.1587],[43.2471,14.3219,82.5305],[43.2583,14.3203,82.866],[43.3165,14.3352,112.5381],[43.3323,14.3433,125.5811],[43.346,14.3594,141.2566],[43.3511,14.3624,143.0319],[43.3631,14.3657,156.6233],[43.3709,14.3658,166.561],[43.4087,14.3731,206.2153],[43.4159,14.376,216.8632],[43.4561,14.3839,270.3886],[43.4659,14.3844,284.9377],[43.4729,14.3828,294.3253],[43.4758,14.3759,282.98],[43.5181,14.379,347.8483],[43.5347,14.3776,368.1549],[43.5416,14.4002,520.972],[43.5468,14.4269,437.9064],[43.5453,14.4489,378.203],[43.5394,14.4691,472.6817],[43.5337,14.4802,404.7904],[43.5247,14.5151,420.0401],[43.5109,14.5528,337.4427],[43.5076,14.5781,342.1798],[43.5093,14.5935,318.9213],[43.5006,14.5927,319.2236],[43.4932,14.5985,293.8174],[43.4785,14.6193,262.1334],[43.4763,14.6253,253.4332],[43.4765,14.6523,300.1209],[43.4607,14.6517,221.6057],[43.4358,14.646,185.5769],[43.422,14.637,176.4621],[43.4163,14.636,165.9076],[43.4043,14.639,150.2873],[43.3971,14.6429,141.0709],[43.3917,14.6496,132.7282],[43.3827,14.6553,130.1828],[43.3702,14.647,116.0648],[43.3483,14.6468,101.4628],[43.321,14.6398,87.2693],[43.3145,14.643,90.0493],[43.2429,14.6561,84.579],[43.2397,14.6357,71.3842],[43.2464,14.6354,72.4891],[43.2394,14.6016,64.5866],[43.2418,14.5819,79.7197],[43.2163,14.5711,81.5377],[43.143,14.5664,47.0499],[43.1339,14.5605,45.289],[43.1044,14.5197,30.7427],[43.0786,14.4591,29.9507],[43.0515,14.412,22.8073],[43.0312,14.3908,14.8306],[43.0104,14.3787,0.0]]]]}}