{"type":"Feature","properties":{"GID_2":"YEM.17.6_1","GID_0":"YEM","country":"Yemen","GID_1":"YEM.17_1","province":"Raymah","NL_NAME_1":"ريمة","county":"Mazhar","VARNAME_2":"NA","NL_NAME_2":"مزهر","TYPE_2":"Muderiah","ENGTYPE_2":"District","CC_2":"3106","HASC_2":"NA","name":"Mazhar.county"},
"geometry":{"type": "MultiPolygon","coordinates": [[[[43.8894,14.531,1096.8864],[43.8843,14.5377,1098.8993],[43.8724,14.5462,1116.2814],[43.8652,14.5573,1115.5966],[43.8595,14.561,1163.3591],[43.8503,14.5637,1358.2542],[43.8409,14.5594,1497.0923],[43.8287,14.5626,1237.9106],[43.8185,14.5561,1202.0231],[43.8003,14.549,1103.0525],[43.7971,14.5494,1030.228],[43.7924,14.5617,1051.74],[43.7906,14.5792,1214.6188],[43.8039,14.5955,1749.8456],[43.8005,14.6009,1877.0612],[43.7915,14.6052,1859.6113],[43.7848,14.6128,1689.8032],[43.778,14.6291,1553.0156],[43.769,14.6367,1293.3318],[43.7645,14.6443,1415.4612],[43.7698,14.6514,1728.408],[43.7568,14.65,1398.6238],[43.7436,14.6611,1402.3076],[43.7319,14.6674,1953.9706],[43.7177,14.6729,1915.8201],[43.7032,14.6744,1875.5164],[43.6789,14.671,2170.1851],[43.6635,14.6659,2413.469],[43.6668,14.6577,2332.7517],[43.6668,14.6426,2223.3901],[43.6522,14.652,2628.5786],[43.6365,14.6514,1990.397],[43.6335,14.6501,1905.4313],[43.6319,14.6452,1884.9946],[43.6371,14.6443,2128.6931],[43.6371,14.6416,2241.6619],[43.6465,14.6331,2405.9746],[43.6524,14.6195,2002.2456],[43.6598,14.6098,1790.1802],[43.6695,14.6062,1735.1682],[43.6733,14.5993,1800.3678],[43.6874,14.5885,1590.54],[43.693,14.586,1527.7637],[43.6972,14.5804,1643.4106],[43.7013,14.5711,1368.0588],[43.6984,14.5685,1333.4541],[43.7205,14.5455,1478.9696],[43.7324,14.5295,1599.8068],[43.7411,14.5134,1449.0446],[43.7463,14.4974,1228.901],[43.7553,14.4918,1177.9877],[43.7657,14.4891,1095.6522],[43.7718,14.4828,1180.5725],[43.7806,14.4673,1002.6592],[43.8112,14.48,902.6747],[43.8342,14.4961,936.3923],[43.8533,14.4984,1023.0083],[43.8631,14.5036,1090.0334],[43.8695,14.5182,1046.2831],[43.8753,14.5257,1033.2521],[43.8814,14.5292,1046.255],[43.8894,14.531,1096.8864]]]]}}