{"type":"Feature","properties":{"GID_2":"YEM.18.12_1","GID_0":"YEM","country":"Yemen","GID_1":"YEM.18_1","province":"Sa`dah","NL_NAME_1":"صعدة","county":"Sa'adah","VARNAME_2":"NA","NL_NAME_2":"صعدة","TYPE_2":"Muderiah","ENGTYPE_2":"District","CC_2":"2215","HASC_2":"NA","name":"Sa'adah.county"},
"geometry":{"type": "MultiPolygon","coordinates": [[[[43.7384,16.9389,1881.9388],[43.7385,16.9302,1880.5232],[43.7529,16.9303,1872.4481],[43.7539,16.928,1871.5641],[43.7477,16.922,1896.5288],[43.7375,16.8944,2068.7407],[43.7672,16.8822,1953.7745],[43.7798,16.8929,1929.1191],[43.7822,16.8999,1884.8824],[43.7778,16.9492,1854.2017],[43.7746,16.9534,1852.4092],[43.7687,16.954,1852.8164],[43.7384,16.9389,1881.9388]]]]}}