{"type":"Feature","properties":{"GID_2":"YEM.16.10_1","GID_0":"YEM","country":"Yemen","GID_1":"YEM.16_1","province":"Ma'rib","NL_NAME_1":"مأرب","county":"MaribCity","VARNAME_2":"NA","NL_NAME_2":"مدينةمأرب","TYPE_2":"Muderiah","ENGTYPE_2":"District","CC_2":"2612","HASC_2":"NA","name":"Marib_City.county"},
"geometry":{"type": "MultiPolygon","coordinates": [[[[45.3113,15.4798,1109.7642],[45.3098,15.4773,1113.3707],[45.2604,15.4403,1173.6885],[45.232,15.4156,1313.2625],[45.2242,15.4014,1474.8428],[45.2261,15.39,1136.0],[45.2799,15.3653,1318.4751],[45.2955,15.3515,1396.5206],[45.3331,15.3865,1101.765],[45.3324,15.4,1105.5872],[45.3359,15.402,1104.1405],[45.3393,15.3987,1101.4275],[45.3449,15.4027,1099.541],[45.3602,15.4222,1090.957],[45.3685,15.4269,1088.0261],[45.3827,15.4274,1078.885],[45.3803,15.439,1081.7883],[45.3755,15.4504,1077.7699],[45.3693,15.4565,1078.9846],[45.3686,15.4598,1077.6871],[45.3734,15.4619,1075.6284],[45.3741,15.4652,1073.6331],[45.3707,15.4679,1075.5875],[45.3672,15.4632,1076.8817],[45.3588,15.4572,1077.3876],[45.3415,15.4572,1083.7335],[45.3113,15.4798,1109.7642]]]]}}