{"type":"Feature","properties":{"GID_2":"YEM.13.3_1","GID_0":"YEM","country":"Yemen","GID_1":"YEM.13_1","province":"Hajjah","NL_NAME_1":"حجه","county":"AflahAshShawm","VARNAME_2":"NA","NL_NAME_2":"افلحالشام","TYPE_2":"Muderiah","ENGTYPE_2":"District","CC_2":"1710","HASC_2":"NA","name":"Aflah_Ash_Shawm.county"},
"geometry":{"type": "MultiPolygon","coordinates": [[[[43.4331,16.037,972.6287],[43.442,16.0386,1148.9985],[43.446,16.0419,1228.3491],[43.4475,16.0466,1539.2273],[43.4439,16.0623,1459.2739],[43.4385,16.0746,1282.0065],[43.4335,16.0777,1263.1523],[43.4294,16.0782,1245.8611],[43.4208,16.0849,1298.8503],[43.4142,16.0954,1275.0873],[43.4099,16.0977,1310.7161],[43.4006,16.0977,1035.2268],[43.4007,16.086,1047.4569],[43.3985,16.0718,992.3375],[43.3918,16.0591,761.9959],[43.3917,16.053,744.7405],[43.3854,16.0277,583.3639],[43.3864,16.0185,516.4552],[43.3831,16.0166,493.1334],[43.3783,16.0219,467.4541],[43.3764,16.0209,461.54],[43.3769,16.0178,464.1606],[43.3814,16.011,484.8143],[43.3874,16.0079,519.1372],[43.4003,16.0137,593.105],[43.4183,16.015,924.4382],[43.421,16.0163,897.2034],[43.4246,16.0219,865.6824],[43.4288,16.0356,951.1704],[43.4331,16.037,972.6287]]]]}}