{"type":"Feature","properties":{"GID_2":"YEM.5.9_1","GID_0":"YEM","country":"Yemen","GID_1":"YEM.5_1","province":"AlHudaydah","NL_NAME_1":"الحديده","county":"AlMarawi'ah","VARNAME_2":"NA","NL_NAME_2":"المراوعة","TYPE_2":"Muderiah","ENGTYPE_2":"District","CC_2":"1813","HASC_2":"NA","name":"Al_Marawi'ah.county"},
"geometry":{"type": "MultiPolygon","coordinates": [[[[43.1608,14.6886,60.5575],[43.162,14.701,59.8501],[43.1659,14.7139,68.2298],[43.1667,14.7256,73.0073],[43.1712,14.7411,70.7544],[43.1771,14.7507,65.1614],[43.1832,14.7518,67.6406],[43.1906,14.7495,67.7941],[43.2025,14.7506,76.4758],[43.2461,14.7722,83.824],[43.2539,14.7789,91.0628],[43.2582,14.7936,89.8109],[43.2618,14.7991,90.9046],[43.2691,14.8033,86.6652],[43.3218,14.8203,111.3631],[43.3249,14.8272,113.9234],[43.3367,14.8378,118.5236],[43.3517,14.844,126.4444],[43.3683,14.8485,136.597],[43.3977,14.8372,163.4701],[43.4026,14.8575,175.0669],[43.3954,14.865,177.7633],[43.3944,14.8703,182.2412],[43.3953,14.8735,189.8885],[43.4025,14.8767,218.9244],[43.4034,14.8814,236.5694],[43.4012,14.8843,217.0935],[43.3892,14.8913,191.0178],[43.3837,14.8997,189.9404],[43.3794,14.9114,197.3073],[43.3815,14.9146,202.1991],[43.3938,14.9165,222.55],[43.3952,14.9233,246.5906],[43.3924,14.9278,237.4072],[43.393,14.9395,249.8364],[43.3993,14.9472,274.9788],[43.4016,14.9536,285.1755],[43.4013,14.9659,288.348],[43.3939,14.9673,279.2077],[43.3802,14.9739,245.7948],[43.3483,14.9725,204.4188],[43.3374,14.9795,192.366],[43.3204,14.9805,169.9984],[43.2902,14.9779,146.0202],[43.2805,14.9731,140.465],[43.272,14.9766,137.2729],[43.2551,14.9741,139.3496],[43.235,14.9736,128.065],[43.1964,14.9621,110.0948],[43.1698,14.9631,101.8281],[43.0981,14.9421,62.552],[42.9897,14.8685,16.6408],[42.9916,14.8675,17.4276],[42.9906,14.8664,18.505],[42.9924,14.8587,14.7305],[42.9999,14.8497,19.8503],[43.0173,14.8474,25.2825],[43.0447,14.8382,35.2742],[43.0498,14.8359,36.4645],[43.0581,14.8282,36.9416],[43.0716,14.831,43.5524],[43.0771,14.8297,43.668],[43.0746,14.8078,39.376],[43.0839,14.8018,40.0991],[43.0976,14.8038,44.0925],[43.104,14.7984,45.3281],[43.1134,14.7768,45.3746],[43.1249,14.77,45.2757],[43.1299,14.7589,44.0689],[43.1236,14.7377,41.3791],[43.1205,14.7117,49.3938],[43.1288,14.6996,47.4791],[43.1608,14.6886,60.5575]]]]}}