{"type":"Feature","properties":{"GID_2":"YEM.12.18_1","GID_0":"YEM","country":"Yemen","GID_1":"YEM.12_1","province":"Hadramawt","NL_NAME_1":"حضرموت","county":"Hidaybu","VARNAME_2":"NA","NL_NAME_2":"حديبو","TYPE_2":"Muderiah","ENGTYPE_2":"District","CC_2":"1926","HASC_2":"NA","name":"Hidaybu.county"},
"geometry":{"type": "MultiPolygon","coordinates": [[[[53.7391,12.6363,0.0],[53.7388,12.6232,13.5104],[53.7486,12.6022,15.1025],[53.7485,12.5616,45.7548],[53.743,12.5113,298.9706],[53.7187,12.4949,174.6439],[53.6745,12.4865,61.5216],[53.6502,12.4713,380.3085],[53.6232,12.45,298.5844],[53.5679,12.4431,294.6302],[53.5312,12.4332,383.154],[53.4832,12.4135,0.0],[53.4879,12.4107,0.0],[53.4896,12.4126,0.0],[53.4901,12.4087,0.0],[53.5043,12.4013,0.0],[53.5076,12.3985,0.0],[53.5057,12.3962,0.0],[53.5071,12.396,0.0],[53.5068,12.3946,0.0],[53.5093,12.3968,0.0],[53.5149,12.3949,0.0],[53.5151,12.3915,0.0],[53.5118,12.3951,0.0],[53.5096,12.3932,0.0],[53.5118,12.391,0.0],[53.5135,12.3913,0.0],[53.5126,12.3887,0.0],[53.5137,12.3879,0.0],[53.5185,12.3871,0.0],[53.5213,12.3849,95.693],[53.5224,12.3793,0.0],[53.5249,12.3763,0.0],[53.5279,12.3754,0.0],[53.5282,12.3737,0.0],[53.5316,12.374,83.9434],[53.5288,12.3701,0.0],[53.5313,12.3676,0.0],[53.5335,12.3687,0.0],[53.5329,12.3635,0.0],[53.5346,12.361,0.0],[53.5365,12.3593,0.0],[53.5396,12.3599,0.0],[53.5415,12.3554,0.0],[53.5432,12.3565,0.0],[53.5451,12.3549,0.0],[53.5432,12.3521,0.0],[53.5438,12.3438,0.0],[53.5449,12.3443,0.0],[53.5468,12.3396,23.7172],[53.5488,12.339,88.3256],[53.5524,12.3421,466.648],[53.5529,12.3404,0.0],[53.5582,12.341,7.1678],[53.5571,12.3387,0.0],[53.5585,12.3371,0.0],[53.5612,12.3401,0.0],[53.566,12.3387,0.0],[53.5657,12.3376,0.0],[53.5668,12.3393,7.8031],[53.5699,12.3396,17.5268],[53.5718,12.3374,5.5172],[53.5818,12.3343,0.0],[53.5837,12.3343,1.0769],[53.5843,12.3365,13.4898],[53.5857,12.334,3.0174],[53.6026,12.3293,1.8809],[53.6312,12.3152,0.0],[53.6377,12.3149,0.0],[53.6515,12.3093,0.7319],[53.679,12.3038,3.0907],[53.7137,12.3013,0.0],[53.7449,12.3013,0.0],[53.771,12.3032,0.0],[53.8096,12.309,0.0],[53.8113,12.3105,7.4334],[53.8232,12.3113,1.6355],[53.8293,12.3099,0.0],[53.8793,12.3241,2.3472],[53.9188,12.3296,2.3958],[53.9293,12.3337,0.6131],[53.951,12.3329,0.0],[53.9604,12.3354,0.0],[53.9729,12.336,6.2181],[54.0007,12.329,1.6699],[54.0057,12.3296,1.0193],[54.0099,12.3282,0.0],[54.0193,12.3346,0.0],[54.0246,12.3474,1.6159],[54.0351,12.3513,0.6312],[54.0674,12.3524,0.8089],[54.0824,12.3554,0.0],[54.0957,12.356,0.9282],[54.1185,12.3537,0.0],[54.1287,12.3501,0.0],[54.1404,12.3513,0.0],[54.1635,12.3638,0.409],[54.167,12.3688,2.277],[54.1718,12.3718,0.4471],[54.1801,12.3735,0.0],[54.1943,12.3901,0.0],[54.2168,12.396,0.5597],[54.2218,12.3957,0.0],[54.2246,12.4007,1.7137],[54.2268,12.4008,0.0],[54.229,12.4143,0.0],[54.2329,12.4232,0.0],[54.2582,12.4393,3.7515],[54.2757,12.4426,1.796],[54.2796,12.4451,15.4918],[54.3074,12.4459,4.781],[54.3132,12.4451,0.0],[54.3146,12.4435,0.0],[54.3193,12.4454,0.0],[54.324,12.4446,0.0],[54.3251,12.4474,163.7447],[54.3307,12.446,10.1658],[54.3343,12.449,164.0771],[54.3401,12.4476,0.0],[54.3409,12.4499,74.3122],[54.3474,12.4521,191.8036],[54.3543,12.4518,0.0],[54.3626,12.454,0.0],[54.3674,12.4579,1.356],[54.3768,12.4582,0.0],[54.3793,12.4604,0.0],[54.3821,12.4593,0.0],[54.3899,12.4601,0.0],[54.3993,12.4626,1.9705],[54.4054,12.4668,0.0],[54.4118,12.4663,0.7424],[54.4135,12.4688,2.4312],[54.4126,12.4729,32.4669],[54.4171,12.4762,2.4813],[54.426,12.4779,1.764],[54.4343,12.4846,11.3859],[54.4374,12.484,9.5837],[54.4435,12.4865,2.0564],[54.4435,12.484,1.6221],[54.4454,12.4843,1.1818],[54.4454,12.4901,0.0],[54.4401,12.4982,13.3912],[54.4432,12.5051,0.0],[54.4429,12.5087,0.0],[54.4487,12.5182,21.2944],[54.4613,12.5246,1.0178],[54.4768,12.529,6.3545],[54.5054,12.5332,0.0],[54.5268,12.5424,1.425],[54.5354,12.5413,0.0],[54.5312,12.5501,4.1526],[54.5329,12.5551,0.0],[54.529,12.5524,0.0],[54.5225,12.5537,1.9944],[54.5196,12.5524,0.0],[54.5149,12.5535,1.5679],[54.5115,12.5571,0.0],[54.5088,12.5571,0.0],[54.5071,12.5532,2.2699],[54.5048,12.5538,0.0],[54.5041,12.5515,0.4879],[54.4977,12.5465,4.4588],[54.4918,12.5443,0.0],[54.4799,12.5435,5.1808],[54.4732,12.5449,10.6844],[54.4546,12.5535,12.826599999999999],[54.4388,12.5632,0.0],[54.4246,12.574,0.0],[54.4207,12.5793,0.0],[54.4143,12.5804,1.9846],[54.4054,12.579,0.0],[54.3996,12.5824,0.0],[54.3951,12.5824,11.5764],[54.391,12.5865,0.0],[54.384,12.5876,2.228],[54.3834,12.5893,0.0],[54.3757,12.5923,1.5058],[54.3674,12.6007,0.0],[54.3657,12.6001,28.3346],[54.3649,12.6024,0.0],[54.361,12.6015,11.7831],[54.3597,12.6046,3.4731],[54.354,12.6054,9.5969],[54.349,12.6026,0.0],[54.3432,12.6054,0.6734],[54.3401,12.6043,0.9103],[54.3393,12.6065,0.0],[54.3265,12.606,0.5697],[54.3189,12.611,0.0],[54.3159,12.6107,0.0],[54.3149,12.6085,2.5689],[54.3112,12.6085,3.2947],[54.3046,12.6121,0.6336],[54.2996,12.6176,0.0],[54.2943,12.6143,1.3129],[54.2887,12.616,0.0],[54.2812,12.621,5.8163],[54.2771,12.6263,0.0],[54.2699,12.6274,0.0],[54.269,12.6293,0.0],[54.2651,12.6304,5.4853],[54.2618,12.6354,1.531],[54.2632,12.6371,2.1359],[54.2624,12.6401,0.6796],[54.2568,12.639,0.5445],[54.2493,12.6401,3.9293],[54.2443,12.6446,0.0],[54.2424,12.6432,1.4001],[54.2365,12.6443,3.3273],[54.2346,12.6465,0.7547],[54.229,12.6435,3.6315],[54.2271,12.6446,0.4523],[54.2199,12.6393,0.25],[54.2149,12.6388,0.835],[54.2151,12.6401,0.835],[54.2199,12.6421,10.8801],[54.2229,12.6465,0.0],[54.2135,12.6532,0.767],[54.2093,12.6601,0.8355],[54.2024,12.6624,0.0],[54.199,12.666,0.8606],[54.1976,12.6685,1.8858],[54.1999,12.6733,3.1276],[54.1987,12.6754,0.704],[54.1971,12.6726,1.4014],[54.194,12.6724,0.0],[54.194,12.6701,3.2754],[54.1879,12.6668,8.5153],[54.1849,12.6671,0.0],[54.1779,12.664,6.5055],[54.1665,12.664,3.4707],[54.1515,12.6709,0.0],[54.1285,12.6921,0.0],[54.1081,12.7013,0.0],[54.1004,12.6999,3.9937],[54.094,12.7024,0.0],[54.0901,12.7021,0.0],[54.0854,12.6949,0.0],[54.086,12.689,0.0],[54.084,12.6837,1.1966],[54.0821,12.6818,1.7933],[54.0799,12.6827,0.0],[54.0807,12.6799,12.8842],[54.0785,12.6776,0.0],[54.0582,12.6679,1.9803],[54.0524,12.6679,0.0],[54.0393,12.6607,0.0],[54.029,12.661,0.0],[54.0246,12.6565,0.2741],[54.0196,12.6557,0.0],[54.0065,12.649,0.0],[53.9941,12.6479,2.1934],[53.9785,12.6501,7.83],[53.9751,12.6485,12.5644],[53.9729,12.6432,6.6173],[53.966,12.644,0.0],[53.9585,12.6387,22.3071],[53.9518,12.6426,0.0],[53.9468,12.6401,0.4907],[53.9376,12.6443,0.0],[53.9301,12.6443,1.2187],[53.9126,12.6526,0.0],[53.9004,12.6513,0.0],[53.891,12.6482,0.0],[53.8779,12.6404,0.0],[53.8704,12.6285,0.0],[53.8701,12.6221,0.3689],[53.8671,12.6213,0.0],[53.8651,12.6157,0.7339],[53.8621,12.6124,0.4726],[53.8605,12.6127,0.4726],[53.8607,12.611,0.9474],[53.8554,12.6076,0.0],[53.8488,12.6001,0.5556],[53.8404,12.5965,0.9422],[53.8177,12.5985,1.0532],[53.8043,12.6021,0.0],[53.7663,12.619,0.0],[53.7391,12.6363,0.0]]]]}}