{"type":"Feature","properties":{"GID_2":"YEM.21.6_1","GID_0":"YEM","country":"Yemen","GID_1":"YEM.21_1","province":"Ta`izz","NL_NAME_1":"تعز","county":"AlQahirah","VARNAME_2":"NA","NL_NAME_2":"القاهرة","TYPE_2":"Muderiah","ENGTYPE_2":"District","CC_2":"1519","HASC_2":"NA","name":"Al_Qahirah.county"},
"geometry":{"type": "MultiPolygon","coordinates": [[[[44.0177,13.5605,1650.6844],[44.0262,13.5597,1619.4463],[44.0226,13.5683,1431.1283],[44.0263,13.5803,1327.7306],[44.0215,13.5795,1315.1642],[44.0165,13.5877,1243.6479],[44.0215,13.587,1288.3087],[44.0213,13.5913,1278.4244],[44.0258,13.5906,1258.7499],[44.029,13.5932,1236.8088],[44.029,13.5968,1219.8212],[44.0247,13.5967,1223.9545],[44.0162,13.61,1196.7772],[43.9911,13.6058,1155.0164],[44.0078,13.5773,1291.283],[44.0105,13.5779,1282.2668],[44.0139,13.5752,1297.8468],[44.0171,13.5693,1346.6031],[44.0196,13.5693,1377.019],[44.0219,13.5663,1441.1461],[44.0195,13.5655,1388.6678],[44.0177,13.5605,1650.6844]]]]}}