{"type":"Feature","properties":{"GID_2":"YEM.18.11_1","GID_0":"YEM","country":"Yemen","GID_1":"YEM.18_1","province":"Sa`dah","NL_NAME_1":"صعدة","county":"Razih","VARNAME_2":"NA","NL_NAME_2":"رازح","TYPE_2":"Muderiah","ENGTYPE_2":"District","CC_2":"2205","HASC_2":"NA","name":"Razih.county"},
"geometry":{"type": "MultiPolygon","coordinates": [[[[43.2331,17.0294,1339.2809],[43.2309,17.0295,1420.3539],[43.2323,17.0221,1233.0315],[43.2275,17.0207,1072.6027],[43.2254,17.0114,1191.4348],[43.2146,17.0219,1220.9718],[43.2115,17.0226,1131.0093],[43.2073,17.021,1018.9291],[43.2027,17.0101,1079.2163],[43.198,17.0139,1238.9133],[43.1957,17.0135,1251.4719],[43.191,17.0161,1259.666],[43.1919,17.018,1238.4708],[43.1904,17.0248,1151.7123],[43.1809,17.0321,810.9847],[43.1795,17.0302,879.2847],[43.179,17.0168,1084.6023],[43.1841,17.0142,1182.0748],[43.18,17.009,1259.5591],[43.177,16.9933,1350.4961],[43.1776,16.9898,1224.3484],[43.1817,16.9839,1226.7345],[43.1812,16.9805,1198.4138],[43.1833,16.979,1213.438],[43.1777,16.978,1040.8667],[43.1781,16.9633,869.8358],[43.1948,16.9551,940.1964],[43.1937,16.9506,956.7027],[43.1947,16.9445,809.2917],[43.2026,16.9399,925.0839],[43.2099,16.9253,864.2581],[43.2109,16.9061,758.3149],[43.2278,16.8908,619.8884],[43.2366,16.8863,648.3257],[43.2351,16.8801,559.1741],[43.2296,16.8708,547.4428],[43.2216,16.8654,635.303],[43.2214,16.8459,409.5776],[43.2269,16.8465,462.5175],[43.2316,16.8393,389.7011],[43.2372,16.8232,323.2315],[43.2613,16.8172,425.459],[43.274,16.8181,471.5732],[43.2932,16.8221,542.146],[43.2939,16.8306,551.2812],[43.2907,16.8359,730.446],[43.2897,16.8498,921.8469],[43.2953,16.8537,906.1628],[43.3204,16.852,731.2265],[43.3163,16.8734,1092.0583],[43.324,16.8916,911.097],[43.3135,16.9223,1351.4104],[43.3092,16.9521,2581.0737],[43.313,16.9781,1885.3351],[43.3069,16.985,1884.3752],[43.2503,17.0137,1317.0161],[43.2398,17.0238,1277.9946],[43.2375,17.0293,1243.9757],[43.2331,17.0294,1339.2809]]]]}}