{"type":"Feature","properties":{"GID_2":"YEM.10.9_1","GID_0":"YEM","country":"Yemen","GID_1":"YEM.10_1","province":"Amran","NL_NAME_1":"عمران","county":"HaburZulaymah","VARNAME_2":"NA","NL_NAME_2":"حبورظليمة","TYPE_2":"Muderiah","ENGTYPE_2":"District","CC_2":"2908","HASC_2":"NA","name":"Habur_Zulaymah.county"},
"geometry":{"type": "MultiPolygon","coordinates": [[[[43.7773,16.1118,1501.5931],[43.7708,16.1039,1559.1619],[43.7652,16.1009,1523.2412],[43.7586,16.1009,1534.1697],[43.7562,16.105,1553.0828],[43.7586,16.128,1414.3251],[43.7116,16.1275,1448.8754],[43.7107,16.1308,1522.5846],[43.7087,16.1316,1434.4771],[43.7028,16.1305,1612.4823],[43.696,16.1254,1626.4657],[43.7002,16.1259,1518.5959],[43.7045,16.1221,1524.0258],[43.7021,16.1159,1274.7417],[43.6683,16.0868,1071.6687],[43.6605,16.0768,1141.5779],[43.6587,16.0697,1174.9008],[43.6598,16.0336,1185.819],[43.6563,16.0227,1185.5084],[43.6555,15.9976,1020.1177],[43.6753,15.9967,1196.4229],[43.6961,15.9795,1116.7781],[43.6986,15.9753,1296.199],[43.6987,15.9676,1130.0886],[43.7012,15.9588,1150.9386],[43.7071,15.9474,1044.2854],[43.7086,15.9384,1125.2979],[43.7134,15.9427,1157.2748],[43.7214,15.9439,1269.2067],[43.7218,15.9484,1391.0376],[43.7185,15.9563,1293.9613],[43.7184,15.9636,1309.968],[43.7217,15.9718,1178.1201],[43.7318,15.9764,1182.949],[43.7428,15.9842,1113.6056],[43.7476,15.9968,1250.4833],[43.7506,16.0102,1293.3433],[43.7512,16.0266,1079.4016],[43.75,16.0343,1019.8926],[43.7532,16.0455,1055.5945],[43.7586,16.054,1014.7452],[43.7694,16.0563,1154.0967],[43.7767,16.0536,1154.2236],[43.7836,16.0461,1223.463],[43.7879,16.0302,1160.5076],[43.7917,16.0262,1142.1062],[43.7932,16.0139,1250.6309],[43.7996,16.0053,1248.6141],[43.8008,15.9996,1188.0371],[43.8071,15.9999,1219.5699],[43.8109,16.004,1395.8899],[43.8074,16.0101,1357.155],[43.7968,16.0429,1232.064],[43.803,16.0581,1484.479],[43.8068,16.0622,1531.7047],[43.8115,16.0638,1545.2346],[43.8106,16.0836,1205.7295],[43.806,16.1088,1186.6147],[43.808,16.1256,1095.924],[43.8026,16.1292,1090.4324],[43.7941,16.1274,1344.01],[43.7917,16.1237,1405.6653],[43.7868,16.1078,1643.061],[43.7832,16.1037,1676.116],[43.7801,16.1044,1632.1427],[43.7773,16.1084,1542.3528],[43.7773,16.1118,1501.5931]]]]}}