{"type":"Feature","properties":{"GID_2":"YEM.10.7_1","GID_0":"YEM","country":"Yemen","GID_1":"YEM.10_1","province":"Amran","NL_NAME_1":"عمران","county":"BaniSuraim","VARNAME_2":"NA","NL_NAME_2":"بنيصريم","TYPE_2":"Muderiah","ENGTYPE_2":"District","CC_2":"2920","HASC_2":"NA","name":"Bani_Suraim.county"},
"geometry":{"type": "MultiPolygon","coordinates": [[[[43.8422,16.1174,1438.3135],[43.8562,16.1089,1442.8383],[43.8749,16.1035,1620.4282],[43.8985,16.0872,1779.663],[43.9124,16.0833,1976.0916],[43.9245,16.0834,1992.7406],[43.9408,16.0764,2084.6514],[43.9465,16.0701,2139.2087],[43.9474,16.0599,2199.0537],[43.9612,16.0616,2341.676],[43.9708,16.0695,2412.7256],[43.9847,16.0664,2404.4243],[43.9958,16.0564,2411.0869],[44.0025,16.0579,2410.0349],[44.0188,16.0556,2394.4429],[44.035,16.0478,2368.5791],[44.0456,16.0455,2368.0037],[44.0706,16.052,2244.7534],[44.0713,16.0552,2230.5576],[44.068,16.0725,2114.3804],[44.0582,16.0881,2134.2273],[44.0662,16.1132,2112.425],[44.075,16.1534,1919.6556],[44.0781,16.1953,1820.998],[43.9603,16.202,2098.5371],[43.9344,16.205,1811.1206],[43.8664,16.2047,1536.526],[43.8658,16.1932,1260.322],[43.8579,16.1596,1285.7546],[43.8528,16.126,1572.7263],[43.8422,16.1174,1438.3135]]]]}}