{"type":"Feature","properties":{"GID_2":"YEM.4.9_1","GID_0":"YEM","country":"Yemen","GID_1":"YEM.4_1","province":"AlDali'","NL_NAME_1":"الضالع","county":"Qa'atabah","VARNAME_2":"NA","NL_NAME_2":"قعطبة","TYPE_2":"Muderiah","ENGTYPE_2":"District","CC_2":"3003","HASC_2":"NA","name":"Qa'atabah.county"},
"geometry":{"type": "MultiPolygon","coordinates": [[[[44.7182,13.8314,1304.7979],[44.7266,13.8376,1324.4021],[44.7395,13.8439,1362.6837],[44.7471,13.8553,1544.1637],[44.7472,13.8588,1739.6416],[44.7653,13.8599,1443.9938],[44.788,13.851,1840.8234],[44.8035,13.8516,2065.127],[44.809,13.863,2098.1089],[44.8171,13.8901,1861.2085],[44.8162,13.9119,1858.9794],[44.8215,13.9901,2028.1361],[44.8144,14.0196,2270.3701],[44.7976,14.0277,2185.1257],[44.7967,14.0264,2199.4192],[44.7914,14.029,2194.7271],[44.783,14.0285,1896.5208],[44.7666,14.0155,1868.8776],[44.757,14.0214,2127.1033],[44.7515,14.0187,1914.7821],[44.7479,14.0187,1787.6427],[44.7315,14.0329,1892.0491],[44.7052,14.0435,2054.4792],[44.6915,14.0435,1997.7134],[44.6833,14.0461,2005.1388],[44.6723,14.0459,2087.1621],[44.6806,14.0328,1963.2052],[44.6915,14.0337,1938.0591],[44.7079,14.032,1937.1515],[44.7024,14.0267,1946.9723],[44.6952,14.0275,2066.2324],[44.6952,14.0169,2017.9319],[44.6916,14.0098,1909.203],[44.6877,13.9901,1987.719],[44.6779,13.9902,2074.3057],[44.6443,13.9858,2112.248],[44.6416,14.0026,2394.6741],[44.6358,14.0057,2397.9509],[44.6116,14.0086,2539.8223],[44.6076,14.0107,2444.3528],[44.5928,13.9993,2056.9351],[44.5607,13.9865,1881.5342],[44.5571,13.9865,1945.8817],[44.5389,13.9953,2239.27],[44.5213,13.9936,2369.3718],[44.5221,13.9929,2369.3718],[44.5153,13.985,2121.4534],[44.49,13.9806,2041.4165],[44.4846,13.9728,1810.7556],[44.4781,13.9666,1825.4487],[44.4594,13.9604,1590.0294],[44.4503,13.95,1612.217],[44.4532,13.9307,1554.1997],[44.46,13.923,1504.9343],[44.4596,13.9185,1494.3075],[44.4487,13.9047,1628.2047],[44.4444,13.887,1634.6104],[44.4416,13.8857,1668.6594],[44.4392,13.8882,1657.4397],[44.4354,13.8877,1664.1484],[44.434,13.8849,1683.4265],[44.4347,13.872,1588.574],[44.4492,13.8727,1617.8682],[44.4565,13.8701,1563.8666],[44.4728,13.8526,1437.9027],[44.4763,13.8524,1363.3241],[44.4816,13.8578,1482.4453],[44.4834,13.8675,1600.087],[44.4947,13.8838,1431.7222],[44.5096,13.8817,1380.4891],[44.5294,13.8655,1331.7025],[44.5365,13.8624,1303.8577],[44.5486,13.8604,1289.6492],[44.556,13.8545,1269.4661],[44.5642,13.8469,1252.4227],[44.567,13.8372,1245.729],[44.5671,13.8166,1204.2925],[44.5683,13.8153,1200.7372],[44.5792,13.8135,1194.4385],[44.5974,13.8153,1202.2145],[44.6347,13.8242,1218.0996],[44.6462,13.8253,1209.5565],[44.6526,13.8278,1219.8474],[44.6602,13.8372,1233.0366],[44.6763,13.8422,1260.0083],[44.7071,13.8439,1315.8013],[44.7142,13.8402,1309.3794],[44.7182,13.8314,1304.7979]]]]}}