{"type":"Feature","properties":{"GID_2":"YEM.21.18_1","GID_0":"YEM","country":"Yemen","GID_1":"YEM.21_1","province":"Ta`izz","NL_NAME_1":"تعز","county":"Mawza","VARNAME_2":"NA","NL_NAME_2":"موزع","TYPE_2":"Muderiah","ENGTYPE_2":"District","CC_2":"1508","HASC_2":"NA","name":"Mawza.county"},
"geometry":{"type": "MultiPolygon","coordinates": [[[[43.7571,13.3341,824.9009],[43.7554,13.3414,720.1732],[43.7208,13.375,982.274],[43.7141,13.4112,623.9471],[43.7006,13.4234,489.517],[43.6945,13.4233,475.8729],[43.6785,13.4128,445.8006],[43.6639,13.4088,430.4524],[43.6558,13.4218,440.2656],[43.6562,13.4311,453.4857],[43.641,13.453,550.9125],[43.6177,13.5085,642.3269],[43.5988,13.576,499.4988],[43.5827,13.5866,366.0763],[43.5367,13.5549,210.4524],[43.5322,13.5549,204.8183],[43.5197,13.5452,186.7202],[43.4717,13.5608,122.4869],[43.4645,13.5564,115.0578],[43.4673,13.5325,124.842],[43.4738,13.5104,138.4001],[43.4694,13.4962,138.3794],[43.4613,13.4847,140.8474],[43.4542,13.4616,138.4097],[43.4588,13.4528,143.168],[43.506,13.4274,208.7778],[43.5476,13.4206,259.3868],[43.5898,13.4201,306.0485],[43.6067,13.4044,330.7667],[43.612,13.3794,366.3843],[43.6202,13.3591,365.3688],[43.6194,13.3493,339.1794],[43.6127,13.3407,323.9915],[43.5332,13.3012,230.4171],[43.5058,13.301,202.1734],[43.4977,13.299,194.5621],[43.4907,13.2931,184.3026],[43.485,13.2843,181.0101],[43.4809,13.2828,178.0494],[43.4753,13.2755,172.917],[43.4736,13.2695,166.8874],[43.4785,13.2667,170.7655],[43.4766,13.2631,164.9366],[43.4682,13.2557,152.8344],[43.4717,13.2528,156.7973],[43.4879,13.2528,173.2529],[43.5203,13.2583,206.1876],[43.5494,13.2527,235.1001],[43.5574,13.2493,241.2247],[43.594,13.2154,286.0123],[43.6371,13.1697,336.057],[43.7241,13.2716,469.5314],[43.7392,13.2812,489.3994],[43.7598,13.2899,505.5742],[43.7747,13.2995,585.397],[43.7557,13.3243,672.8727],[43.7571,13.3341,824.9009]]]]}}