{"type":"Feature","properties":{"GID_2":"YEM.20.3_1","GID_0":"YEM","country":"Yemen","GID_1":"YEM.20_1","province":"Shabwah","NL_NAME_1":"شبوة","county":"ArRawdah","VARNAME_2":"NA","NL_NAME_2":"الروضه","TYPE_2":"Muderiah","ENGTYPE_2":"District","CC_2":"2115","HASC_2":"NA","name":"Ar_Rawdah.county"},
"geometry":{"type": "MultiPolygon","coordinates": [[[[47.4381,14.8352,1254.0068],[47.3882,14.8366,1359.3486],[47.3093,14.7992,1427.2667],[47.2146,14.7467,1427.1992],[47.1635,14.7357,1216.4919],[47.1046,14.7324,1345.4905],[47.0565,14.7372,1341.7634],[46.9551,14.739,1562.6838],[46.9699,14.6628,1525.7454],[46.981,14.5941,1543.4069],[46.9862,14.5082,1585.1194],[46.9955,14.4706,1332.217],[47.0592,14.4961,1493.6995],[47.1339,14.5145,1335.3979],[47.1652,14.5142,1617.1929],[47.2004,14.4986,1113.2755],[47.2157,14.4679,868.6017],[47.2151,14.403,869.0246],[47.2405,14.3408,1318.3528],[47.2517,14.2493,789.7284],[47.2552,14.2429,773.0764],[47.2588,14.2401,747.5117],[47.2659,14.2379,743.8308],[47.2768,14.1546,955.5878],[47.3862,14.1642,1149.5894],[47.3819,14.2449,899.2025],[47.3827,14.3212,784.0341],[47.3639,14.394,712.7498],[47.3682,14.4321,1154.9012],[47.3961,14.4738,764.1567],[47.4123,14.5309,1044.3995],[47.4284,14.5689,1113.0],[47.4602,14.5754,1348.4703],[47.4782,14.5892,1642.549],[47.486,14.5842,1639.3066],[47.5186,14.5838,1481.6251],[47.5854,14.6315,989.6251],[47.5878,14.6371,1103.2628],[47.5941,14.6768,952.3634],[47.5676,14.7151,1097.0155],[47.5216,14.77,1197.8799],[47.4717,14.8069,1181.2336],[47.4381,14.8352,1254.0068]]]]}}