{"type":"Feature","properties":{"GID_2":"YEM.21.22_1","GID_0":"YEM","country":"Yemen","GID_1":"YEM.21_1","province":"Ta`izz","NL_NAME_1":"تعز","county":"Shara'bArRawnah","VARNAME_2":"NA","NL_NAME_2":"شرعبالرونة","TYPE_2":"Muderiah","ENGTYPE_2":"District","CC_2":"1504","HASC_2":"NA","name":"Shara'b_Ar_Rawnah.county"},
"geometry":{"type": "MultiPolygon","coordinates": [[[[43.6719,13.8559,589.897],[43.6518,13.8424,497.3811],[43.6265,13.8351,479.3664],[43.6205,13.8245,435.731],[43.6424,13.7916,778.3038],[43.6497,13.7775,894.9398],[43.6607,13.7622,672.3147],[43.6716,13.7576,611.4448],[43.6897,13.7553,684.8397],[43.6993,13.7601,937.4429],[43.7005,13.7671,860.5644],[43.7089,13.7707,988.472],[43.7125,13.7707,1017.7958],[43.7248,13.7615,844.5396],[43.7307,13.75,910.6323],[43.7334,13.7488,930.137],[43.7404,13.7373,1181.4175],[43.7418,13.7283,1119.9989],[43.748,13.7117,1071.1115],[43.7602,13.6979,933.437],[43.757,13.6932,940.0317],[43.7528,13.681,994.0696],[43.7517,13.6624,803.7867],[43.77,13.6339,720.2294],[43.7868,13.619,842.2341],[43.7941,13.619,857.9334],[43.8134,13.6141,961.0778],[43.8195,13.6095,1017.4099],[43.828,13.5974,952.9266],[43.8349,13.5922,988.8311],[43.8389,13.585,1093.3514],[43.8611,13.58,1097.6902],[43.8627,13.6024,1075.1632],[43.8522,13.6075,1113.1836],[43.8435,13.616,1081.1631],[43.8434,13.6262,1013.1248],[43.8499,13.6349,997.40239999999994],[43.8642,13.636,938.5518],[43.8602,13.6542,892.5083],[43.8403,13.6554,899.7817],[43.8293,13.6653,1046.8198],[43.8223,13.6771,1040.8846],[43.8222,13.6874,1137.4529],[43.8197,13.6925,1156.3617],[43.8211,13.6958,1114.7299],[43.8257,13.6976,1076.0934],[43.8505,13.6966,992.8368],[43.8514,13.6992,1011.3165],[43.8479,13.7028,1011.9731],[43.8488,13.7048,1029.6265],[43.857,13.7054,1053.8413],[43.8605,13.6978,1056.0963],[43.8615,13.6834,989.6126],[43.8671,13.6798,1125.7297],[43.8741,13.6779,975.2982],[43.8759,13.6818,985.5004],[43.8832,13.6859,1060.3778],[43.8882,13.6956,1209.3121],[43.8945,13.7156,1134.4597],[43.8978,13.7208,1140.7537],[43.9046,13.7247,1212.2463],[43.9139,13.7273,1251.1412],[43.9138,13.7307,1342.3248],[43.9104,13.7366,1240.1111],[43.9078,13.7396,1222.7032],[43.8934,13.7449,1239.0261],[43.8966,13.7483,1341.5684],[43.8966,13.7508,1275.9939],[43.8945,13.753,1296.9075],[43.8888,13.7538,1313.6758],[43.8848,13.7521,1221.2578],[43.8802,13.7462,1218.8179],[43.8785,13.7471,1233.1677],[43.8779,13.7507,1290.0219],[43.8696,13.7487,1387.6486],[43.8623,13.7358,1277.3927],[43.8565,13.7335,1271.947],[43.8542,13.7411,1351.444],[43.8481,13.7495,1339.0138],[43.8496,13.7541,1419.2275],[43.8439,13.7547,1331.7225],[43.8421,13.7564,1375.3225],[43.8401,13.7628,1435.2109],[43.8392,13.7752,1574.6201],[43.834,13.7793,1330.7825],[43.8322,13.7832,1248.9934],[43.8348,13.7905,1174.3491],[43.8393,13.7914,1239.7396],[43.8417,13.7942,1239.5538],[43.8367,13.7989,1054.8699],[43.8367,13.8015,1044.6256],[43.8381,13.8029,1122.9734],[43.8465,13.8031,1281.2888],[43.8423,13.8131,1046.5068],[43.8313,13.8232,885.5631],[43.819,13.8244,955.6411],[43.8163,13.826599999999999,840.0159],[43.8131,13.8341,977.069],[43.8056,13.8408,919.7303],[43.7921,13.8433,773.5029],[43.7898,13.8487,789.7367],[43.7849,13.8497,819.512],[43.7841,13.8525,805.5784],[43.7859,13.8556,816.8309],[43.7842,13.8565,800.9323],[43.7847,13.8593,837.8757],[43.783,13.8621,846.7958],[43.7601,13.8857,859.4581],[43.7568,13.8873,865.324],[43.753,13.8862,813.6136],[43.7486,13.863,880.6422],[43.7395,13.8522,808.9714],[43.7174,13.8471,697.5632],[43.6995,13.8531,654.0562],[43.6803,13.8532,567.6179],[43.6719,13.8559,589.897]]]]}}