{"type":"Feature","properties":{"GID_2":"YEM.2.11_1","GID_0":"YEM","country":"Yemen","GID_1":"YEM.2_1","province":"Abyan","NL_NAME_1":"أبين","county":"Zingibar","VARNAME_2":"NA","NL_NAME_2":"زنجبار","TYPE_2":"Muderiah","ENGTYPE_2":"District","CC_2":"1210","HASC_2":"NA","name":"Zingibar.county"},
"geometry":{"type": "MultiPolygon","coordinates": [[[[45.4049,13.0771,2.6612],[45.4257,13.1018,0.0],[45.4512,13.1263,0.0],[45.454,13.1313,1.2881],[45.4535,13.1388,1.0797],[45.4549,13.1371,1.737],[45.4607,13.1382,0.0],[45.4954,13.1926,1.1146],[45.4617,13.1926,10.8049],[45.3592,13.1476,26.9384],[45.3622,13.1409,24.8818],[45.3591,13.1301,20.6986],[45.4049,13.0771,2.6612]]]]}}