{"type":"Feature","properties":{"GID_2":"YEM.1.2_1","GID_0":"YEM","country":"Yemen","GID_1":"YEM.1_1","province":"`Adan","NL_NAME_1":"عدن","county":"AlMansura","VARNAME_2":"NA","NL_NAME_2":"المنصورة","TYPE_2":"Muderiah","ENGTYPE_2":"District","CC_2":"2403","HASC_2":"NA","name":"Al_Mansura.county"},
"geometry":{"type": "MultiPolygon","coordinates": [[[[44.9918,12.8071,3.8169],[44.9918,12.8082,3.8169],[44.9893,12.8074,4.0957],[44.9832,12.8032,2.8848],[44.9835,12.8015,0.0],[44.9915,12.8054,4.4716],[44.9926,12.8032,0.0],[44.9982,12.8046,0.0],[44.9979,12.8068,0.0],[44.9918,12.8071,3.8169]]],
[[[44.9946,12.8143,0.4345],[44.9938,12.8135,0.4232],[44.996,12.8129,0.0],[44.9957,12.8137,0.0],[44.9946,12.8143,0.4345]]],
[[[44.9232,12.8871,29.2268],[44.9616,12.8302,1.8488],[44.9673,12.8298,2.1988],[44.9699,12.8268,0.7842],[44.971,12.8268,1.1467],[44.971,12.8293,1.6678],[44.9785,12.8282,1.4335],[44.9801,12.8293,2.0182],[44.9804,12.8321,2.2317],[44.9785,12.8351,2.526],[44.9819,12.8349,2.3245],[44.9879,12.8299,1.8481],[44.9851,12.829,2.0899],[44.9849,12.8274,2.3475],[44.9854,12.8254,0.5531],[44.9885,12.8251,1.2143],[44.989,12.8176,0.7866],[44.9893,12.8393,1.5591],[44.9879,12.8443,2.2332],[44.9924,12.8485,1.8467],[44.9929,12.8515,1.6989],[44.9988,12.8507,1.5642],[44.9996,12.8488,0.8789],[45.0062,12.8473,2.9133],[45.0101,12.8443,0.783],[45.0157,12.8449,0.6193],[45.0187,12.8431,0.8138],[45.0216,12.8476,3.207],[45.0175,12.8559,2.3522],[45.01,12.8651,6.6305],[44.9991,12.8672,10.0197],[44.9943,12.8661,10.3204],[44.9806,12.8775,14.1869],[44.9761,12.8737,18.1104],[44.9232,12.8871,29.2268]]]]}}