{"type":"Feature","properties":{"GID_2":"YEM.6.3_1","GID_0":"YEM","country":"Yemen","GID_1":"YEM.6_1","province":"AlJawf","NL_NAME_1":"الجوف","county":"AlHumaydat","VARNAME_2":"NA","NL_NAME_2":"الحميدات","TYPE_2":"Muderiah","ENGTYPE_2":"District","CC_2":"1602","HASC_2":"NA","name":"Al_Humaydat.county"},
"geometry":{"type": "MultiPolygon","coordinates": [[[[44.4503,16.3724,1218.4739],[44.4633,16.3894,1467.1814],[44.4773,16.3977,1625.865],[44.5152,16.3919,1724.3237],[44.5421,16.3819,1724.2018],[44.5998,16.3882,1701.524],[44.5706,16.466,1971.3934],[44.5506,16.4615,1812.4686],[44.5036,16.4679,1442.2291],[44.4856,16.511,2172.5786],[44.4855,16.552,2114.9478],[44.4608,16.5713,1994.3694],[44.4206,16.5712,1989.3208],[44.4021,16.5663,1642.9498],[44.3812,16.5539,1795.2291],[44.3743,16.5467,1859.5227],[44.3646,16.5279,1389.8046],[44.3572,16.522,1366.4879],[44.3311,16.5107,1333.7587],[44.3256,16.5066,1328.8361],[44.3179,16.4942,1309.5481],[44.3075,16.4889,1374.1311],[44.2802,16.4888,1409.1152],[44.2732,16.453,1488.7219],[44.2601,16.4035,1667.5214],[44.2618,16.3718,1696.3672],[44.3104,16.3712,1641.311],[44.3487,16.3766,1582.8295],[44.4156,16.3621,1560.0461],[44.4503,16.3724,1218.4739]]]]}}