{"type":"Feature","properties":{"GID_2":"YEM.5.25_1","GID_0":"YEM","country":"Yemen","GID_1":"YEM.5_1","province":"AlHudaydah","NL_NAME_1":"الحديده","county":"Kamaran","VARNAME_2":"NA","NL_NAME_2":"كمران","TYPE_2":"Muderiah","ENGTYPE_2":"District","CC_2":"1803","HASC_2":"NA","name":"Kamaran.county"},
"geometry":{"type": "MultiPolygon","coordinates": [[[[42.6288,15.4576,0.0],[42.6251,15.4574,0.0],[42.6079,15.4449,0.0],[42.599,15.444,0.0],[42.5946,15.4418,0.0],[42.5999,15.4354,0.0],[42.5993,15.431,0.0],[42.591,15.4299,0.3171],[42.5876,15.4279,0.0],[42.5863,15.4238,1.1986],[42.5749,15.4082,1.1104],[42.5679,15.4018,4.8312],[42.5643,15.4004,0.0],[42.5607,15.3965,0.0],[42.5596,15.3926,1.2927],[42.5537,15.3888,0.0],[42.5576,15.3801,1.9515],[42.5524,15.3707,0.0],[42.5596,15.3649,3.4312],[42.5593,15.359,3.0593],[42.5629,15.3554,0.0],[42.5649,15.3504,0.0],[42.5654,15.3385,0.8826],[42.5629,15.336,0.0],[42.5618,15.3249,3.4358],[42.5551,15.3132,1.6177],[42.5535,15.3151,1.7704],[42.5451,15.3118,1.4203],[42.5435,15.3138,0.0],[42.5404,15.314,0.0],[42.5354,15.3129,0.0],[42.5332,15.309,0.0],[42.5354,15.3015,0.0],[42.5435,15.2943,1.6034],[42.5435,15.2887,0.0],[42.5474,15.284,0.0],[42.5604,15.2746,0.0],[42.5693,15.2657,0.0],[42.5754,15.2635,0.0],[42.5762,15.2649,0.0],[42.5793,15.2643,0.554],[42.579,15.2621,0.0],[42.5804,15.264,1.1715],[42.5843,15.2632,0.2653],[42.5826,15.2618,0.0],[42.5863,15.2615,0.0],[42.5929,15.2638,0.0],[42.5954,15.2718,0.0],[42.5949,15.2751,0.0],[42.5982,15.2751,0.0],[42.601,15.2824,0.0],[42.604,15.2849,0.0],[42.6068,15.2849,0.0],[42.6115,15.2904,0.0],[42.6135,15.2971,0.0],[42.6182,15.3029,0.0],[42.6218,15.3249,0.0],[42.6193,15.3263,0.0],[42.6204,15.3299,0.0],[42.6185,15.3338,0.0],[42.6135,15.334,0.0],[42.6126,15.3388,0.6201],[42.6207,15.3385,0.0],[42.6188,15.3488,0.0],[42.6165,15.3499,0.4741],[42.6193,15.3504,0.0],[42.621,15.354,0.0],[42.6207,15.359,1.1829],[42.6257,15.3629,0.0],[42.6249,15.3657,4.1222],[42.629,15.3671,1.0606],[42.6312,15.3707,1.2558],[42.6282,15.3726,0.0],[42.6279,15.3776,0.0],[42.6257,15.3782,0.3442],[42.6274,15.3801,0.5779],[42.6312,15.3782,0.0],[42.6346,15.3826,0.9222],[42.6338,15.3913,0.0],[42.6376,15.3921,0.0],[42.6363,15.3971,0.0],[42.6393,15.3976,0.0],[42.6399,15.4035,0.0],[42.6288,15.4032,0.6373],[42.6201,15.3988,0.0],[42.6171,15.3993,0.0],[42.6107,15.3957,0.0],[42.6099,15.3932,0.5104],[42.5962,15.386,0.0],[42.5938,15.3876,0.0],[42.5893,15.3874,0.0],[42.5857,15.3938,0.0],[42.5774,15.3946,0.0],[42.5771,15.3982,0.0],[42.5801,15.4004,0.0],[42.584,15.4007,0.0],[42.5943,15.3993,0.0],[42.5938,15.3974,0.0],[42.5907,15.3971,0.0],[42.5913,15.3946,0.0],[42.594,15.3954,0.0],[42.5988,15.401,0.0],[42.6051,15.4021,0.8031],[42.6115,15.4004,0.0],[42.6174,15.4037,0.0],[42.6176,15.4057,0.0],[42.6129,15.4076,0.0],[42.6137,15.4104,0.0],[42.6115,15.4104,0.0],[42.6076,15.4143,0.4904],[42.6146,15.4132,0.0],[42.6196,15.4176,0.0],[42.6182,15.4251,0.0],[42.6107,15.4232,0.539],[42.6057,15.4179,0.247],[42.5988,15.4174,0.0],[42.5993,15.4201,1.3184],[42.6018,15.4199,0.0],[42.6032,15.4221,1.1145],[42.6074,15.4229,0.0],[42.6085,15.4299,1.4862],[42.6107,15.429,0.0],[42.6129,15.4307,0.0],[42.614,15.4365,0.168],[42.6188,15.4354,0.0],[42.6268,15.4274,0.0],[42.6324,15.4315,0.0],[42.6343,15.4312,0.0],[42.6368,15.4368,0.0],[42.6415,15.436,0.0],[42.6435,15.4407,0.0],[42.6424,15.4321,0.0],[42.6443,15.4315,0.0],[42.646,15.4282,0.0],[42.6488,15.4299,0.0],[42.6499,15.4335,0.0],[42.6476,15.434,0.0],[42.649,15.441,0.0],[42.6471,15.4418,0.0],[42.6476,15.444,0.0],[42.6415,15.4463,1.9465],[42.6437,15.4487,0.0],[42.6376,15.4501,1.9904],[42.6399,15.4562,0.0],[42.6318,15.4579,0.0],[42.6296,15.4562,0.7891],[42.6288,15.4576,0.0]]],
[[[42.6301,15.4218,0.0],[42.6249,15.414,0.0],[42.6207,15.4124,0.0],[42.6204,15.4071,0.0],[42.6232,15.4057,0.0],[42.6335,15.4068,0.0],[42.6354,15.4149,0.0],[42.6301,15.4218,0.0]]],
[[[42.5251,15.4171,0.0],[42.5226,15.4174,1.5006],[42.5226,15.4163,0.0],[42.5249,15.4154,0.0],[42.5251,15.4171,0.0]]]]}}