{"type":"Feature","properties":{"GID_2":"YEM.20.9_1","GID_0":"YEM","country":"Yemen","GID_1":"YEM.20_1","province":"Shabwah","NL_NAME_1":"شبوة","county":"Habban","VARNAME_2":"NA","NL_NAME_2":"حبان","TYPE_2":"Muderiah","ENGTYPE_2":"District","CC_2":"2114","HASC_2":"NA","name":"Habban.county"},
"geometry":{"type": "MultiPolygon","coordinates": [[[[47.1505,14.0611,1175.4808],[47.2322,14.1547,1094.8695],[47.2768,14.1546,955.5878],[47.2659,14.2379,743.8308],[47.2588,14.2401,747.5117],[47.2552,14.2429,773.0764],[47.2517,14.2493,789.7284],[47.2405,14.3408,1318.3528],[47.2151,14.403,869.0246],[47.2157,14.4679,868.6017],[47.2004,14.4986,1113.2755],[47.1652,14.5142,1617.1929],[47.1339,14.5145,1335.3979],[47.0592,14.4961,1493.6995],[46.9955,14.4706,1332.217],[47.0032,14.4394,1468.5332],[47.0124,14.3826,1560.2672],[47.0219,14.3747,1065.6633],[47.0301,14.3483,1101.0961],[47.0299,14.3235,1156.2009],[47.0346,14.2807,1403.5249],[47.0462,14.2056,1230.8256],[47.0678,14.2054,950.8142],[47.0796,14.1996,1152.4159],[47.0834,14.186,1189.7009],[47.0809,14.1282,921.475],[47.0826,14.1031,955.4268],[47.0923,14.0838,1108.739],[47.1061,14.074,1218.8329],[47.1277,14.0661,1279.8165],[47.1477,14.0659,1276.6365],[47.1505,14.0611,1175.4808]]]]}}