{"type":"Feature","properties":{"GID_2":"YEM.16.8_1","GID_0":"YEM","country":"Yemen","GID_1":"YEM.16_1","province":"Ma'rib","NL_NAME_1":"مأرب","county":"Majzar","VARNAME_2":"NA","NL_NAME_2":"مجزر","TYPE_2":"Muderiah","ENGTYPE_2":"District","CC_2":"2601","HASC_2":"NA","name":"Majzar.county"},
"geometry":{"type": "MultiPolygon","coordinates": [[[[44.594,16.0303,1592.4934],[44.575,16.0018,1499.1711],[44.607,15.9953,1618.8517],[44.6099,15.9933,1581.0428],[44.663,15.8765,1742.8645],[44.6859,15.7684,1607.3523],[44.6818,15.7553,1417.338],[44.6891,15.7183,1871.2239],[44.6914,15.716,1892.4016],[44.7169,15.6606,1542.902],[44.7436,15.6397,1668.1906],[44.7758,15.6319,1580.0513],[44.7889,15.6266,1514.0911],[44.7902,15.6248,1488.1996],[44.8407,15.643,1284.6936],[44.8823,15.6636,1285.0387],[44.8949,15.6971,1256.4402],[44.9043,15.7451,1193.5186],[44.9255,15.7946,1152.2693],[45.0132,15.9159,1076.9484],[44.8414,16.0306,1092.0745],[44.594,16.0303,1592.4934]]]]}}