{"type":"Feature","properties":{"GID_2":"YEM.10.17_1","GID_0":"YEM","country":"Yemen","GID_1":"YEM.10_1","province":"Amran","NL_NAME_1":"عمران","county":"Raydah","VARNAME_2":"NA","NL_NAME_2":"ريده","TYPE_2":"Muderiah","ENGTYPE_2":"District","CC_2":"2911","HASC_2":"NA","name":"Raydah.county"},
"geometry":{"type": "MultiPolygon","coordinates": [[[[44.0706,15.646,2609.7974],[44.0949,15.6382,2593.3657],[44.1037,15.6439,2666.7964],[44.1076,15.6487,2619.2341],[44.107,15.6569,2585.041],[44.1009,15.6765,2588.9031],[44.0964,15.7183,2603.5845],[44.0992,15.7283,2615.2666],[44.0914,15.7442,2511.1057],[44.0813,15.751,2454.0493],[44.0519,15.7528,2327.5229],[44.0368,15.7569,2200.7876],[44.0206,15.7252,2225.3887],[44.0197,15.7134,2244.7688],[44.0319,15.689,2394.7036],[44.0482,15.6635,2647.5925],[44.0706,15.646,2609.7974]]],
[[[44.0498,15.7779,2210.1951],[44.0518,15.7784,2221.5544],[44.0578,15.7882,2192.6609],[44.0689,15.801,2190.9194],[44.0668,15.8079,2186.9316],[44.0506,15.8196,2180.4014],[44.0475,15.8284,2178.584],[44.0342,15.8519,2187.4524],[44.0291,15.8538,2196.4504],[44.0271,15.8587,2202.2212],[44.0279,15.8852,2616.3457],[44.0127,15.8959,2557.6658],[44.0046,15.8969,2545.8477],[44.0004,15.9106,2628.2114],[43.9821,15.9288,2637.8623],[43.9683,15.9137,2668.1172],[43.9679,15.8864,2650.364],[43.9646,15.8786,2652.9912],[43.9554,15.8741,2608.8752],[43.9291,15.8735,2592.0649],[43.9298,15.8524,2481.6516],[43.9401,15.82,2216.7627],[43.9452,15.8122,2234.5327],[43.9553,15.8083,2451.4585],[44.0091,15.8076,2450.6484],[44.0212,15.8037,2251.0212],[44.0334,15.795,2185.9338],[44.0498,15.7779,2210.1951]]]]}}