{"type":"Feature","properties":{"GID_2":"YEM.13.31_1","GID_0":"YEM","country":"Yemen","GID_1":"YEM.13_1","province":"Hajjah","NL_NAME_1":"حجه","county":"Washhah","VARNAME_2":"NA","NL_NAME_2":"وشحة","TYPE_2":"Muderiah","ENGTYPE_2":"District","CC_2":"1730","HASC_2":"NA","name":"Washhah.county"},
"geometry":{"type": "MultiPolygon","coordinates": [[[[43.3214,16.3724,349.0432],[43.3142,16.3614,332.3571],[43.3279,16.3461,378.4783],[43.3355,16.3342,411.0319],[43.3464,16.3299,423.8841],[43.3442,16.3264,444.8798],[43.3383,16.3264,394.5137],[43.3339,16.3211,409.0421],[43.3297,16.3057,403.7201],[43.3309,16.2968,403.8701],[43.3366,16.2944,424.4483],[43.3408,16.2871,480.0959],[43.3494,16.264,493.514],[43.3604,16.2565,521.775],[43.3638,16.2588,523.3344],[43.3705,16.2495,514.2079],[43.3697,16.2424,521.9458],[43.3728,16.2413,597.1383],[43.3741,16.2355,540.6542],[43.3704,16.2264,501.5817],[43.3707,16.2235,489.8074],[43.3729,16.2218,496.0453],[43.3854,16.2257,561.8135],[43.3931,16.2305,665.314],[43.4039,16.2443,687.2953],[43.4115,16.2492,644.106],[43.4133,16.2524,659.2879],[43.4286,16.2601,795.3004],[43.4236,16.2874,1003.5998],[43.4239,16.2941,992.9795],[43.4246,16.3012,1089.6267],[43.4288,16.3116,1102.3094],[43.4287,16.3198,1157.6083],[43.4337,16.3243,1160.171],[43.4352,16.3291,1433.1973],[43.4328,16.3376,1212.5743],[43.4335,16.341,1068.9922],[43.4296,16.3469,1020.2928],[43.4292,16.3502,917.6866],[43.4345,16.3607,950.2368],[43.4306,16.3766,736.7587],[43.4313,16.3844,723.7468],[43.4366,16.3919,714.8453],[43.4369,16.3971,738.0432],[43.4306,16.4238,588.9898],[43.4217,16.4311,631.4707],[43.4082,16.4533,553.7977],[43.3907,16.4318,519.7656],[43.3693,16.4151,454.0441],[43.3562,16.4087,443.8168],[43.3294,16.3788,369.8628],[43.3214,16.3724,349.0432]]]]}}