{"type":"Feature","properties":{"GID_2":"YEM.9.5_1","GID_0":"YEM","country":"Yemen","GID_1":"YEM.9_1","province":"AmanatAlAsimah","NL_NAME_1":"أمانةالعاصمة","county":"Ath'thaorah","VARNAME_2":"NA","NL_NAME_2":"الثورة","TYPE_2":"Muderiah","ENGTYPE_2":"District","CC_2":"1309","HASC_2":"NA","name":"Ath'thaorah.county"},
"geometry":{"type": "MultiPolygon","coordinates": [[[[44.2073,15.3597,2251.0898],[44.2048,15.3771,2244.2451],[44.2138,15.3797,2239.3525],[44.2107,15.384,2239.3535],[44.2122,15.3852,2237.3413],[44.214,15.4205,2218.9187],[44.2056,15.42,2232.2104],[44.1941,15.4226,2228.0879],[44.1863,15.4174,2233.0642],[44.1847,15.4103,2292.2676],[44.1804,15.4017,2272.0947],[44.1716,15.3934,2300.9656],[44.1716,15.3906,2300.1748],[44.1765,15.3776,2303.4011],[44.1794,15.3736,2273.582],[44.189,15.3666,2256.5173],[44.1889,15.3651,2257.5884],[44.196,15.3616,2253.7537],[44.2073,15.3597,2251.0898]]]]}}