{"type":"Feature","properties":{"GID_2":"YEM.18.7_1","GID_0":"YEM","country":"Yemen","GID_1":"YEM.18_1","province":"Sa`dah","NL_NAME_1":"صعدة","county":"KitafwaAlBoqe'e","VARNAME_2":"NA","NL_NAME_2":"كتافوالبقع","TYPE_2":"Muderiah","ENGTYPE_2":"District","CC_2":"2214","HASC_2":"NA","name":"Kitafwa_Al_Boqe'e.county"},
"geometry":{"type": "MultiPolygon","coordinates": [[[[44.3346,17.4296,1500.0869],[44.227,17.4179,1673.4475],[44.2083,17.4139,1735.6548],[44.1903,17.4146,1856.4673],[44.1381,17.4089,1606.8687],[44.1308,17.3836,1552.3066],[44.1108,17.3664,1484.811],[44.1006,17.3661,1451.5673],[44.0667,17.4058,1543.9696],[44.0496,17.4049,1442.9941],[44.0233,17.3913,1778.4346],[44.0114,17.4025,1373.735],[43.9667,17.3306,1759.4349],[43.9055,17.3417,2127.4092],[43.9084,16.8408,1848.6334],[43.9038,16.816,1778.4836],[43.9039,16.807,1829.6953],[43.9069,16.7969,1776.3982],[43.9118,16.7904,1729.8018],[43.9268,16.7837,1735.2557],[44.0394,16.7534,1643.1377],[44.0648,16.743,1874.7449],[44.0894,16.7282,1785.8286],[44.0979,16.7332,1827.1217],[44.0994,16.749,1889.5188],[44.1017,16.7537,2009.4318],[44.109,16.7611,2300.1042],[44.1101,16.7903,2148.1882],[44.1152,16.806,2194.406],[44.1289,16.8055,2103.4243],[44.1337,16.8071,2032.353],[44.1431,16.8122,2079.6211],[44.1495,16.8192,2025.0543],[44.1463,16.8279,1986.6199],[44.1504,16.838,2034.9717],[44.1557,16.84,2088.7695],[44.1615,16.8885,1790.8801],[44.1775,16.9031,1740.8378],[44.1907,16.9251,1708.3291],[44.1903,16.9308,1703.4485],[44.1889,16.9319,1707.0725],[44.191,16.9408,1717.7812],[44.199,16.9466,1702.1355],[44.2158,16.949,1713.1316],[44.2696,16.9504,1743.5544],[44.2952,16.9613,1476.2489],[44.3095,16.9776,1494.9149],[44.3082,17.0071,1561.6763],[44.31,17.0258,1457.3932],[44.3358,17.0621,1463.5916],[44.3594,17.0694,1537.8055],[44.4498,17.0033,1731.121],[44.5066,17.0374,1531.2509],[44.5842,17.0557,1592.3976],[44.6411,17.0636,1587.8604],[44.8879,17.0639,1256.8765],[44.8886,17.4333,1092.3297],[44.65,17.4333,1139.4192],[44.5667,17.4056,1188.1575],[44.4667,17.4333,1205.347],[44.3661,17.4333,1506.099],[44.3346,17.4296,1500.0869]]]]}}