{"type":"Feature","properties":{"GID_2":"YEM.11.10_1","GID_0":"YEM","country":"Yemen","GID_1":"YEM.11_1","province":"Dhamar","NL_NAME_1":"ذمار","county":"Utmah","VARNAME_2":"NA","NL_NAME_2":"عتمة","TYPE_2":"Muderiah","ENGTYPE_2":"District","CC_2":"2005","HASC_2":"NA","name":"Utmah.county"},
"geometry":{"type": "MultiPolygon","coordinates": [[[[43.9708,14.5961,1295.5974],[43.956,14.5988,1277.3119],[43.9467,14.6034,1195.226],[43.936,14.6037,1251.6483],[43.9356,14.5975,1187.724],[43.929,14.5941,1202.3292],[43.9244,14.5809,1180.8572],[43.9125,14.5658,1138.7552],[43.9061,14.5504,1088.0613],[43.8956,14.5454,1177.5295],[43.8909,14.5313,1119.3862],[43.8814,14.5292,1046.255],[43.8753,14.5257,1033.2521],[43.8695,14.5182,1046.2831],[43.8631,14.5036,1090.0334],[43.8533,14.4984,1023.0083],[43.8342,14.4961,936.3923],[43.811,14.4798,902.6747],[43.811,14.4767,918.6049],[43.8083,14.4732,970.0857],[43.8134,14.4459,1254.27],[43.8179,14.4438,1145.2358],[43.8193,14.4457,1024.14],[43.8292,14.4456,1031.5111],[43.8341,14.4417,1116.6814],[43.8383,14.4289,1070.8119],[43.8469,14.4171,1144.2742],[43.8469,14.4083,1447.2081],[43.8492,14.4079,1394.6047],[43.8528,14.4035,1295.6238],[43.8542,14.3969,1295.8787],[43.874,14.3983,1389.356],[43.8736,14.3926,1598.4224],[43.8834,14.3911,1511.9065],[43.8915,14.3956,1598.2343],[43.8996,14.4029,1768.4443],[43.9035,14.4022,1798.9333],[43.9112,14.42,1794.702],[43.9212,14.4276,1561.7736],[43.9235,14.4262,1503.0594],[43.9285,14.4188,1394.9066],[43.9371,14.4136,1447.5405],[43.9452,14.4009,1319.7662],[43.9421,14.3956,1347.288],[43.9449,14.3785,1446.7704],[43.9405,14.3595,1271.6691],[43.946,14.3608,1275.6265],[43.9555,14.36,1194.8657],[43.9586,14.3518,1195.0375],[43.9642,14.3442,1177.7433],[43.9667,14.344,1183.1582],[43.9694,14.3449,1153.0062],[43.9682,14.3554,1193.5187],[43.9693,14.3633,1193.6483],[43.9681,14.3659,1199.5702],[43.9708,14.3726,1296.3818],[43.9762,14.3788,1366.9319],[43.9869,14.3814,1233.1455],[43.9929,14.38,1248.2219],[43.9962,14.3817,1272.3541],[43.9982,14.3878,1298.376],[44.0043,14.3937,1268.1294],[44.0101,14.3945,1252.7371],[44.0139,14.3968,1237.0247],[44.0187,14.4031,1217.8915],[44.0199,14.4097,1253.5625],[44.0188,14.4138,1254.3599],[44.0317,14.4272,1316.3757],[44.0325,14.4342,1354.2606],[44.043,14.438,1368.9148],[44.0484,14.4471,1396.1367],[44.0474,14.4531,1417.1135],[44.051,14.4613,1498.2566],[44.0504,14.4678,1598.562],[44.0531,14.4689,1557.2921],[44.061,14.4673,1548.754],[44.0644,14.4695,1575.3201],[44.0695,14.4682,1588.2192],[44.0748,14.4701,1539.8854],[44.0774,14.491,1862.11],[44.0762,14.4956,1927.0583],[44.0865,14.5024,2590.1504],[44.0883,14.514,2505.2051],[44.0865,14.5175,2358.2461],[44.0826,14.5174,2398.189],[44.0763,14.5146,2512.7319],[44.0725,14.518,2506.2266],[44.0707,14.5287,2302.6768],[44.0635,14.5333,2140.2507],[44.0635,14.5371,1894.6031],[44.0697,14.5372,1849.3043],[44.0706,14.5386,1849.3043],[44.0572,14.5473,1593.2731],[44.0523,14.5574,1556.105],[44.0353,14.5648,1442.5634],[44.0308,14.5648,1423.7361],[44.0279,14.5675,1408.2609],[44.0199,14.5708,1453.9924],[44.0136,14.5719,1421.5449],[44.0085,14.5746,1422.3159],[44.0045,14.5829,1342.1415],[43.996,14.5818,1351.8867],[43.9885,14.584,1325.4905],[43.9806,14.584,1277.7839],[43.972,14.5822,1261.9427],[43.9708,14.5839,1272.4567],[43.9708,14.5961,1295.5974]]]]}}