{"type":"Feature","properties":{"GID_2":"YEM.5.4_1","GID_0":"YEM","country":"Yemen","GID_1":"YEM.5_1","province":"AlHudaydah","NL_NAME_1":"الحديده","county":"AlHajjaylah","VARNAME_2":"NA","NL_NAME_2":"الحجيلة","TYPE_2":"Muderiah","ENGTYPE_2":"District","CC_2":"1811","HASC_2":"NA","name":"Al_Hajjaylah.county"},
"geometry":{"type": "MultiPolygon","coordinates": [[[[43.498,14.9803,601.4142],[43.532,14.9753,496.9094],[43.5488,14.9633,497.3148],[43.5574,14.9523,497.9278],[43.5622,14.9501,503.2182],[43.5846,14.9464,549.6703],[43.599,14.9414,600.9141],[43.607,14.9356,668.8032],[43.6185,14.9316,598.5975],[43.6307,14.9341,627.2678],[43.6394,14.9403,634.7806],[43.655,14.9597,727.3396],[43.6657,14.9674,748.1454],[43.6666,14.971,706.5392],[43.6645,14.9751,751.442],[43.6541,14.9784,847.3015],[43.6488,14.9837,702.193],[43.6428,15.0098,740.2796],[43.6335,15.0104,835.6367],[43.6297,15.0064,972.941],[43.6294,15.0024,786.1823],[43.6245,14.9951,710.7072],[43.6124,14.9899,603.7115],[43.5942,14.9979,569.2372],[43.5743,15.0004,531.6622],[43.5666,15.0113,523.402],[43.5506,15.0166,493.3964],[43.5371,15.0168,483.0764],[43.531,15.0189,473.4702],[43.5169,15.0319,458.0089],[43.513,15.0383,460.3082],[43.5115,15.049,479.257],[43.5082,15.0495,475.918],[43.5025,15.0498,509.6619],[43.5011,15.0448,558.3803],[43.5042,15.0353,533.5502],[43.5004,15.0264,446.1321],[43.5023,15.0144,439.3238],[43.5008,15.0122,439.8195],[43.498,14.9803,601.4142]]]]}}