{"type":"Feature","properties":{"GID_2":"YEM.16.5_1","GID_0":"YEM","country":"Yemen","GID_1":"YEM.16_1","province":"Ma'rib","NL_NAME_1":"مأرب","county":"HaribAlQaramish","VARNAME_2":"NA","NL_NAME_2":"حريبالقرامش","TYPE_2":"Muderiah","ENGTYPE_2":"District","CC_2":"2604","HASC_2":"NA","name":"Harib_Al_Qaramish.county"},
"geometry":{"type": "MultiPolygon","coordinates": [[[[44.7163,15.4709,1771.2817],[44.7054,15.5139,1625.0669],[44.7055,15.5412,1664.1785],[44.6819,15.5304,1786.8981],[44.6558,15.5137,1862.484],[44.6498,15.504,1899.1104],[44.6281,15.4926,1984.8269],[44.5989,15.4882,2141.8105],[44.5216,15.4713,2460.4229],[44.5144,15.4427,2570.5569],[44.5312,15.4196,2463.7776],[44.5622,15.4058,2633.3894],[44.5932,15.4059,2340.1904],[44.6147,15.4105,2266.5037],[44.6885,15.4476,1995.5763],[44.7163,15.4709,1771.2817]]]]}}