{"type":"Feature","properties":{"GID_1":"YEM.15_1","GID_0":"YEM","country":"Yemen","province":"Lahij","VARNAME_1":"Laheg|Lahej|Lahj|Tuban","NL_NAME_1":"لحج","TYPE_1":"Muhafazah","ENGTYPE_1":"Governorate","CC_1":"25","HASC_1":"YE.LA","ISO_1":"YE-LA","name":"Lahij.province"},
"geometry":{"type": "MultiPolygon","coordinates": [[[[44.1263,12.6315,0.0],[44.1271,12.6318,0.0],[44.1276,12.6329,0.0],[44.1251,12.6324,0.0],[44.1263,12.6315,0.0]]],
[[[44.4117,12.6799,1.5033],[44.4116,12.6802,1.5033],[44.4115,12.6799,1.5033],[44.4117,12.6799,1.5033]]],
[[[44.4412,12.7498,39.8609],[44.4579,12.7815,32.7223],[44.4781,12.811,43.2636],[44.4963,12.8323,65.6842],[44.5214,12.8458,90.8828],[44.5397,12.8514,97.7791],[44.5865,12.8594,104.6114],[44.623,12.8594,63.5706],[44.6664,12.8628,66.3494],[44.6995,12.8685,60.101],[44.7258,12.8674,51.6237],[44.8434,12.8798,39.3569],[44.88,12.9,43.606],[44.8903,12.9,40.1444],[44.9017,12.9045,35.2525],[44.9131,12.9112,41.5022],[44.9222,12.9224,42.9123],[44.9416,12.928,37.8779],[44.9622,12.9314,33.2772],[44.9862,12.9303,24.8919],[45.0033,12.9314,20.1909],[45.0193,12.937,16.0377],[45.0353,12.9404,13.1939],[45.0662,12.9404,4.499],[45.0776,12.9426,2.7065],[45.0881,12.9413,2.5267],[45.0881,12.9773,7.4334],[45.0733,13.0078,14.967],[45.0658,13.0407,25.5298],[45.0677,13.0672,27.8304],[45.0928,13.0856,24.9396],[45.1292,13.1302,105.1836],[45.1703,13.2017,152.2229],[45.1886,13.2821,142.6381],[45.1954,13.3253,255.8971],[45.2006,13.3317,362.7462],[45.2655,13.3631,193.6692],[45.2793,13.4137,358.626],[45.2575,13.4181,491.5445],[45.246,13.4322,669.5381],[45.2288,13.4477,417.6325],[45.1799,13.4787,405.8388],[45.19,13.5058,532.5298],[45.2136,13.5392,590.3171],[45.2407,13.568,699.0122],[45.2709,13.6195,1326.2212],[45.2762,13.6358,1412.6102],[45.28,13.64,1455.6636],[45.2843,13.6367,1539.467],[45.2876,13.6386,1595.3793],[45.2843,13.6507,1893.9996],[45.2828,13.6535,1987.5627],[45.2805,13.6535,1932.5947],[45.2776,13.6488,1820.7493],[45.2755,13.6509,1803.8145],[45.2743,13.6493,1732.1504],[45.2705,13.6502,1535.7479],[45.2681,13.6553,1525.8597],[45.2638,13.6586,1570.8384],[45.2558,13.6614,1864.0837],[45.2515,13.6586,1727.5947],[45.2434,13.6577,1625.4792],[45.2339,13.6623,1241.9076],[45.2258,13.6614,1226.3451],[45.2182,13.6549,1229.3489],[45.211,13.6438,943.9231],[45.1954,13.6433,1070.9459],[45.1839,13.6526,864.7775],[45.173,13.6866,866.7299],[45.1735,13.6917,1000.6362],[45.212,13.701,1564.759],[45.2225,13.7061,1601.5818],[45.2287,13.7042,1569.7419],[45.2396,13.7037,1480.6019],[45.2444,13.707,1645.7344],[45.2496,13.7074,1618.4983],[45.2558,13.7107,1756.7784],[45.2591,13.7144,1881.9553],[45.2587,13.7204,1687.6251],[45.2454,13.7367,1657.0416],[45.2459,13.7437,1712.377],[45.2492,13.7497,2105.9033],[45.2454,13.7563,2087.0051],[45.2378,13.7591,1913.2968],[45.233,13.7651,2017.1675],[45.2383,13.7814,1781.2565],[45.243899999999996,13.793,1920.8192],[45.2506,13.796,1979.3821],[45.2531,13.8013,2209.3857],[45.2563,13.8029,2269.375],[45.2764,13.7974,2269.1831],[45.2983,13.7973,1953.7181],[45.3236,13.8086,1658.2104],[45.342,13.8085,1464.7473],[45.3455,13.8175,1370.8456],[45.3294,13.831,1649.5112],[45.3237,13.8333,1674.4746],[45.3122,13.8536,1988.9736],[45.306399999999996,13.8671,1971.2483],[45.3065,13.8817,2137.4399],[45.3088,13.885,2078.1335],[45.3113,13.8992,2193.8577],[45.3249,13.909,2366.8433],[45.3307,13.9108,2398.1523],[45.3355,13.9079,2306.4497],[45.3733,13.9007,2112.4089],[45.3836,13.9097,2152.7988],[45.3782,13.9226,2127.1846],[45.3796,13.9447,2079.074],[45.3837,13.9659,2092.7446],[45.3858,13.9874,2032.093],[45.3844,14.0003,2017.0698],[45.3694,14.0394,1980.8859],[45.36,14.0518,1951.9658],[45.3551,14.0559,1952.9165],[45.3505,14.0559,1961.5631],[45.3297,14.0458,1901.2712],[45.261,14.0025,1551.3691],[45.2343,13.9682,1523.0696],[45.2266,13.9651,1507.536],[45.2198,13.9651,2019.2562],[45.2028,13.9727,1520.4182],[45.1843,13.973,1337.012],[45.1804,13.9779,1659.8115],[45.1734,13.9804,1493.6201],[45.1634,13.9817,1256.9304],[45.1559,13.977,1345.1349],[45.1508,13.9808,1228.3546],[45.1481,13.977,1469.6085],[45.1458,13.9769,1376.5333],[45.1455,13.9742,1411.4707],[45.141,13.9762,1183.4304],[45.1386,13.9739,1204.3702],[45.1386,13.9671,1409.6219],[45.1422,13.9624,1225.4111],[45.1345,13.9537,1398.0563],[45.1353,13.9501,1204.3477],[45.1325,13.9442,1266.2743],[45.1317,13.9263,1398.1418],[45.1276,13.9251,1255.9335],[45.1264,13.9204,1103.9133],[45.1292,13.9164,1167.2712],[45.1248,13.9109,1160.4248],[45.1288,13.903,1274.2382],[45.1195,13.8962,1107.7571],[45.1175,13.8895,1150.955],[45.1122,13.8875,1029.3953],[45.113,13.8796,1265.6709],[45.111,13.8736,1178.0551],[45.1053,13.8701,1128.5076],[45.1041,13.8645,1138.4636],[45.0583,13.8338,1699.4723],[45.0062,13.795,1667.7944],[44.9337,13.7504,1720.1384],[44.9085,13.745,1318.5265],[44.8928,13.7365,1913.374],[44.8802,13.7234,2113.3738],[44.8676,13.718,1846.1704],[44.8513,13.7185,1429.1509],[44.8392,13.7323,1492.0876],[44.8277,13.7322,1306.6489],[44.8166,13.7294,1383.2163],[44.8072,13.7243,1366.0691],[44.8286,13.6444,999.4774],[44.8375,13.586,813.8669],[44.8188,13.5842,934.6416],[44.8039,13.5871,962.592],[44.7773,13.5984,1281.8793],[44.7607,13.608,1245.199],[44.7545,13.6014,1168.8221],[44.7459,13.588,1254.9454],[44.7354,13.5793,1093.6149],[44.7197,13.5747,1139.4915],[44.7007,13.5732,1552.1409],[44.6487,13.5557,1011.9298],[44.6404,13.5559,1031.8999],[44.6223,13.5624,985.2096],[44.6006,13.5791,1046.3701],[44.5903,13.579,1121.2081],[44.5882,13.57,895.8646],[44.595,13.5609,925.3501],[44.5944,13.5568,989.0813],[44.587,13.5508,857.692],[44.577,13.5501,831.1207],[44.5749,13.5595,916.7916],[44.5632,13.5673,830.6039],[44.5537,13.5698,781.7886],[44.5515,13.5711,796.3665],[44.5502,13.5749,816.662],[44.5408,13.5768,872.302],[44.533,13.582,911.719],[44.5148,13.5895,947.092],[44.5113,13.5806,964.6174],[44.5057,13.5733,1174.699],[44.4795,13.5466,1261.7435],[44.4659,13.5295,950.8732],[44.4512,13.526,1005.3448],[44.4261,13.5256,952.4357],[44.4231,13.5203,946.3403],[44.4247,13.5035,901.2609],[44.4214,13.4989,939.3542],[44.4134,13.4952,964.1946],[44.4009,13.497,1095.5803],[44.387,13.496,1175.1332],[44.3819,13.4941,1004.4886],[44.374,13.4796,960.8987],[44.3549,13.4823,1070.3047],[44.345,13.4823,1032.7329],[44.3376,13.4798,1079.5394],[44.3311,13.4691,955.9111],[44.3306,13.4605,953.7608],[44.334,13.4567,1010.0176],[44.3521,13.4443,883.0275],[44.3768,13.4314,951.834],[44.3926,13.4255,995.6376],[44.4131,13.4217,882.6747],[44.4197,13.4174,909.6284],[44.4247,13.4061,898.4368],[44.4258,13.3903,935.6674],[44.4231,13.3854,941.6755],[44.418,13.3832,934.462],[44.3902,13.3799,945.8829],[44.3763,13.3813,1025.0989],[44.3663,13.3846,1009.2722],[44.3492,13.3855,999.802],[44.3333,13.3835,1001.8818],[44.33,13.3816,997.4108],[44.3245,13.3735,1022.6976],[44.3172,13.3701,1069.8186],[44.3103,13.3677,1047.5215],[44.2929,13.3676,1072.5597],[44.2935,13.3564,1332.7972],[44.2977,13.3557,1200.7131],[44.3045,13.3626,1089.6924],[44.3157,13.3639,1062.4669],[44.3202,13.3572,1135.2064],[44.3182,13.3545,1188.5747],[44.3228,13.3574,1110.3262],[44.327,13.3567,1163.6509],[44.3378,13.3439,1189.6245],[44.3378,13.3378,1190.493],[44.3281,13.3163,1813.8903],[44.3259,13.3027,1712.7363],[44.3265,13.2983,1503.7191],[44.3329,13.2883,1317.0798],[44.3412,13.2677,1015.5199],[44.3361,13.2525,1033.0321],[44.3382,13.2397,1065.5176],[44.3361,13.2349,1039.4879],[44.3276,13.2291,884.1758],[44.3127,13.2232,861.5261],[44.3092,13.2189,831.9314],[44.3071,13.2125,729.2587],[44.3009,13.2116,704.9147],[44.2788,13.2035,932.8896],[44.2754,13.2051,947.7585],[44.2732,13.2113,1005.7581],[44.2615,13.2152,1121.0433],[44.2307,13.2163,1116.7869],[44.2194,13.2141,1341.384],[44.205,13.2178,1226.1541],[44.1963,13.218,1418.3123],[44.1894,13.2205,1416.3568],[44.1838,13.2201,1454.1472],[44.1804,13.2232,1675.9686],[44.1802,13.227,1782.9554],[44.1838,13.2421,1548.8784],[44.1753,13.2461,1623.4454],[44.1711,13.2511,1517.9194],[44.1649,13.2422,2007.585],[44.1653,13.2376,2027.4622],[44.1676,13.2363,2080.74],[44.1774,13.2369,2132.7739],[44.1777,13.235,2181.7349],[44.1768,13.2338,2181.7349],[44.1731,13.235,2168.6685],[44.1649,13.231,2106.27],[44.1675,13.2261,2135.9041],[44.1656,13.2232,2126.2224],[44.1724,13.2099,2147.6094],[44.17,13.2054,2071.6245],[44.1662,13.2044,1954.826],[44.1621,13.2063,2056.8386],[44.1582,13.2046,2057.7097],[44.138,13.2029,1297.2913],[44.1324,13.201,1299.0969],[44.1296,13.1983,1369.8684],[44.1292,13.195,1565.623],[44.1318,13.1882,1494.2209],[44.1547,13.1599,1199.1675],[44.1554,13.1514,975.1766],[44.1025,13.1533,1485.3763],[44.0923,13.162,1314.3092],[44.0873,13.1583,1210.8363],[44.0848,13.1537,1230.009],[44.0818,13.1305,1230.2336],[44.0824,13.1157,919.8854],[44.0854,13.1044,934.643],[44.0823,13.0948,994.8926],[44.078,13.0906,900.3027],[44.0628,13.0892,825.8419],[44.0505,13.0901,833.6265],[44.0398,13.0955,939.056],[44.0252,13.107,1046.2505],[44.0095,13.1263,860.3829],[43.9997,13.1325,990.9246],[43.9877,13.0999,1167.2814],[43.9945,13.088,1031.1802],[43.9896,13.0789,1092.5355],[43.9757,13.0694,761.5994],[43.9372,13.0893,736.9307],[43.8912,13.0998,841.7765],[43.8704,13.1103,758.4988],[43.8644,13.1185,849.1657],[43.8481,13.1224,986.5475],[43.8128,13.1154,742.3673],[43.7994,13.1081,773.8882],[43.7772,13.081,646.9694],[43.7625,13.0707,542.3563],[43.7485,13.0698,492.5145],[43.721,13.0744,526.3896],[43.6949,13.0767,604.8041],[43.7004,13.0204,688.9583],[43.7,12.9986,360.8462],[43.7058,12.9671,422.2265],[43.647,12.9524,211.0101],[43.5232,12.7098,22.0486],[43.539,12.6977,0.0],[43.5535,12.7176,0.6549],[43.5701,12.7349,0.729],[43.5868,12.7443,0.4197],[43.5965,12.7482,0.0],[43.6015,12.7482,0.9533],[43.6176,12.7399,1.5283],[43.6265,12.7376,1.2351],[43.6307,12.7338,1.4369],[43.6371,12.7351,0.0],[43.6482,12.7318,1.0426],[43.654,12.7257,0.6136],[43.6704,12.7263,0.0],[43.679,12.7235,0.0],[43.6868,12.7243,2.6222],[43.691,12.7226,0.7764],[43.6957,12.7174,0.4387],[43.7043,12.7138,1.2462],[43.721,12.7124,2.0814],[43.7371,12.7074,2.0989],[43.7415,12.7046,0.0],[43.7457,12.7043,2.7717],[43.7515,12.6996,5.9446],[43.7529,12.6965,0.8062],[43.7576,12.6954,0.0],[43.7596,12.6929,1.0814],[43.7679,12.6935,2.6346],[43.7718,12.689,1.406],[43.7874,12.6924,2.4969],[43.7985,12.6901,0.4522],[43.8032,12.6857,1.1193],[43.8104,12.6829,3.5239],[43.8174,12.6776,0.349],[43.8221,12.6774,2.545],[43.824,12.674,0.0],[43.8335,12.6718,0.0],[43.8371,12.6668,0.0],[43.8446,12.6643,0.7316],[43.849,12.659,0.5072],[43.8554,12.6599,0.0],[43.8629,12.6582,0.0],[43.8657,12.656,0.6637],[43.879,12.6554,0.0],[43.8854,12.6504,0.0],[43.8937,12.6493,2.235],[43.9026,12.6446,0.0],[43.9087,12.6438,4.0922],[43.9126,12.6399,0.3669],[43.9157,12.6299,2.2405],[43.9149,12.6088,0.0],[43.9176,12.6046,0.3993],[43.9235,12.6021,1.4223],[43.9274,12.5976,0.0],[43.9396,12.5968,0.0],[43.9454,12.5935,0.0],[43.9496,12.5935,0.0],[43.9532,12.596,0.6751],[43.9607,12.5938,1.2884],[43.9707,12.594,1.2263],[43.9893,12.6032,0.0],[43.9954,12.6018,0.0],[44.004,12.6029,2.5294],[44.0088,12.601,0.5118],[44.0154,12.6043,2.975],[44.0299,12.6037,0.0],[44.0371,12.6057,3.4274],[44.0451,12.6026,0.6804],[44.0488,12.6032,0.0],[44.0599,12.6104,0.0],[44.066,12.6115,0.0],[44.0738,12.6174,1.2833],[44.0801,12.6176,1.6201],[44.0976,12.6243,3.1731],[44.1037,12.6296,3.6111],[44.1079,12.6307,5.6131],[44.1168,12.6376,8.6102],[44.1226,12.6399,0.7508],[44.1263,12.644,6.0641],[44.1324,12.6474,3.2674],[44.1426,12.6493,0.8049],[44.1496,12.6526,0.5625],[44.1496,12.6546,1.1516],[44.1524,12.6563,0.5888],[44.1665,12.6496,0.0],[44.1732,12.6474,0.0],[44.1754,12.6482,0.6223],[44.1771,12.6457,0.3253],[44.1832,12.6465,2.5388],[44.1849,12.6421,1.7445],[44.1899,12.6388,3.0753],[44.1899,12.6226,1.4293],[44.1799,12.6188,0.0],[44.1701,12.6171,0.0],[44.166,12.6176,0.7012],[44.1638,12.6204,0.0],[44.1613,12.6196,0.2299],[44.1601,12.6215,0.2313],[44.1579,12.6213,0.7087],[44.1563,12.6243,0.0],[44.1549,12.6232,1.506],[44.1432,12.624,0.2094],[44.136,12.631,0.0],[44.134,12.6299,0.417],[44.1424,12.6232,0.0],[44.1543,12.6221,1.506],[44.166,12.616,0.0],[44.1888,12.6188,1.3246],[44.1899,12.616,0.4427],[44.1949,12.6215,1.9242],[44.1993,12.6226,0.0],[44.2093,12.6293,1.5576],[44.2232,12.634,8.6718],[44.2376,12.6326,6.7197],[44.2401,12.6293,0.0],[44.2435,12.6293,9.4847],[44.2535,12.6249,0.0],[44.2574,12.6251,0.0],[44.2671,12.6304,2.214],[44.2771,12.6313,2.7216],[44.2824,12.6287,0.0],[44.2882,12.6293,0.5223],[44.3021,12.6388,7.8117],[44.3085,12.6404,0.0],[44.3226,12.6496,4.1102],[44.3607,12.6688,5.7149],[44.3982,12.6804,0.0],[44.4082,12.6812,6.7841],[44.4116,12.6802,1.5033],[44.4099,12.6812,11.0919],[44.4197,12.7053,24.121],[44.4412,12.7498,39.8609]]]]}}