{"type":"Feature","properties":{"ISO3166-1-Alpha-3":"YEM","country":"Yemen","fill":"#00F","id":"157","name":"Lahij"},
"geometry":{"type": "Polygon","coordinates": [[[45.40501,13.89659,1961.4523],[45.41168,13.97269,2127.7092],[45.39912,14.0232,2015.9351],[45.38357,14.03181,1993.3378],[45.36093,14.02868,1981.9622],[45.3091,13.99648,2041.1932],[45.28693,13.97724,2078.8813],[45.25541,13.96062,2087.4751],[45.23929,13.9639,1751.0441],[45.18048,13.96437,1394.1427],[45.11872,13.83022,1334.2948],[45.08302,13.79668,1062.3456],[45.04095,13.77753,1048.2736],[44.99656,13.74839,851.7868],[44.91357,13.71604,1522.0579],[44.88158,13.71322,1775.9513],[44.85755,13.70805,1280.3883],[44.85538,13.63509,924.5568],[44.85926,13.61082,898.4452],[44.85306,13.5909,878.8884],[44.83099,13.58752,772.9302],[44.79099,13.60261,1246.7976],[44.7758,13.59225,1233.6504],[44.75854,13.57356,1319.0396],[44.69043,13.54522,1094.0176],[44.65488,13.52191,938.4482],[44.62806,13.5168,811.9897],[44.58661,13.54664,863.173],[44.57328,13.563,852.2211],[44.53323,13.57705,934.4587],[44.52501,13.55589,1110.7664],[44.51137,13.54974,1345.8308],[44.50284,13.53778,1115.2101],[44.4921,13.52638,1051.6489],[44.47535,13.51974,996.532],[44.46156,13.51959,957.1218],[44.449,13.51566,917.8443],[44.44512,13.50884,910.2557],[44.44667,13.50248,854.2982],[44.4459,13.49484,874.2207],[44.43877,13.48853,950.2593],[44.41065,13.4846,986.7753],[44.39267,13.47734,892.0961],[44.37665,13.46727,1003.3027],[44.36905,13.45104,883.652],[44.37727,13.43585,953.194],[44.39469,13.42853,978.9855],[44.40848,13.42107,871.0274],[44.43753,13.41748,872.2552],[44.44931,13.4042,927.9333],[44.45163,13.38675,871.4626],[44.44171,13.37577,886.7803],[44.37717,13.37427,1002.6841],[44.35464,13.36802,1009.0713],[44.3489,13.35495,1155.9836],[44.3565,13.33642,1314.5452],[44.35805,13.31926,1789.2932],[44.35603,13.29402,1785.4078],[44.36099,13.2741,1208.5723],[44.35681,13.25126,1097.9329],[44.33371,13.23384,1003.1414],[44.28172,13.22142,868.716],[44.23904,13.22012,1419.8894],[44.19651,13.22744,1594.1893],[44.1841,13.20516,1599.4631],[44.17155,13.19602,1526.6226],[44.1624,13.18752,1213.127],[44.1624,13.17108,1139.587],[44.1638,13.15687,992.6959],[44.15212,13.14959,1002.7556],[44.13057,13.1462,1428.3979],[44.11739,13.14271,1938.1455],[44.10716,13.1232,1170.5103],[44.10328,13.10248,954.8195],[44.09222,13.09225,705.7886],[44.0685,13.09574,828.1647],[44.02923,13.11858,995.0837],[44.02179,13.11222,1224.8838],[44.02628,13.06316,1157.313],[44.0207,13.04732,851.8073],[44.00226,13.04833,596.8515],[43.97538,13.0606,607.8428],[43.956,13.07716,786.6406],[43.91937,13.09781,620.1366],[43.90092,13.10377,647.5221],[43.882,13.11339,652.1448],[43.86211,13.11576,868.3845],[43.84242,13.11036,641.012],[43.82299,13.10199,864.2475],[43.80764,13.0869,812.7389],[43.79012,13.07962,785.3473],[43.77493,13.0713,602.1852],[43.73953,13.06721,558.52],[43.72589,13.05683,535.9446],[43.72589,13.04081,508.1456],[43.73395,13.02864,526.8572],[43.7386,13.01202,439.0756],[43.73504,12.99027,487.0061],[43.70057,12.93815,258.6401],[43.64347,12.88257,147.1175],[43.56667,12.76721,7.2179],[43.53075,12.69548,1.6895],[43.53077,12.6955,1.6895],[43.58774,12.75137,1.6564],[43.6006,12.75629,9.6249],[43.60963,12.75434,12.0],[43.6194,12.74958,14.5718],[43.63461,12.73867,10.2562],[43.64405,12.73456,10.0011],[43.67945,12.73526,16.66],[43.69947,12.72785,14.197],[43.7378,12.70576,0.0],[43.75148,12.70112,8.728],[43.77377,12.69941,10.4045],[43.79469,12.69489,11.2883],[43.81349,12.68838,9.3866],[43.8296,12.68061,11.1242],[43.85776,12.66254,6.62],[43.8742,12.65546,1.7231],[43.89479,12.65266,8.7439],[43.90943,12.64533,3.5782],[43.92709,12.61017,2.542],[43.9463,12.59805,2.1611],[43.96144,12.5996,2.7971],[43.99171,12.61213,9.3034],[44.0171,12.60371,0.0],[44.0337,12.60432,0.0],[44.06235,12.61172,2.6227],[44.12135,12.64338,8.0742],[44.15349,12.65595,0.5888],[44.1797,12.65266,17.3619],[44.19117,12.66047,25.7882],[44.19801,12.65225,17.1293],[44.19842,12.63906,9.9447],[44.18995,12.63215,1.0077],[44.17612,12.63325,0.0],[44.15162,12.63788,0.0],[44.13803,12.63898,0.0],[44.14942,12.62499,0.0],[44.16912,12.61815,0.0],[44.19117,12.61913,1.6427],[44.22853,12.63866,17.5404],[44.24733,12.63898,17.5513],[44.26734,12.63679,13.5595],[44.28956,12.63898,12.0546],[44.35434,12.66934,6.7568],[44.38347,12.67634,4.9103],[44.40699,12.68525,26.4454],[44.41179,12.68403,20.4128],[44.41469,12.67329,0.0],[44.4153,12.67398,0.0],[44.48419,12.77764,10.3144],[44.5278,12.80364,1.883],[44.61891,12.83568,32.5109],[44.82593,12.87066,37.6233],[45.00902,12.91841,13.7442],[45.0932,12.92472,0.0],[45.09376,12.92626,0.0],[45.09946,12.93618,0.0],[45.09949,12.93624,0.0],[45.13128,13.16297,188.3005],[45.19738,13.3404,405.5583],[45.24502,13.37373,381.1139],[45.25355,13.39538,249.8627],[45.25231,13.40748,330.1868],[45.24022,13.41887,270.466],[45.22595,13.42797,266.4678],[45.21148,13.44355,305.0807],[45.20761,13.47205,455.07619999999997],[45.21102,13.51222,856.0762],[45.23836,13.55349,769.2103],[45.29406,13.61421,1641.1033],[45.30367,13.62816,1669.3921],[45.2984,13.63744,1577.3223],[45.28089,13.64415,1542.0952],[45.2306,13.64738,1233.1879],[45.21582,13.65413,1092.8093],[45.21551,13.667,1274.4741],[45.25386,13.69012,1873.9874],[45.27293,13.70487,1895.9689],[45.2751,13.71929,1900.8374],[45.2753,13.73567,1922.504],[45.27184,13.75164,1961.4039],[45.27933,13.76769,1707.5864],[45.29189,13.7795,1708.5403],[45.32832,13.78789,1581.2795],[45.34388,13.79549,1507.5167],[45.35752,13.80386,1544.7214],[45.36047,13.81885,1382.2678],[45.35721,13.83921,1709.4546],[45.36109,13.87109,1690.9014],[45.36837,13.88662,2126.2515],[45.40501,13.89659,1961.4523]]]}}