{"type":"Feature","properties":{"GID_2":"YEM.7.2_1","GID_0":"YEM","country":"Yemen","GID_1":"YEM.7_1","province":"AlMahrah","NL_NAME_1":"المهره","county":"AlMasilah","VARNAME_2":"NA","NL_NAME_2":"المسيلة","TYPE_2":"Muderiah","ENGTYPE_2":"District","CC_2":"2806","HASC_2":"NA","name":"Al_Masilah.county"},
"geometry":{"type": "MultiPolygon","coordinates": [[[[51.1318,15.181,0.578],[51.1307,15.1804,0.4943],[51.1312,15.1782,0.1519],[51.1321,15.1793,0.0],[51.1318,15.181,0.578]]],
[[[51.1587,15.1754,0.0],[51.058,15.4237,551.7324],[51.0263,15.442,255.1039],[51.005,15.4805,277.2697],[51.0085,15.5049,934.0964],[51.0375,15.5394,927.3721],[51.0468,15.5717,826.09],[51.0281,15.602,777.2564],[50.9925,15.6274,611.1611],[50.9287,15.6792,666.6674],[50.9067,15.7791,1027.1721],[50.9421,15.8971,1034.6003],[50.7282,16.0114,823.0338],[50.329,16.1555,656.7922],[50.1674,16.1994,653.7416],[50.1579,16.1632,629.3641],[50.1915,16.129,665.6604],[50.2254,16.1082,623.8138],[50.2556,16.0775,579.3193],[50.2517,16.0576,574.6061],[50.223,16.0149,536.6743],[50.1983,15.9922,580.1476],[50.1688,15.9196,591.1141],[50.1498,15.8468,468.6501],[50.1448,15.7869,534.8111],[50.1439,15.7502,567.7133],[50.1322,15.6972,793.3898],[50.1287,15.6517,769.9434],[50.1433,15.623,754.2435],[50.1679,15.6097,637.0031],[50.2192,15.5985,633.9187],[50.2362,15.5914,623.6126],[50.2606,15.5883,661.9804],[50.2657,15.5694,645.3886],[50.2573,15.5169,673.3645],[50.2468,15.4688,1142.6569],[50.3378,15.4485,1078.0667],[50.5395,15.3718,936.0571],[50.5704,15.3667,900.506],[50.5901,15.3329,829.1979],[50.6213,15.3421,686.7068],[50.6384,15.3417,616.498],[50.6619,15.3211,563.9669],[50.691,15.2571,884.5409],[50.7144,15.2332,848.0778],[50.7273,15.2029,234.6886],[50.7496,15.1424,43.6911],[50.7724,15.0915,3.6678],[50.7736,15.0832,2.0821],[50.8074,15.0918,1.5268],[50.8165,15.0896,0.2068],[50.8951,15.1149,1.6927],[50.904,15.1171,2.7499],[50.9154,15.1174,2.4859],[50.9965,15.1404,0.0],[51.0015,15.1404,0.0],[51.0243,15.1485,2.8079],[51.0832,15.1607,1.7001],[51.1229,15.166,0.5827],[51.1265,15.1676,0.0],[51.1296,15.1732,0.9143],[51.1299,15.1801,0.4943],[51.1318,15.1838,1.4928],[51.1329,15.181,0.0],[51.1329,15.1704,0.0],[51.1429,15.1707,0.9843],[51.1587,15.1754,0.0]]]]}}