{"type":"Feature","properties":{"GID_2":"YEM.13.22_1","GID_0":"YEM","country":"Yemen","GID_1":"YEM.13_1","province":"Hajjah","NL_NAME_1":"حجه","county":"Kushar","VARNAME_2":"NA","NL_NAME_2":"كشر","TYPE_2":"Muderiah","ENGTYPE_2":"District","CC_2":"1707","HASC_2":"NA","name":"Kushar.county"},
"geometry":{"type": "MultiPolygon","coordinates": [[[[43.5161,16.2629,1115.6543],[43.4432,16.2621,1052.2321],[43.4362,16.264,937.4478],[43.4133,16.2524,659.2879],[43.4115,16.2492,644.106],[43.4039,16.2443,687.2953],[43.3931,16.2305,665.314],[43.3854,16.2257,561.8135],[43.3729,16.2218,496.0453],[43.3783,16.2074,461.4412],[43.3718,16.1987,460.7455],[43.3706,16.1919,436.4541],[43.3682,16.1895,435.8663],[43.3717,16.1882,449.5256],[43.3721,16.1807,451.3399],[43.3763,16.1752,466.4343],[43.378,16.1676,477.2362],[43.3754,16.1646,477.4068],[43.3749,16.16,490.1901],[43.3775,16.1545,511.9139],[43.3776,16.15,516.8251],[43.3755,16.1479,518.0267],[43.3776,16.1439,532.9592],[43.3968,16.1247,819.1372],[43.4005,16.1072,926.1867],[43.4006,16.0977,1035.2268],[43.4099,16.0977,1310.7161],[43.4142,16.0954,1275.0873],[43.4208,16.0849,1298.8503],[43.4294,16.0782,1245.8611],[43.4335,16.0777,1263.1523],[43.4367,16.097,1217.9497],[43.4396,16.0989,1221.6628],[43.4492,16.0959,1156.9187],[43.4497,16.0898,1203.7168],[43.4649,16.0866,1221.197],[43.4745,16.0808,1191.5222],[43.4879,16.0797,1201.6719],[43.5044,16.0817,1020.424],[43.5173,16.0955,1251.2904],[43.5759,16.0973,1192.8633],[43.5668,16.1694,1128.6387],[43.5667,16.1929,1281.1083],[43.5456,16.2181,1246.8281],[43.5259,16.2348,1132.8019],[43.5163,16.2374,1194.7188],[43.5149,16.2553,1106.5564],[43.5161,16.2629,1115.6543]]]]}}