{"type":"Feature","properties":{"GID_2":"YEM.5.6_1","GID_0":"YEM","country":"Yemen","GID_1":"YEM.5_1","province":"AlHudaydah","NL_NAME_1":"الحديده","county":"AlHawak","VARNAME_2":"NA","NL_NAME_2":"الحوك","TYPE_2":"Muderiah","ENGTYPE_2":"District","CC_2":"1821","HASC_2":"NA","name":"Al_Hawak.county"},
"geometry":{"type": "MultiPolygon","coordinates": [[[[43.0561,14.7794,32.0828],[42.9736,14.7789,13.253],[42.9525,14.7991,7.6271],[42.9512,14.7971,9.2582],[42.9462,14.7974,8.6979],[42.9452,14.7908,12.7112],[42.9469,14.7877,9.0544],[42.944,14.7877,0.8431],[42.9457,14.7854,0.0],[42.944,14.7843,0.0],[42.9465,14.7843,3.6005],[42.9468,14.7829,0.9079],[42.9446,14.7813,0.0],[42.949,14.7774,3.2451],[42.9538,14.7563,0.0],[42.9504,14.7507,0.0],[42.9513,14.7477,0.0],[42.9467,14.7424,0.0],[42.95,14.7376,0.0],[42.9513,14.7302,0.0],[42.958,14.723,0.0],[42.9576,14.7212,0.1377],[43.0323,14.7372,21.701],[43.0504,14.7601,28.1417],[43.0561,14.7794,32.0828]]]]}}