{"type":"Feature","properties":{"GID_2":"YEM.19.15_1","GID_0":"YEM","country":"Yemen","GID_1":"YEM.19_1","province":"San`a'","NL_NAME_1":"صنعاء","county":"Sa'fan","VARNAME_2":"NA","NL_NAME_2":"صعفان","TYPE_2":"Muderiah","ENGTYPE_2":"District","CC_2":"2311","HASC_2":"NA","name":"Sa'fan.county"},
"geometry":{"type": "MultiPolygon","coordinates": [[[[43.6428,15.0098,740.2796],[43.6423,15.0166,882.2722],[43.6465,15.0255,867.0268],[43.6465,15.0289,857.2084],[43.65,15.0324,951.715],[43.6594,15.0539,1217.9368],[43.6594,15.0637,1326.8628],[43.6563,15.0695,1476.9664],[43.6575,15.0799,2025.1223],[43.6557,15.0834,1762.5964],[43.6414,15.0873,1361.9231],[43.6413,15.0908,1237.8628],[43.6389,15.0937,1231.2251],[43.6318,15.0954,1107.0369],[43.627,15.0988,1283.4248],[43.6263,15.1133,970.8615],[43.6167,15.1207,978.0147],[43.6149,15.1277,967.9226],[43.6095,15.1363,1056.5482],[43.5957,15.1507,1058.8645],[43.5909,15.1524,761.3252],[43.5838,15.1471,808.7374],[43.5767,15.1482,798.6813],[43.5761,15.1442,748.506],[43.5719,15.1442,761.1403],[43.5695,15.1476,770.1786],[43.5647,15.1487,695.1636],[43.5582,15.1475,640.0408],[43.5687,15.1357,688.2948],[43.5711,15.1272,766.8279],[43.5705,15.1208,743.0333],[43.5685,15.1184,698.625],[43.5692,15.1149,729.2823],[43.567,15.1116,741.082],[43.563,15.1104,788.3602],[43.5561,15.1112,858.2517],[43.5527,15.1059,882.9578],[43.5518,15.0973,877.9895],[43.5344,15.0944,1098.5099],[43.5321,15.0924,1096.5676],[43.5194,15.065,520.4988],[43.5082,15.0572,498.2727],[43.5061,15.0496,477.2907],[43.5115,15.049,479.257],[43.513,15.0383,460.3082],[43.5169,15.0319,458.0089],[43.531,15.0189,473.4702],[43.5371,15.0168,483.0764],[43.5506,15.0166,493.3964],[43.5666,15.0113,523.402],[43.5743,15.0004,531.6622],[43.5942,14.9979,569.2372],[43.6124,14.9899,603.7115],[43.6245,14.9951,710.7072],[43.6294,15.0024,786.1823],[43.6297,15.0064,972.941],[43.6335,15.0104,835.6367],[43.6428,15.0098,740.2796]]]]}}