{"type":"Feature","properties":{"GID_2":"YEM.12.17_1","GID_0":"YEM","country":"Yemen","GID_1":"YEM.12_1","province":"Hadramawt","NL_NAME_1":"حضرموت","county":"Hajr","VARNAME_2":"NA","NL_NAME_2":"حجر","TYPE_2":"Muderiah","ENGTYPE_2":"District","CC_2":"1924","HASC_2":"NA","name":"Hajr.county"},
"geometry":{"type": "MultiPolygon","coordinates": [[[[48.0335,14.7461,1223.1418],[48.0243,14.6878,979.1587],[48.0104,14.6626,877.0648],[47.9682,14.5688,862.0724],[47.9123,14.4817,1046.9761],[47.9332,14.455,1125.8756],[47.981,14.4127,1035.538],[48.0989,14.3259,861.0732],[48.117,14.2539,294.4012],[48.2218,14.2064,299.1922],[48.335,14.194,535.3069],[48.404,14.2112,564.8395],[48.45,14.2164,835.139],[48.4491,14.2397,546.5787],[48.5186,14.328,189.5808],[48.5549,14.3858,845.2319],[48.5721,14.4395,1236.8638],[48.6424,14.635,1440.7323],[48.6293,14.6519,1517.8137],[48.5306,14.7475,1537.5824],[48.4854,14.7431,1243.1346],[48.355,14.6864,1462.2537],[48.33,14.6843,969.509],[48.2664,14.674,909.4685],[48.2376,14.6744,964.9929],[48.159,14.6942,1063.905],[48.0942,14.7333,1184.4],[48.0335,14.7461,1223.1418]]]]}}