{"type":"Feature","properties":{"GID_2":"YEM.3.14_1","GID_0":"YEM","country":"Yemen","GID_1":"YEM.3_1","province":"AlBayda'","NL_NAME_1":"البيضاء","county":"Mukayras","VARNAME_2":"NA","NL_NAME_2":"مكيراس","TYPE_2":"Muderiah","ENGTYPE_2":"District","CC_2":"1408","HASC_2":"NA","name":"Mukayras.county"},
"geometry":{"type": "MultiPolygon","coordinates": [[[[46.0336,14.2351,1610.958],[45.9586,14.1918,1748.9044],[45.8847,14.1684,1889.7008],[45.8642,14.1518,1960.9287],[45.8365,14.1384,2014.5261],[45.8222,14.1347,1996.5625],[45.82,14.1369,1995.9517],[45.8172,14.1347,2004.4084],[45.8117,14.1235,2025.3884],[45.811,14.081,2026.634],[45.7999,14.0579,2046.5863],[45.7877,14.0434,2067.5059],[45.7833,14.0342,2082.5254],[45.7722,14.0235,2081.0957],[45.7579,14.0198,2096.3413],[45.7245,14.0155,2066.2932],[45.7178,14.0094,2075.2568],[45.7073,14.0112,2064.4565],[45.6961,14.0049,2083.9971],[45.6834,14.0007,2059.1411],[45.6696,14.0007,2069.4282],[45.6556,13.9951,2097.7832],[45.6466,13.9896,2096.6492],[45.6393,13.9819,2095.5645],[45.6321,13.968,2138.4216],[45.6232,13.9556,2164.9553],[45.6166,13.9497,2133.2549],[45.5934,13.9132,2123.3608],[45.5829,13.9073,1703.7058],[45.5592,13.8982,1490.4185],[45.5694,13.8751,1244.8813],[45.5881,13.8456,1145.8759],[45.6182,13.829,1098.9247],[45.6409,13.8455,1181.6315],[45.6559,13.8418,1218.0577],[45.6785,13.8417,1408.8552],[45.7143,13.8545,1428.1179],[45.7635,13.9004,1948.8359],[45.8277,13.9425,1392.0586],[45.8824,13.9736,1324.1028],[45.958,14.0211,1510.4341],[45.9713,14.0413,2203.093],[45.9638,14.0579,2070.9534],[45.9639,14.0708,2078.5051],[45.9715,14.0873,2069.8457],[46.0036,14.1069,1970.7119],[46.0336,14.2351,1610.958]]]]}}