{"type":"Feature","properties":{"GID_2":"YEM.3.12_1","GID_0":"YEM","country":"Yemen","GID_1":"YEM.3_1","province":"AlBayda'","NL_NAME_1":"البيضاء","county":"DhiNa'im","VARNAME_2":"NA","NL_NAME_2":"ذيناعم","TYPE_2":"Muderiah","ENGTYPE_2":"District","CC_2":"1406","HASC_2":"NA","name":"Dhi_Na'im.county"},
"geometry":{"type": "MultiPolygon","coordinates": [[[[45.4733,14.1952,1875.6514],[45.4585,14.1849,1954.4681],[45.4258,14.1444,1988.2886],[45.3966,14.09,1967.9717],[45.4004,14.088,2001.2224],[45.4044,14.0791,1986.9978],[45.4126,14.0519,1995.1577],[45.4209,14.0305,2046.2427],[45.4238,14.0271,2066.2026],[45.4357,14.0282,2035.5989],[45.4475,14.0316,2079.0513],[45.457,14.0316,2028.5455],[45.4665,14.027,1989.7262],[45.4795,14.027,2019.9995],[45.4908,14.031,2026.1167],[45.5312,14.0876,1921.3621],[45.5318,14.1038,1883.7977],[45.5153,14.1263,1982.5557],[45.4733,14.1952,1875.6514]]]]}}