{"type":"Feature","properties":{"GID_2":"YEM.19.14_1","GID_0":"YEM","country":"Yemen","GID_1":"YEM.19_1","province":"San`a'","NL_NAME_1":"صنعاء","county":"Nihm","VARNAME_2":"NA","NL_NAME_2":"نهم","TYPE_2":"Muderiah","ENGTYPE_2":"District","CC_2":"2303","HASC_2":"NA","name":"Nihm.county"},
"geometry":{"type": "MultiPolygon","coordinates": [[[[44.4844,16.0202,1452.2532],[44.4269,16.0319,1300.9423],[44.3829,16.03,1678.8604],[44.3846,16.0286,1691.0668],[44.3913,15.9923,1773.1135],[44.3932,15.9055,1513.6765],[44.3966,15.8377,1747.9651],[44.3968,15.7745,1948.3876],[44.3888,15.7192,2167.2922],[44.3613,15.6797,2143.2178],[44.3516,15.656,2094.7844],[44.3507,15.6442,2061.4358],[44.3608,15.6201,2243.8423],[44.3817,15.5924,2183.9121],[44.3817,15.5881,2188.6216],[44.3744,15.5775,2180.2842],[44.393,15.565,2480.0286],[44.3997,15.5579,2732.2563],[44.399,15.5498,2668.5042],[44.4071,15.5457,2617.8726],[44.4308,15.5271,2342.1509],[44.4427,15.5128,2412.6963],[44.4568,15.5085,2364.4434],[44.4597,15.5092,2365.6716],[44.4597,15.515,2389.5408],[44.4686,15.525,2478.6311],[44.4745,15.5243,2502.4326],[44.4775,15.5186,2451.8662],[44.4901,15.5107,2446.4297],[44.5041,15.5058,2510.5083],[44.5197,15.5036,2504.8501],[44.5241,15.4993,2471.2192],[44.5256,15.4871,2459.4202],[44.5243,15.4746,2438.7319],[44.5216,15.4713,2460.4229],[44.5989,15.4882,2141.8105],[44.6281,15.4926,1984.8269],[44.6498,15.504,1899.1104],[44.6558,15.5137,1862.484],[44.6819,15.5304,1786.8981],[44.7372,15.5548,1694.5292],[44.7543,15.5607,2163.7676],[44.7709,15.5641,2029.4524],[44.793,15.5768,1568.4224],[44.7985,15.5876,1747.7681],[44.798,15.6056,1589.8438],[44.7944,15.6188,1509.194],[44.7889,15.6266,1514.0911],[44.7758,15.6319,1580.0513],[44.7436,15.6397,1668.1906],[44.7169,15.6606,1542.902],[44.6914,15.716,1892.4016],[44.6891,15.7183,1871.2239],[44.6818,15.7553,1417.338],[44.6859,15.7684,1607.3523],[44.663,15.8765,1742.8645],[44.6099,15.9933,1581.0428],[44.607,15.9953,1618.8517],[44.4844,16.0202,1452.2532]]]]}}