{"type":"Feature","properties":{"GID_2":"YEM.9.3_1","GID_0":"YEM","country":"Yemen","GID_1":"YEM.9_1","province":"AmanatAlAsimah","NL_NAME_1":"أمانةالعاصمة","county":"Assafi'yah","VARNAME_2":"NA","NL_NAME_2":"الصافية","TYPE_2":"Muderiah","ENGTYPE_2":"District","CC_2":"1304","HASC_2":"NA","name":"Assafi'yah.county"},
"geometry":{"type": "MultiPolygon","coordinates": [[[[44.2086,15.3354,2263.6611],[44.2217,15.3369,2269.0664],[44.2251,15.3303,2275.9551],[44.2307,15.3326,2294.5044],[44.2627,15.3337,2368.7241],[44.262,15.3446,2433.7339],[44.2232,15.3426,2276.616],[44.2207,15.3487,2265.9626],[44.2259,15.3505,2289.2354],[44.2228,15.356,2277.1877],[44.2218,15.3527,2269.322],[44.2104,15.3498,2251.9482],[44.2138,15.3463,2256.3125],[44.2124,15.3408,2259.498],[44.2085,15.3405,2257.1548],[44.2086,15.3354,2263.6611]]]]}}