{"type":"Feature","properties":{"GID_2":"YEM.13.5_1","GID_0":"YEM","country":"Yemen","GID_1":"YEM.13_1","province":"Hajjah","NL_NAME_1":"حجه","county":"AlMaghrabah","VARNAME_2":"NA","NL_NAME_2":"المغربة","TYPE_2":"Muderiah","ENGTYPE_2":"District","CC_2":"1717","HASC_2":"NA","name":"Al_Maghrabah.county"},
"geometry":{"type": "MultiPolygon","coordinates": [[[[43.7117,15.8787,1196.5555],[43.7068,15.9015,961.2787],[43.704,15.907,960.9546],[43.709,15.9335,1193.9265],[43.7086,15.9384,1125.2979],[43.7071,15.9474,1044.2854],[43.7012,15.9588,1150.9386],[43.6987,15.9676,1130.0886],[43.6986,15.9753,1296.199],[43.6909,15.9849,888.4285],[43.6753,15.9967,1196.4229],[43.6555,15.9976,1020.1177],[43.6555,15.995,993.5568],[43.6504,15.9887,986.5742],[43.6448,15.994,958.1624],[43.6407,15.9932,933.5193],[43.6286,15.9792,944.5394],[43.6195,15.9641,980.8181],[43.599,15.9365,825.9585],[43.5923,15.9354,798.2699],[43.5866,15.9385,794.1524],[43.5836,15.9357,672.401],[43.5733,15.9334,906.1637],[43.57,15.9253,803.886],[43.5649,15.9214,1056.5173],[43.5633,15.9217,1052.6675],[43.5623,15.9264,962.5157],[43.5548,15.9233,1047.4137],[43.5439,15.9253,1165.713],[43.525,15.9334,1414.2745],[43.5176,15.9329,1412.7582],[43.5061,15.9261,915.3723],[43.5054,15.9181,1078.0288],[43.5079,15.9137,1161.6284],[43.5213,15.9062,1157.4235],[43.5258,15.8962,1029.9071],[43.5319,15.869,869.8237],[43.5427,15.8539,629.6534],[43.5556,15.8515,948.734],[43.5732,15.8426,1179.3407],[43.5961,15.8018,1054.0],[43.6069,15.7898,1201.1541],[43.6399,15.8007,1305.0503],[43.6519,15.8168,1410.9268],[43.6586,15.8303,1151.2732],[43.6619,15.8429,1123.141],[43.6672,15.8477,1516.6927],[43.6733,15.8466,1244.9042],[43.6748,15.8448,1232.4446],[43.6794,15.8463,1198.475],[43.6855,15.8511,1257.136],[43.6931,15.8534,1111.6755],[43.697,15.852,1081.0344],[43.6973,15.8406,1138.7407],[43.7026,15.8428,1180.4038],[43.7128,15.8576,1389.3032],[43.7107,15.8628,1385.1775],[43.7117,15.8787,1196.5555]]]]}}