{"type":"Feature","properties":{"GID_2":"YEM.20.8_1","GID_0":"YEM","country":"Yemen","GID_1":"YEM.20_1","province":"Shabwah","NL_NAME_1":"شبوة","county":"Dhar","VARNAME_2":"NA","NL_NAME_2":"دهر","TYPE_2":"Muderiah","ENGTYPE_2":"District","CC_2":"2101","HASC_2":"NA","name":"Dhar.county"},
"geometry":{"type": "MultiPolygon","coordinates": [[[[47.6975,15.7185,722.2165],[47.6659,15.6962,730.332],[47.5426,15.6022,939.0798],[47.3679,15.4782,879.6093],[47.3435,15.4136,1052.3436],[47.3427,15.341,1260.6355],[47.371,15.2847,1417.3586],[47.3854,15.2909,1460.4995],[47.4484,15.2979,1458.9298],[47.5236,15.3352,1120.947],[47.5791,15.369,1390.4517],[47.6184,15.3685,1383.4409],[47.6213,15.3674,1378.421],[47.6376,15.4046,1335.1101],[47.7216,15.4977,1286.2346],[47.7752,15.5634,1260.92],[47.8203,15.6278,787.4448],[47.869,15.712,715.4579],[47.8268,15.7113,708.8052],[47.8209,15.7188,707.1255],[47.8062,15.7225,709.708],[47.7474,15.7179,719.5518],[47.6975,15.7185,722.2165]]]]}}