{"type":"Feature","properties":{"GID_2":"YEM.8.5_1","GID_0":"YEM","country":"Yemen","GID_1":"YEM.8_1","province":"AlMahwit","NL_NAME_1":"المحويت","county":"AtTawilah","VARNAME_2":"NA","NL_NAME_2":"الطويلة","TYPE_2":"Muderiah","ENGTYPE_2":"District","CC_2":"2702","HASC_2":"NA","name":"At_Tawilah.county"},
"geometry":{"type": "MultiPolygon","coordinates": [[[[43.7699,15.3315,1093.7852],[43.7888,15.3422,1451.0208],[43.7965,15.3541,1362.4888],[43.8204,15.3704,1702.9755],[43.8511,15.3751,1773.738],[43.8482,15.386,1656.7463],[43.8476,15.4213,2366.3716],[43.8492,15.4428,2514.2659],[43.8461,15.4562,2559.7776],[43.8407,15.4604,2628.623],[43.8367,15.4613,2622.095],[43.831,15.4604,2658.2344],[43.8155,15.4508,2792.3247],[43.804,15.4508,2558.5059],[43.7881,15.4639,2590.9219],[43.7869,15.4717,2765.375],[43.7843,15.4771,2843.5483],[43.7757,15.4833,2854.7908],[43.77,15.4919,2967.9849],[43.7728,15.5025,3061.0002],[43.7765,15.5058,3075.9858],[43.783,15.5082,3108.4114],[43.7998,15.5303,2815.0278],[43.8118,15.5565,3133.1011],[43.8104,15.5603,3136.353],[43.8,15.5671,3197.7539],[43.7857,15.5711,3037.8789],[43.7812,15.57,2786.0229],[43.7773,15.5662,2909.7004],[43.7763,15.5508,2668.853],[43.7731,15.548,2282.4783],[43.7619,15.5409,1917.655],[43.7536,15.5412,1740.0439],[43.7346,15.5469,1719.4149],[43.732,15.5452,1892.9586],[43.7322,15.5348,1554.2141],[43.7296,15.532,1513.7584],[43.7142,15.5326,1524.22],[43.7016,15.548,1570.8591],[43.6926,15.5484,1302.8115],[43.675,15.5534,1272.4735],[43.668,15.5466,1398.0977],[43.668,15.5426,1352.4666],[43.647,15.5316,1126.3601],[43.6547,15.5265,1053.0182],[43.6633,15.5096,1239.9629],[43.6706,15.4993,1366.5831],[43.6909,15.4869,1939.7042],[43.6926,15.4746,2126.564],[43.6966,15.4722,2199.7134],[43.7052,15.4722,2097.7654],[43.7064,15.4648,2193.7798],[43.7104,15.4641,2206.1179],[43.7124,15.4585,2209.8494],[43.7189,15.4571,2274.4155],[43.728,15.4589,2281.7793],[43.7359,15.4654,2499.6851],[43.7424,15.4659,2576.9937],[43.7453,15.4611,2508.469],[43.7474,15.4463,2333.2393],[43.7465,15.4389,2156.6941],[43.7443,15.4356,2160.6025],[43.7451,15.4337,2059.9609],[43.7489,15.4329,2114.7739],[43.748,15.4303,2018.2555],[43.7411,15.4277,2008.7749],[43.7576,15.3663,1370.3394],[43.7534,15.3604,1531.545],[43.7532,15.3463,1619.5286],[43.7699,15.3315,1093.7852]]]]}}