{"type":"Feature","properties":{"GID_2":"YEM.3.8_1","GID_0":"YEM","country":"Yemen","GID_1":"YEM.3_1","province":"AlBayda'","NL_NAME_1":"البيضاء","county":"AsSawma'ah","VARNAME_2":"NA","NL_NAME_2":"الصومعة","TYPE_2":"Muderiah","ENGTYPE_2":"District","CC_2":"1404","HASC_2":"NA","name":"As_Sawma'ah.county"},
"geometry":{"type": "MultiPolygon","coordinates": [[[[46.0605,14.2505,1598.1138],[46.0456,14.2768,1627.5234],[46.0292,14.2822,1709.7163],[46.0172,14.2894,1545.0664],[46.005,14.2985,1567.5228],[45.9943,14.3096,1467.1222],[45.9888,14.318,1414.5056],[45.9783,14.3145,1454.3766],[45.9765,14.3178,1504.0245],[45.9762,14.3237,1470.4928],[45.9781,14.3378,1527.5284],[45.9805,14.341,1552.8065],[45.9785,14.3422,1575.5399],[45.9251,14.3424,1752.8192],[45.874,14.3335,1799.4142],[45.8402,14.3223,1898.1226],[45.817,14.3122,1828.447],[45.8018,14.3032,1932.6033],[45.7983,14.2828,1965.4711],[45.8041,14.2715,1980.3887],[45.8075,14.2534,2006.2623],[45.797,14.2466,2044.5894],[45.7866,14.25,1992.2207],[45.7704,14.2637,1941.9376],[45.7507,14.2762,1902.8821],[45.7402,14.2706,1923.4586],[45.7367,14.2751,1932.9673],[45.7437,14.2796,1906.7273],[45.7263,14.2899,1843.4679],[45.6915,14.2866,1791.6604],[45.6484,14.2595,1747.1353],[45.617,14.2302,1786.4602],[45.603,14.203,1726.7559],[45.6018,14.1792,1742.1232],[45.6133,14.1418,1859.7183],[45.6305,14.0603,2047.0985],[45.6316,14.0387,2084.0596],[45.6488,13.9909,2074.0669],[45.6696,14.0007,2069.4282],[45.6834,14.0007,2059.1411],[45.6961,14.0049,2083.9971],[45.7073,14.0112,2064.4565],[45.7178,14.0094,2075.2568],[45.7245,14.0155,2066.2932],[45.7579,14.0198,2096.3413],[45.7722,14.0235,2081.0957],[45.7833,14.0342,2082.5254],[45.7877,14.0434,2067.5059],[45.7999,14.0579,2046.5863],[45.811,14.081,2026.634],[45.8117,14.1235,2025.3884],[45.8172,14.1347,2004.4084],[45.82,14.1369,1995.9517],[45.8222,14.1347,1996.5625],[45.8365,14.1384,2014.5261],[45.8642,14.1518,1960.9287],[45.8847,14.1684,1889.7008],[45.9586,14.1918,1748.9044],[46.0605,14.2505,1598.1138]]]]}}