{"type":"Feature","properties":{"GID_2":"YEM.13.26_1","GID_0":"YEM","country":"Yemen","GID_1":"YEM.13_1","province":"Hajjah","NL_NAME_1":"حجه","county":"Najrah","VARNAME_2":"NA","NL_NAME_2":"نجرة","TYPE_2":"Muderiah","ENGTYPE_2":"District","CC_2":"1726","HASC_2":"NA","name":"Najrah.county"},
"geometry":{"type": "MultiPolygon","coordinates": [[[[43.567,15.6075,1195.9855],[43.5763,15.6095,1307.562],[43.5838,15.6165,1550.5328],[43.5804,15.6189,1684.9827],[43.5782,15.6172,1670.2963],[43.574,15.6179,1608.7135],[43.5697,15.623,1347.3741],[43.5693,15.6282,1617.3059],[43.5665,15.6313,1649.8835],[43.5654,15.6404,1492.3337],[43.5697,15.6491,1151.4991],[43.5692,15.6543,1083.7877],[43.5501,15.6796,961.5076],[43.5461,15.678,862.2024],[43.533,15.681,752.813],[43.524,15.6917,745.0459],[43.5224,15.6968,850.2905],[43.5199,15.6983,793.9006],[43.5185,15.6974,793.9006],[43.5187,15.6916,714.1956],[43.5157,15.6878,734.9047],[43.5192,15.6802,675.0755],[43.5076,15.6743,632.8378],[43.5066,15.67,633.3397],[43.5077,15.6676,642.9623],[43.5142,15.6633,706.8722],[43.5147,15.6576,817.7746],[43.5243,15.6522,839.8467],[43.5235,15.6359,1057.5348],[43.5275,15.6323,1132.1395],[43.5345,15.6128,1183.9026],[43.5373,15.6101,1149.5266],[43.5463,15.6141,1123.5498],[43.559,15.6146,1103.1943],[43.5617,15.614,1125.5596],[43.5651,15.608,1366.1707],[43.567,15.6075,1195.9855]]]]}}