{"type":"Feature","properties":{"GID_2":"YEM.10.15_1","GID_0":"YEM","country":"Yemen","GID_1":"YEM.10_1","province":"Amran","NL_NAME_1":"عمران","county":"Kharif","VARNAME_2":"NA","NL_NAME_2":"خارف","TYPE_2":"Muderiah","ENGTYPE_2":"District","CC_2":"2910","HASC_2":"NA","name":"Kharif.county"},
"geometry":{"type": "MultiPolygon","coordinates": [[[[44.0466,15.9617,2470.001],[44.0377,15.9595,2490.9656],[44.0296,15.9532,2553.8748],[44.0231,15.9563,2528.6548],[44.015,15.9657,2531.4727],[44.0085,15.9625,2490.9614],[44.0005,15.9578,2559.1958],[43.9892,15.9358,2651.8547],[43.9821,15.9288,2637.8623],[44.0004,15.9106,2628.2114],[44.0046,15.8969,2545.8477],[44.0127,15.8959,2557.6658],[44.0279,15.8852,2616.3457],[44.0271,15.8587,2202.2212],[44.0291,15.8538,2196.4504],[44.0342,15.8519,2187.4524],[44.0475,15.8284,2178.584],[44.0506,15.8196,2180.4014],[44.0668,15.8079,2186.9316],[44.0689,15.801,2190.9194],[44.0578,15.7882,2192.6609],[44.0518,15.7784,2221.5544],[44.0325,15.7714,2198.9285],[44.0326,15.7626,2195.282],[44.0377,15.7557,2200.7876],[44.0681,15.751,2412.0447],[44.0813,15.751,2454.0493],[44.0914,15.7442,2511.1057],[44.0992,15.7283,2615.2666],[44.1299,15.76,2878.3054],[44.143,15.7787,2807.8179],[44.1642,15.8034,2699.5312],[44.1762,15.822,2700.8],[44.1808,15.8267,2641.0266],[44.1823,15.8329,2625.6074],[44.1772,15.8407,2626.855],[44.1489,15.8716,2682.2644],[44.1478,15.9082,2411.3516],[44.1044,15.9018,2049.5234],[44.0784,15.9142,2269.3286],[44.0703,15.9189,2193.3066],[44.0702,15.9314,2158.8621],[44.0572,15.9518,2517.4478],[44.0491,15.9564,2525.1802],[44.0466,15.9617,2470.001]]]]}}