{"type":"Feature","properties":{"GID_2":"YEM.11.7_1","GID_0":"YEM","country":"Yemen","GID_1":"YEM.11_1","province":"Dhamar","NL_NAME_1":"ذمار","county":"Jahran","VARNAME_2":"NA","NL_NAME_2":"جهران","TYPE_2":"Muderiah","ENGTYPE_2":"District","CC_2":"2002","HASC_2":"NA","name":"Jahran.county"},
"geometry":{"type": "MultiPolygon","coordinates": [[[[44.2993,14.9277,2479.8696],[44.226,14.9274,2389.2983],[44.2364,14.8809,2551.0669],[44.2359,14.8519,2728.3826],[44.2572,14.7574,2281.5881],[44.254,14.7402,2209.415],[44.261,14.7263,2100.7891],[44.2735,14.728,2360.2581],[44.2838,14.7236,2409.3796],[44.289,14.7186,2416.5098],[44.2885,14.7035,2269.8508],[44.2919,14.6991,2351.3674],[44.2988,14.6969,2288.1038],[44.3148,14.6964,2325.7627],[44.3256,14.7017,2320.4998],[44.3279,14.6975,2320.5479],[44.3297,14.6881,2316.572],[44.324,14.6786,2323.675],[44.3109,14.6685,2338.1311],[44.2955,14.6613,2395.1914],[44.2617,14.6552,2291.7075],[44.2578,14.6461,2435.2283],[44.2521,14.6239,1962.673],[44.2608,14.605,2200.2139],[44.262,14.5955,2190.6362],[44.2483,14.5747,2272.1475],[44.2531,14.5698,2200.4165],[44.2551,14.5466,2296.5784],[44.258,14.5407,2283.0747],[44.2667,14.5387,2258.572],[44.2774,14.5423,2324.3445],[44.2846,14.5426,2449.1562],[44.2904,14.5421,2428.8984],[44.2983,14.5385,2449.9487],[44.3143,14.5407,2445.0125],[44.3227,14.5597,2449.907],[44.3194,14.5859,2422.6963],[44.3109,14.6223,2390.5693],[44.3108,14.65,2359.6182],[44.3189,14.664,2334.1426],[44.3453,14.6603,2382.8972],[44.355,14.666,2355.1165],[44.3863,14.6952,2377.7739],[44.4026,14.6983,2300.0845],[44.3991,14.7061,2298.3726],[44.3965,14.7196,2297.9648],[44.3767,14.72,2304.8118],[44.3602,14.7298,2323.0752],[44.3458,14.736,2322.9895],[44.35,14.7401,2327.0132],[44.3616,14.7461,2336.8381],[44.3574,14.7681,2361.7007],[44.3488,14.7992,2381.3057],[44.3381,14.8142,2367.5579],[44.3322,14.8401,2401.1323],[44.3292,14.8759,2516.7896],[44.3272,14.8805,2447.46],[44.3165,14.8934,2391.623],[44.3,14.9238,2467.5767],[44.2993,14.9277,2479.8696]]]]}}