{"type":"Feature","properties":{"GID_2":"YEM.21.16_1","GID_0":"YEM","country":"Yemen","GID_1":"YEM.21_1","province":"Ta`izz","NL_NAME_1":"تعز","county":"Mashra'aWaHadnan","VARNAME_2":"NA","NL_NAME_2":"مشرعةوحدنان","TYPE_2":"Muderiah","ENGTYPE_2":"District","CC_2":"1510","HASC_2":"NA","name":"Mashra'a_Wa_Hadnan.county"},
"geometry":{"type": "MultiPolygon","coordinates": [[[[44.0175,13.5174,2110.3977],[44.0038,13.5547,1669.0503],[44.0045,13.5623,1611.4849],[43.9901,13.568,1303.9877],[43.988,13.5471,1753.045],[43.9791,13.5225,1415.3706],[43.9915,13.5153,1640.2469],[44.0175,13.5174,2110.3977]]]]}}