{"type":"Feature","properties":{"GID_2":"YEM.20.14_1","GID_0":"YEM","country":"Yemen","GID_1":"YEM.20_1","province":"Shabwah","NL_NAME_1":"شبوة","county":"MerkhahAsSufla","VARNAME_2":"NA","NL_NAME_2":"مرخهالسفلى","TYPE_2":"Muderiah","ENGTYPE_2":"District","CC_2":"2109","HASC_2":"NA","name":"Merkhah_As_Sufla.county"},
"geometry":{"type": "MultiPolygon","coordinates": [[[[46.1921,14.3178,1634.425],[46.1928,14.4621,1319.41],[46.2166,14.5135,1408.9866],[46.2756,14.5589,1253.4932],[46.3463,14.5929,1434.2445],[46.4464,14.6501,1047.2308],[46.4708,14.6912,1044.6116],[46.5026,14.7522,984.9304],[46.517,14.796,968.7987],[46.5343,14.8362,951.8443],[46.5442,14.8665,940.1048],[46.526,14.8798,939.4147],[46.4429,15.0149,911.8275],[46.3876,15.1358,879.8266],[46.3763,15.1492,884.5281],[46.2739,15.1017,904.4855],[46.1405,14.9725,1047.8905],[46.0892,14.9419,1012.4637],[46.0054,14.9191,1026.0957],[45.9721,14.9016,1069.5763],[45.9499,14.8816,1065.6442],[45.9035,14.8162,1097.9668],[45.8618,14.7636,1116.7112],[45.8201,14.6985,1223.4536],[45.7784,14.6211,1567.8511],[45.7685,14.5924,1766.9052],[45.8111,14.5909,1349.3278],[45.8378,14.6133,1266.88],[45.9007,14.6324,1300.0217],[45.9682,14.6434,1343.4418],[45.9985,14.6455,1553.3904],[46.0286,14.6352,1202.5908],[46.0798,14.6217,1216.4827],[46.0929,14.5613,1126.6135],[46.0934,14.5411,1161.6034],[46.0768,14.5025,1260.9658],[46.0556,14.4415,1357.3984],[46.0158,14.3771,1550.2244],[45.9781,14.3378,1527.5284],[45.9765,14.3312,1579.7778],[45.9765,14.3178,1504.0245],[45.9783,14.3145,1454.3766],[45.9811,14.3144,1439.3113],[45.9857,14.3177,1415.3552],[45.9888,14.318,1414.5056],[45.9943,14.3096,1467.1222],[46.005,14.2985,1567.5228],[46.0172,14.2894,1545.0664],[46.0292,14.2822,1709.7163],[46.0456,14.2768,1627.5234],[46.0605,14.2505,1598.1138],[46.1071,14.2774,1701.0913],[46.1876,14.3182,1665.2052],[46.1921,14.3178,1634.425]]]]}}