{"type":"Feature","properties":{"GID_2":"YEM.14.8_1","GID_0":"YEM","country":"Yemen","GID_1":"YEM.14_1","province":"Ibb","NL_NAME_1":"إب","county":"AsSabrah","VARNAME_2":"NA","NL_NAME_2":"السبرة","TYPE_2":"Muderiah","ENGTYPE_2":"District","CC_2":"1114","HASC_2":"NA","name":"As_Sabrah.county"},
"geometry":{"type": "MultiPolygon","coordinates": [[[[44.4347,13.872,1588.574],[44.434,13.8849,1683.4265],[44.4361,13.8886,1670.1799],[44.4356,13.8917,1650.2814],[44.4322,13.8917,1691.0994],[44.4306,13.8948,1665.3386],[44.4118,13.8999,1661.2123],[44.3986,13.9057,1607.9888],[44.3949,13.9108,1622.2518],[44.3953,13.9166,1670.4662],[44.3969,13.9178,1660.4238],[44.3957,13.9202,1692.6382],[44.3917,13.919,1697.3911],[44.3889,13.9209,1732.5422],[44.3825,13.9189,1697.9724],[44.3777,13.9197,1754.1094],[44.3749,13.9236,1732.2454],[44.3649,13.9267,1788.8536],[44.36,13.9447,1861.6138],[44.3632,13.9451,1878.7234],[44.3644,13.9514,1991.2346],[44.3512,13.9537,1927.2383],[44.3488,13.9517,1911.576],[44.3472,13.9556,1972.8169],[44.3428,13.9564,1923.4668],[44.3379,13.9669,2043.6512],[44.3315,13.9704,1978.1257],[44.3255,13.9767,1994.2173],[44.3159,13.9806,2028.1357],[44.3127,13.9794,2089.3181],[44.3079,13.9743,2365.1172],[44.3011,13.9719,2487.5642],[44.2871,13.9738,2403.1208],[44.2798,13.9765,2374.9751],[44.2738,13.9757,2611.979],[44.2718,13.9726,2504.4983],[44.2719,13.9652,2460.0359],[44.2755,13.9589,2520.4568],[44.2763,13.9523,2507.6528],[44.2791,13.9488,2461.1685],[44.2952,13.9461,2251.8779],[44.3032,13.943,2180.2942],[44.3104,13.934,2053.4209],[44.3128,13.9289,2012.0337],[44.3128,13.9231,2133.2378],[44.3116,13.9191,2124.4333],[44.3077,13.9148,2076.7554],[44.2988,13.9091,2011.8772],[44.3033,13.9047,1823.366],[44.3057,13.8972,1692.7683],[44.3,13.8887,1674.6401],[44.296,13.8868,1657.7378],[44.2944,13.8786,1617.9338],[44.2907,13.8786,1636.178],[44.2877,13.8835,1701.3323],[44.2827,13.8825,1744.0137],[44.2824,13.8799,1680.2701],[44.2757,13.8776,1694.2411],[44.2661,13.8782,1719.2426],[44.2627,13.8792,1718.9507],[44.2623,13.8815,1714.0776],[44.2588,13.881,1764.2139],[44.2596,13.8674,1896.3527],[44.2664,13.8445,1874.8716],[44.2749,13.8405,2012.9142],[44.2726,13.835,2070.655],[44.2911,13.8237,1860.6658],[44.2902,13.8157,2117.3691],[44.2829,13.8162,1973.7791],[44.2772,13.8117,2045.2168],[44.2605,13.8117,1877.9614],[44.2492,13.8085,1732.8022],[44.2527,13.7803,1896.9712],[44.2523,13.7596,1648.1755],[44.2412,13.7501,1469.8551],[44.244,13.7411,1457.1692],[44.2548,13.7385,1464.2782],[44.2636,13.7334,1470.3856],[44.2623,13.7269,1576.6113],[44.2671,13.7132,1464.8347],[44.2761,13.7085,1458.5878],[44.3106,13.7049,1844.0123],[44.3243,13.7064,2183.1069],[44.3302,13.7095,2145.696],[44.3594,13.7381,2001.3995],[44.3665,13.7502,1900.0184],[44.3694,13.7584,1694.1436],[44.3699,13.7696,1599.8485],[44.3806,13.7874,1660.0354],[44.3809,13.7937,1699.92],[44.3763,13.8004,1586.9652],[44.3702,13.8036,1580.2169],[44.3688,13.8081,1573.5619],[44.3688,13.8238,1588.5564],[44.3822,13.8296,1441.0066],[44.396,13.8323,1442.2471],[44.4077,13.8302,1407.9532],[44.4128,13.8352,1399.9136],[44.4117,13.8405,1429.8882],[44.4073,13.8433,1436.1401],[44.4055,13.8472,1443.6333],[44.4054,13.8588,1471.4954],[44.4091,13.8635,1517.6018],[44.4347,13.872,1588.574]]]]}}