{"type":"Feature","properties":{"GID_2":"YEM.8.2_1","GID_0":"YEM","country":"Yemen","GID_1":"YEM.8_1","province":"AlMahwit","NL_NAME_1":"المحويت","county":"AlMahwait","VARNAME_2":"NA","NL_NAME_2":"المحويت","TYPE_2":"Muderiah","ENGTYPE_2":"District","CC_2":"2709","HASC_2":"NA","name":"Al_Mahwait.county"},
"geometry":{"type": "MultiPolygon","coordinates": [[[[43.4511,15.436,845.3267],[43.4574,15.4316,966.5499],[43.4608,15.4061,1060.7727],[43.4628,15.4052,1047.8026],[43.4635,15.4025,1028.5022],[43.4607,15.3909,1270.2216],[43.4659,15.3821,1333.6882],[43.4759,15.3789,1258.1041],[43.483,15.3817,1084.0173],[43.4911,15.3993,1008.2354],[43.4906,15.4181,1022.8322],[43.4957,15.4215,939.3624],[43.5195,15.4141,1019.9854],[43.5188,15.409,1039.1428],[43.5376,15.3892,1091.8486],[43.5391,15.3593,1156.4189],[43.5518,15.3469,971.191],[43.5654,15.3242,947.0624],[43.5692,15.322,971.1802],[43.6001,15.3284,1126.7175],[43.6017,15.3256,1154.7537],[43.6075,15.323,1112.0383],[43.6158,15.315,1041.8059],[43.618899999999996,15.3074,1009.0685],[43.6434,15.2797,826.6412],[43.6427,15.2699,848.9665],[43.6474,15.2726,794.9423],[43.6498,15.2713,800.4963],[43.6617,15.2804,1069.8588],[43.6798,15.2849,880.7345],[43.6823,15.3095,931.0829],[43.6808,15.3191,1035.274],[43.6685,15.3422,974.5667],[43.6696,15.3583,1040.2786],[43.6676,15.3613,1144.3799],[43.6519,15.3713,1129.9569],[43.6359,15.3778,1197.9625],[43.6054,15.4043,1534.7897],[43.5938,15.4388,1804.2622],[43.5901,15.4543,2098.5464],[43.5835,15.4573,2097.781],[43.5731,15.4496,1829.4419],[43.5657,15.4512,1827.2926],[43.5638,15.4332,1527.9185],[43.5581,15.4321,1477.4988],[43.542,15.4539,1819.4197],[43.5268,15.4639,1873.0582],[43.5269,15.4672,1848.7358],[43.536,15.4696,2001.2876],[43.5371,15.4857,2202.25],[43.5522,15.4948,1737.4614],[43.5513,15.4987,1625.9132],[43.5539,15.5067,1576.1365],[43.5563,15.5067,1595.189],[43.5588,15.5134,1435.6855],[43.5598,15.5196,1023.0415],[43.5587,15.5265,872.0907],[43.563,15.5275,898.8303],[43.5663,15.531,865.6107],[43.5704,15.5307,865.864],[43.5745,15.5333,821.1435],[43.5757,15.5405,748.88],[43.5737,15.5432,750.0839],[43.5663,15.5424,742.8529],[43.507,15.5535,650.8949],[43.5064,15.5471,601.8475],[43.5049,15.5458,614.5803],[43.4844,15.5456,534.2367],[43.4847,15.533,586.3024],[43.4897,15.5291,684.3566],[43.4878,15.5138,689.7268],[43.4898,15.5105,675.6572],[43.4863,15.508,653.5522],[43.4944,15.5026,756.8875],[43.477,15.4973,597.9655],[43.4767,15.4934,616.8533],[43.4807,15.4848,699.9733],[43.4651,15.4733,832.0395],[43.4633,15.4607,769.8928],[43.4641,15.4518,774.752],[43.4654,15.4509,868.3824],[43.4599,15.4438,837.7558],[43.4503,15.4388,825.0192],[43.4511,15.436,845.3267]]]]}}