{"type":"Feature","properties":{"GID_2":"YEM.5.22_1","GID_0":"YEM","country":"Yemen","GID_1":"YEM.5_1","province":"AlHudaydah","NL_NAME_1":"الحديده","county":"Bura","VARNAME_2":"NA","NL_NAME_2":"براع","TYPE_2":"Muderiah","ENGTYPE_2":"District","CC_2":"1812","HASC_2":"NA","name":"Bura.county"},
"geometry":{"type": "MultiPolygon","coordinates": [[[[43.498,14.9803,601.4142],[43.4836,14.9736,739.9528],[43.4755,14.9763,542.2294],[43.47,14.9743,498.8635],[43.4657,14.9795,450.2554],[43.4628,14.9804,444.2025],[43.4526,14.9763,418.7883],[43.4474,14.977,454.0368],[43.4429,14.9748,493.3842],[43.4379,14.9759,522.7852],[43.4338,14.9788,403.6443],[43.4272,14.9736,355.2445],[43.413,14.9712,321.1112],[43.4013,14.9659,288.348],[43.4016,14.9536,285.1755],[43.3993,14.9472,274.9788],[43.393,14.9395,249.8364],[43.3924,14.9278,237.4072],[43.3952,14.9233,246.5906],[43.3938,14.9165,222.55],[43.3815,14.9146,202.1991],[43.3794,14.9114,197.3073],[43.3837,14.8997,189.9404],[43.3892,14.8913,191.0178],[43.4012,14.8843,217.0935],[43.4034,14.8814,236.5694],[43.4025,14.8767,218.9244],[43.3953,14.8735,189.8885],[43.3944,14.8703,182.2412],[43.3954,14.865,177.7633],[43.4026,14.8575,175.0669],[43.3977,14.8372,163.4701],[43.418,14.8336,195.767],[43.4428,14.8229,512.083],[43.463,14.8186,301.2168],[43.4684,14.8159,339.244],[43.4708,14.8259,441.0358],[43.4799,14.8334,638.1653],[43.4874,14.8438,532.9173],[43.5039,14.8809,1212.7175],[43.5153,14.8855,1068.6433],[43.5379,14.8876,706.4249],[43.5517,14.9003,637.9524],[43.5646,14.9064,600.0964],[43.5679,14.9135,579.2633],[43.5713,14.9321,541.2296],[43.57,14.949,496.4912],[43.5574,14.9523,497.9278],[43.5488,14.9633,497.3148],[43.532,14.9753,496.9094],[43.498,14.9803,601.4142]]]]}}