{"type":"Feature","properties":{"GID_2":"YEM.15.6_1","GID_0":"YEM","country":"Yemen","GID_1":"YEM.15_1","province":"Lahij","NL_NAME_1":"لحج","county":"AlMilah","VARNAME_2":"NA","NL_NAME_2":"الملاح","TYPE_2":"Muderiah","ENGTYPE_2":"District","CC_2":"2508","HASC_2":"NA","name":"Al_Milah.county"},
"geometry":{"type": "MultiPolygon","coordinates": [[[[45.1954,13.3253,255.8971],[45.1658,13.352,620.1637],[45.1244,13.3989,996.7686],[45.0856,13.4125,689.4242],[45.0583,13.4126,882.506],[45.0437,13.4149,1446.3414],[45.0219,13.4315,1134.1777],[45.0171,13.4386,1093.5541],[44.9977,13.4386,1740.673],[44.9662,13.4244,1323.316],[44.9396,13.4315,1211.5144],[44.9299,13.4458,923.7497],[44.9129,13.4766,984.784],[44.9032,13.4813,1027.9922],[44.8911,13.4837,809.5162],[44.8499,13.4837,573.9785],[44.8281,13.4884,593.515],[44.8038,13.5026,655.7806],[44.8014,13.5073,782.884],[44.7772,13.5239,871.2432],[44.7626,13.5286,852.023],[44.7214,13.5357,1181.8665],[44.7108,13.5507,1262.2971],[44.7007,13.5732,1552.1409],[44.6579,13.5585,1242.6011],[44.6729,13.5305,1107.897],[44.6844,13.5038,1010.082],[44.7031,13.4814,866.9857],[44.7204,13.4336,650.9951],[44.7219,13.4139,595.1403],[44.7319,13.3928,583.4849],[44.7406,13.3816,603.0757],[44.7492,13.345,480.7909],[44.7643,13.3211,411.7447],[44.7907,13.3102,465.8384],[44.833,13.2822,763.473],[44.9016,13.22,421.2091],[44.9688,13.1639,270.3204],[45.032,13.1348,170.4719],[45.0534,13.1042,56.7878],[45.0683,13.0761,31.0008],[45.0677,13.0672,27.8304],[45.0928,13.0856,24.9396],[45.1292,13.1302,105.1836],[45.1703,13.2017,152.2229],[45.1886,13.2821,142.6381],[45.1954,13.3253,255.8971]]]]}}