{"type":"Feature","properties":{"GID_2":"YEM.9.6_1","GID_0":"YEM","country":"Yemen","GID_1":"YEM.9_1","province":"AmanatAlAsimah","NL_NAME_1":"أمانةالعاصمة","county":"Az'zal","VARNAME_2":"NA","NL_NAME_2":"أزال","TYPE_2":"Muderiah","ENGTYPE_2":"District","CC_2":"1303","HASC_2":"NA","name":"Az'zal.county"},
"geometry":{"type": "MultiPolygon","coordinates": [[[[44.262,15.3446,2433.7339],[44.2571,15.3609,2467.615],[44.2434,15.3639,2329.5747],[44.2333,15.3641,2322.5151],[44.2325,15.3662,2307.2388],[44.2259,15.3698,2261.6978],[44.2216,15.3643,2254.4958],[44.215,15.3597,2254.8625],[44.2192,15.3616,2254.9766],[44.225,15.354,2283.4971],[44.2259,15.3505,2289.2354],[44.2207,15.3487,2265.9626],[44.2232,15.3426,2276.616],[44.262,15.3446,2433.7339]]]]}}