{"type":"Feature","properties":{"GID_2":"YEM.12.12_1","GID_0":"YEM","country":"Yemen","GID_1":"YEM.12_1","province":"Hadramawt","NL_NAME_1":"حضرموت","county":"BromMayfa","VARNAME_2":"NA","NL_NAME_2":"برومميفع","TYPE_2":"Muderiah","ENGTYPE_2":"District","CC_2":"1925","HASC_2":"NA","name":"Brom_Mayfa.county"},
"geometry":{"type": "MultiPolygon","coordinates": [[[[48.9957,14.4872,41.1721],[48.9733,14.4974,110.8882],[48.9704,14.5079,105.955],[48.9498,14.5244,280.1103],[48.9215,14.5385,196.8618],[48.878,14.5132,438.8432],[48.8745,14.5144,356.0184],[48.8686,14.5115,352.121],[48.8539,14.5138,318.0613],[48.8327,14.535,462.9576],[48.8169,14.5644,539.329],[48.7728,14.6167,1453.2244],[48.7272,14.6544,1529.2471],[48.6813,14.6508,1392.7178],[48.6424,14.635,1440.7323],[48.5721,14.4395,1236.8638],[48.5549,14.3858,845.2319],[48.5186,14.328,189.5808],[48.4491,14.2397,546.5787],[48.45,14.2164,835.139],[48.4485,14.2162,812.8802],[48.4511,14.1944,835.7061],[48.498,14.1633,546.8895],[48.5456,14.1203,188.9775],[48.578,14.0474,1.4146],[48.6074,14.0482,0.5249],[48.6679,14.0446,0.5171],[48.6746,14.0471,0.8813],[48.6801,14.046,0.4398],[48.6818,14.0546,1.5299],[48.6826,14.0482,1.0702],[48.6843,14.0465,0.5409],[48.6963,14.0501,0.0],[48.6993,14.0538,1.4132],[48.7101,14.0601,0.0],[48.7113,14.0632,0.6842],[48.7182,14.0676,0.0],[48.7296,14.079,0.0],[48.7304,14.0818,0.4146],[48.7324,14.0821,0.0],[48.734,14.0862,0.0],[48.7393,14.0913,0.0],[48.7465,14.1051,1.1334],[48.7501,14.1079,0.0],[48.7546,14.1154,0.0],[48.764,14.1196,0.0],[48.7713,14.1288,22.7243],[48.7779,14.1321,39.7774],[48.7815,14.1321,31.0107],[48.7868,14.1349,2.5295],[48.7943,14.1349,0.0],[48.8115,14.1587,0.0],[48.8157,14.1607,30.5557],[48.8182,14.1587,0.0],[48.8251,14.1649,14.1364],[48.8293,14.166,0.0],[48.8293,14.1685,0.0],[48.8343,14.1729,0.0],[48.8374,14.1796,4.6129],[48.8429,14.1832,4.7512],[48.8435,14.1862,8.9849],[48.8501,14.1935,0.0],[48.8521,14.2001,0.4595],[48.8554,14.2024,0.5897],[48.8565,14.2057,8.5157],[48.8618,14.2071,12.8275],[48.8635,14.211,0.0],[48.8626,14.2135,0.0],[48.8668,14.2154,0.0],[48.8624,14.2299,0.0],[48.8638,14.2388,4.737],[48.8676,14.2446,4.6931],[48.8704,14.2446,9.0042],[48.8715,14.2429,0.0],[48.8732,14.2465,0.0],[48.8771,14.2496,0.6612],[48.8835,14.2504,0.0],[48.8862,14.2532,1.0101],[48.8899,14.2518,0.0],[48.8935,14.2551,0.0],[48.8963,14.2549,0.0],[48.9015,14.2604,0.0],[48.906,14.2596,5.6888],[48.9085,14.2565,0.0],[48.9101,14.2574,0.0],[48.9113,14.2618,1.1588],[48.9185,14.2632,0.0],[48.9193,14.2662,3.0159],[48.9243,14.2707,0.0],[48.9301,14.289,2.0493],[48.9346,14.2932,0.0],[48.9326,14.2968,0.3957],[48.9368,14.2982,0.0],[48.9376,14.3001,1.172],[48.9415,14.3001,0.0],[48.9435,14.3046,0.9012],[48.9465,14.3051,0.0],[48.9487,14.3085,0.0],[48.959,14.3101,2.5816],[48.9635,14.3076,0.0],[48.9679,14.3088,0.0],[48.9715,14.3118,0.0],[48.9746,14.3101,0.0],[48.9807,14.3107,7.6868],[48.9874,14.316,1.3401],[48.9888,14.3199,0.793],[48.9938,14.3221,25.8311],[48.9963,14.3265,0.0],[48.9951,14.3351,0.0],[48.9987,14.3368,0.0],[48.9949,14.3399,0.5181],[48.9938,14.3457,0.8144],[48.9829,14.3504,11.9672],[48.9824,14.3557,1.2787],[48.9843,14.3649,3.5025],[48.9885,14.3676,0.0],[48.989,14.3743,28.1063],[48.9876,14.3774,65.3296],[48.9918,14.3857,21.7988],[48.9938,14.3865,21.7988],[49.0032,14.4082,0.0],[48.9995,14.411,9.115],[48.9885,14.4322,28.4791],[48.9932,14.4817,99.3308],[48.9957,14.4872,41.1721]]]]}}