{"type":"Feature","properties":{"GID_2":"YEM.14.15_1","GID_0":"YEM","country":"Yemen","GID_1":"YEM.14_1","province":"Ibb","NL_NAME_1":"إب","county":"HazmAlUdayn","VARNAME_2":"NA","NL_NAME_2":"حزمالعدين","TYPE_2":"Muderiah","ENGTYPE_2":"District","CC_2":"1109","HASC_2":"NA","name":"Hazm_Al_Udayn.county"},
"geometry":{"type": "MultiPolygon","coordinates": [[[[43.7745,14.0685,667.6277],[43.8028,14.0645,703.7185],[43.8081,14.0587,729.5762],[43.8189,14.0552,744.9193],[43.8237,14.0564,728.1468],[43.8226,14.0606,843.0905],[43.8267,14.0613,751.1208],[43.8322,14.0534,783.9508],[43.8375,14.0531,791.826],[43.8389,14.0645,1013.3893],[43.8542,14.0644,1127.1337],[43.8986,14.1066,1556.6885],[43.9144,14.1323,1120.5865],[43.9251,14.138,1060.729],[43.931,14.1345,1110.6343],[43.9318,14.1255,1107.8547],[43.9346,14.122,1103.1176],[43.935,14.1163,1129.8088],[43.9237,14.0903,1211.0237],[43.9122,14.0771,1267.6217],[43.9049,14.0595,1349.8695],[43.9162,14.0409,1679.9225],[43.9066,14.0241,1085.2771],[43.9097,14.0131,970.5746],[43.9079,14.0085,945.3989],[43.9094,14.0057,959.2565],[43.912,14.0072,970.0934],[43.9149,13.9993,1008.9058],[43.9257,13.997,1014.3035],[43.9257,13.9936,1001.089],[43.9275,13.9927,1001.089],[43.9455,14.0088,1166.3091],[43.958,14.0158,1208.0234],[43.9606,14.0154,1252.5911],[43.9615,14.0084,1297.6361],[43.9707,13.999,1523.5586],[43.9851,13.9911,1294.8381],[43.9996,14.0063,1498.8495],[44.0073,14.0171,1830.7408],[44.0069,14.0288,2090.1482],[44.0041,14.0317,1982.0537],[44.0002,14.0328,2054.54],[44.0016,14.0424,1705.5566],[44.0038,14.0463,1630.9771],[44.0072,14.0449,1702.2688],[44.0076,14.0426,1668.4116],[44.015,14.0393,1908.9564],[44.0203,14.0412,1958.7805],[44.0267,14.0406,1887.038],[44.0284,14.0481,1819.9497],[44.0336,14.0498,1756.5557],[44.0338,14.0541,1791.2881],[44.0393,14.0679,1779.2408],[44.0509,14.0697,1889.6194],[44.0608,14.0799,1755.7614],[44.0593,14.0891,1629.7009],[44.0443,14.1125,1468.1367],[44.0436,14.1208,1484.1744],[44.058,14.1318,1644.4078],[44.0601,14.138,1561.1318],[44.0544,14.1503,1522.9528],[44.0561,14.1639,1448.0364],[44.0488,14.1673,1485.672],[44.0473,14.1694,1506.2156],[44.0417,14.1625,1614.5117],[44.046,14.1536,1508.265],[44.0463,14.1491,1578.3014],[44.0383,14.1434,1776.2723],[44.0384,14.1151,1454.1667],[44.0328,14.1132,1468.7858],[44.0293,14.1159,1501.7065],[44.0159,14.1172,1396.7065],[44.0159,14.1337,1633.4836],[44.0095,14.1556,1300.8916],[44.0122,14.1631,1307.1982],[44.0347,14.17,1317.3767],[44.0429,14.1756,1350.0278],[44.0405,14.1792,1258.6035],[44.0408,14.1915,1271.7993],[44.0463,14.2092,1195.4674],[44.0502,14.2127,1251.0981],[44.0501,14.2279,1086.886],[44.0473,14.2292,1077.6466],[44.0405,14.2381,1088.7046],[44.0346,14.2377,1150.1519],[44.0313,14.2315,1273.8864],[44.0313,14.2236,1227.408],[44.0284,14.2174,1227.5137],[44.0231,14.2156,1169.1398],[44.0179,14.2174,1205.1155],[44.0125,14.2171,1142.7292],[44.0098,14.2133,1123.2549],[44.0035,14.215,1092.7062],[43.9975,14.2214,1012.1814],[43.9945,14.2203,989.3511],[43.9965,14.2132,1042.4],[43.994,14.2098,1059.6877],[43.994,14.206,1072.6646],[43.982,14.2015,1131.719],[43.9695,14.1994,1074.3168],[43.9672,14.2043,995.9608],[43.9599,14.2083,944.6957],[43.9266,14.2086,876.0123],[43.9242,14.2054,899.768],[43.9048,14.2265,1492.5459],[43.8782,14.2095,934.2118],[43.8291,14.1889,799.5113],[43.8299,14.1862,763.2632],[43.8268,14.1823,751.5516],[43.832,14.1667,861.7994],[43.8183,14.1623,788.4232],[43.8007,14.1601,705.2266],[43.7857,14.1622,755.2367],[43.7786,14.1395,739.103],[43.7615,14.1154,691.6556],[43.7479,14.1027,669.0457],[43.7526,14.1001,621.0996],[43.7564,14.0911,648.7387],[43.7662,14.0807,682.8693],[43.7745,14.0685,667.6277]],
[[44.0194,14.0689,1649.5043],[44.0147,14.0689,1626.5294],[44.0147,14.0782,1641.9443],[44.0119,14.0816,1568.0752],[44.0075,14.0834,1453.3804],[44.0057,14.0936,1474.4324],[44.0085,14.0972,1434.3756],[44.0026,14.1097,1347.8802],[44.0104,14.109,1357.3689],[44.0104,14.1049,1392.6521],[44.0139,14.1015,1504.4515],[44.0279,14.1002,1518.8901],[44.028,14.0954,1543.5509],[44.0245,14.0919,1548.8831],[44.0239,14.0709,1689.1917],[44.0194,14.0689,1649.5043]]]]}}