{"type":"Feature","properties":{"GID_2":"YEM.21.13_1","GID_0":"YEM","country":"Yemen","GID_1":"YEM.21_1","province":"Ta`izz","NL_NAME_1":"تعز","county":"Hayfan","VARNAME_2":"NA","NL_NAME_2":"حيفان","TYPE_2":"Muderiah","ENGTYPE_2":"District","CC_2":"1517","HASC_2":"NA","name":"Hayfan.county"},
"geometry":{"type": "MultiPolygon","coordinates": [[[[44.2925,13.2082,757.6348],[44.3071,13.2125,729.2587],[44.3092,13.2189,831.9314],[44.3127,13.2232,861.5261],[44.3276,13.2291,884.1758],[44.3361,13.2349,1039.4879],[44.3382,13.2397,1065.5176],[44.3361,13.2525,1033.0321],[44.3412,13.2677,1015.5199],[44.3329,13.2883,1317.0798],[44.3265,13.2983,1503.7191],[44.3259,13.3027,1712.7363],[44.3281,13.3163,1813.8903],[44.3332,13.3273,1454.7267],[44.3276,13.3309,1329.4674],[44.3199,13.3301,1334.3452],[44.3063,13.3162,1488.374],[44.294,13.3149,1508.5872],[44.2758,13.3476,1422.4939],[44.2781,13.366,1094.2556],[44.2773,13.3753,1090.9404],[44.275,13.3776,1082.9535],[44.268,13.3773,1090.9415],[44.2642,13.3763,1100.8973],[44.2614,13.373,1102.2932],[44.2614,13.3673,1121.8678],[44.2642,13.3635,1144.7478],[44.2555,13.3584,1484.9456],[44.2545,13.3564,1422.1624],[44.2563,13.3526,1220.9918],[44.2437,13.3387,1466.215],[44.2293,13.3288,2312.9795],[44.219,13.3283,2300.5017],[44.2162,13.3253,2203.605],[44.218,13.319,1810.6626],[44.2237,13.3175,1648.1838],[44.2263,13.3011,1312.1831],[44.2242,13.2913,1217.8706],[44.2179,13.287,1161.4087],[44.2184,13.2734,1150.5586],[44.2019,13.2676,1408.8268],[44.1861,13.2587,1251.7548],[44.1855,13.2484,1405.4386],[44.1802,13.227,1782.9554],[44.1804,13.2232,1675.9686],[44.1838,13.2201,1454.1472],[44.1894,13.2205,1416.3568],[44.1963,13.218,1418.3123],[44.205,13.2178,1226.1541],[44.2194,13.2141,1341.384],[44.2307,13.2163,1116.7869],[44.2615,13.2152,1121.0433],[44.2732,13.2113,1005.7581],[44.2754,13.2051,947.7585],[44.2788,13.2035,932.8896],[44.2925,13.2082,757.6348]]]]}}