{"type":"Feature","properties":{"GID_2":"YEM.3.4_1","GID_0":"YEM","country":"Yemen","GID_1":"YEM.3_1","province":"AlBayda'","NL_NAME_1":"البيضاء","county":"AlMalagim","VARNAME_2":"NA","NL_NAME_2":"الملاجم","TYPE_2":"Muderiah","ENGTYPE_2":"District","CC_2":"1420","HASC_2":"NA","name":"Al_Malagim.county"},
"geometry":{"type": "MultiPolygon","coordinates": [[[[45.3634,14.4202,2043.2504],[45.3379,14.384,2019.8126],[45.3235,14.3785,2013.0098],[45.3115,14.3785,2004.0571],[45.2863,14.383,1962.6661],[45.2815,14.3798,1980.0126],[45.285,14.3785,1983.0709],[45.2903,14.3727,1965.4552],[45.2942,14.3643,1986.0822],[45.3009,14.3578,1996.0905],[45.3075,14.3544,1987.8801],[45.3035,14.3372,1989.877],[45.3056,14.3182,1996.0656],[45.3021,14.3013,2009.239],[45.2871,14.2718,2006.0184],[45.2819,14.2466,1979.0754],[45.2922,14.2409,1964.9647],[45.3189,14.2364,2038.1748],[45.3269,14.2408,1987.209],[45.3475,14.2465,2022.1809],[45.3549,14.2551,2057.0745],[45.3634,14.2528,2066.0498],[45.3781,14.2597,2032.2651],[45.3881,14.2758,1981.627],[45.4259,14.3101,1911.0128],[45.4347,14.3227,1902.6165],[45.4359,14.3314,1954.1566],[45.4705,14.3539,1751.5662],[45.4887,14.3878,1895.6001],[45.4849,14.4082,1959.3546],[45.4876,14.4751,1911.0026],[45.4501,14.4945,1917.7043],[45.3814,14.4285,1999.4915],[45.3634,14.4202,2043.2504]]]]}}