{"type":"Feature","properties":{"GID_2":"YEM.13.11_1","GID_0":"YEM","country":"Yemen","GID_1":"YEM.13_1","province":"Hajjah","NL_NAME_1":"حجه","county":"BakilAlMir","VARNAME_2":"NA","NL_NAME_2":"بكيلالمير","TYPE_2":"Muderiah","ENGTYPE_2":"District","CC_2":"1701","HASC_2":"NA","name":"Bakil_Al_Mir.county"},
"geometry":{"type": "MultiPolygon","coordinates": [[[[43.2262,16.6429,245.245],[43.2236,16.6479,242.5496],[43.211,16.6473,216.7243],[43.2196,16.6393,221.035],[43.2279,16.6262,267.1874],[43.2287,16.621,253.6835],[43.2221,16.6155,244.7754],[43.2199,16.6176,246.3586],[43.2171,16.6153,244.0776],[43.2168,16.5909,214.6162],[43.2229,16.5764,206.7706],[43.2227,16.5638,211.3206],[43.2165,16.5438,345.0161],[43.2072,16.532,190.4788],[43.2047,16.5264,192.2471],[43.1922,16.5156,184.2234],[43.1908,16.5062,202.2164],[43.2002,16.4993,211.9935],[43.2255,16.4949,219.7136],[43.2451,16.4888,416.3581],[43.2654,16.4806,289.2356],[43.2734,16.4737,374.6154],[43.2781,16.4624,332.8748],[43.2696,16.4116,301.1613],[43.267,16.3788,309.1962],[43.268,16.3671,284.9691],[43.2836,16.3662,360.6456],[43.3053,16.3722,346.6777],[43.3214,16.3724,349.0432],[43.3294,16.3788,369.8628],[43.3562,16.4087,443.8168],[43.3693,16.4151,454.0441],[43.3907,16.4318,519.7656],[43.4241,16.4721,563.4547],[43.4537,16.4981,722.4454],[43.4588,16.5124,839.1159],[43.4688,16.5291,1331.4003],[43.5322,16.5437,1150.5862],[43.5317,16.6299,1538.5714],[43.4741,16.6413,1405.3091],[43.4169,16.6448,1058.5854],[43.416,16.6434,1004.2659],[43.3986,16.6403,1090.0286],[43.3981,16.6295,805.0886],[43.3881,16.633,977.9357],[43.3808,16.6236,710.5516],[43.3682,16.6282,712.8151],[43.363,16.6217,783.3202],[43.3491,16.6159,701.4069],[43.3235,16.6103,705.9236],[43.3125,16.6107,471.6378],[43.3046,16.609,382.3073],[43.2917,16.6161,698.9072],[43.2697,16.6318,490.5773],[43.2625,16.6302,445.5381],[43.2498,16.6355,324.3145],[43.2464,16.6347,269.8176],[43.2262,16.6429,245.245]]]]}}