{"type":"Feature","properties":{"GID_2":"YEM.15.12_1","GID_0":"YEM","country":"Yemen","GID_1":"YEM.15_1","province":"Lahij","NL_NAME_1":"لحج","county":"Tuban","VARNAME_2":"NA","NL_NAME_2":"تبن","TYPE_2":"Muderiah","ENGTYPE_2":"District","CC_2":"2515","HASC_2":"NA","name":"Tuban.county"},
"geometry":{"type": "MultiPolygon","coordinates": [[[[44.9087,12.9086,39.4764],[44.9131,12.9112,41.5022],[44.9222,12.9224,42.9123],[44.9416,12.928,37.8779],[44.9622,12.9314,33.2772],[44.9862,12.9303,24.8919],[45.0033,12.9314,20.1909],[45.0193,12.937,16.0377],[45.0353,12.9404,13.1939],[45.0662,12.9404,4.499],[45.0776,12.9426,2.7065],[45.0881,12.9413,2.5267],[45.0881,12.9773,7.4334],[45.0733,13.0078,14.967],[45.0658,13.0407,25.5298],[45.0683,13.0761,31.0008],[45.0534,13.1042,56.7878],[45.032,13.1348,170.4719],[44.9688,13.1639,270.3204],[44.9016,13.22,421.2091],[44.833,13.2822,763.473],[44.7907,13.3102,465.8384],[44.7643,13.3211,411.7447],[44.7292,13.3015,426.4489],[44.7148,13.2818,414.1331],[44.7063,13.248,353.8753],[44.7048,13.2311,332.0914],[44.7078,13.1918,303.9152],[44.7116,13.1748,290.8857],[44.7051,13.014,226.4931],[44.6687,12.8631,64.473],[44.6995,12.8685,60.101],[44.7258,12.8674,51.6237],[44.8434,12.8798,39.3569],[44.88,12.9,43.606],[44.8903,12.9,40.1444],[44.9087,12.9086,39.4764]],
[[44.8918,13.0495,120.9334],[44.8769,13.0477,127.8782],[44.8677,13.0566,135.6438],[44.8677,13.0772,158.4005],[44.8881,13.0772,145.5837],[44.8956,13.07,131.7943],[44.8918,13.0495,120.9334]]]]}}