{"type":"Feature","properties":{"GID_2":"YEM.10.19_1","GID_0":"YEM","country":"Yemen","GID_1":"YEM.10_1","province":"Amran","NL_NAME_1":"عمران","county":"Suwayr","VARNAME_2":"NA","NL_NAME_2":"صـويــــر","TYPE_2":"Muderiah","ENGTYPE_2":"District","CC_2":"2907","HASC_2":"NA","name":"Suwayr.county"},
"geometry":{"type": "MultiPolygon","coordinates": [[[[43.6012,16.1869,1161.0635],[43.5985,16.1869,1137.9011],[43.5978,16.1841,1130.8018],[43.5898,16.1792,1119.3829],[43.5668,16.1782,1086.5625],[43.5759,16.0973,1192.8633],[43.5915,16.0806,1068.2632],[43.5965,16.071,1032.0803],[43.598,16.0583,1020.4293],[43.6023,16.0424,967.8152],[43.6202,16.0249,1015.8415],[43.6258,16.0146,991.1111],[43.6244,16.001,954.2187],[43.6167,15.9913,932.5519],[43.6031,15.9844,935.0966],[43.5846,15.9779,860.0338],[43.5784,15.9739,913.8986],[43.5784,15.9635,819.3411],[43.5766,15.9596,813.2542],[43.5779,15.9494,701.5197],[43.5819,15.9419,685.0858],[43.5923,15.9354,798.2699],[43.599,15.9365,825.9585],[43.6195,15.9641,980.8181],[43.6286,15.9792,944.5394],[43.6407,15.9932,933.5193],[43.6448,15.994,958.1624],[43.6504,15.9887,986.5742],[43.6555,15.995,993.5568],[43.6563,16.0227,1185.5084],[43.6598,16.0336,1185.819],[43.6587,16.0697,1174.9008],[43.6605,16.0768,1141.5779],[43.664,16.0825,1088.4873],[43.6755,16.0922,1128.1946],[43.6735,16.0953,1120.8947],[43.6689,16.0977,1110.6531],[43.6566,16.0998,1120.6172],[43.6485,16.1039,1118.2255],[43.6399,16.1174,1156.311],[43.6314,16.1551,1173.4197],[43.6137,16.1715,1388.9894],[43.6012,16.1869,1161.0635]]]]}}