{"type":"Feature","properties":{"GID_2":"YEM.12.20_1","GID_0":"YEM","country":"Yemen","GID_1":"YEM.12_1","province":"Hadramawt","NL_NAME_1":"حضرموت","county":"QulensyaWaAbdAlKuri","VARNAME_2":"NA","NL_NAME_2":"قلنسيهوعبدالكوري","TYPE_2":"Muderiah","ENGTYPE_2":"District","CC_2":"1927","HASC_2":"NA","name":"Qulensya_Wa_Abd_Al_Kuri.county"},
"geometry":{"type": "MultiPolygon","coordinates": [[[[53.0374,12.1794,0.0],[53.0279,12.179,0.0],[53.0257,12.1768,23.8607],[53.0207,12.1785,27.4728],[53.011,12.1774,1.5819],[53.0087,12.1788,0.0],[53.0085,12.1737,25.0005],[53.0038,12.1737,6.4674],[52.9987,12.1704,9.4061],[52.9965,12.1724,0.0],[52.9899,12.1685,3.1234],[52.9813,12.1704,0.5916],[52.9782,12.1657,2.2989],[52.9849,12.1649,2.2238],[52.9857,12.1604,0.0],[52.9882,12.1615,2.199],[52.9927,12.1599,0.0],[52.9927,12.1613,1.6387],[52.9957,12.1612,1.9586],[52.9996,12.1582,3.7201],[53.0124,12.154,8.7291],[53.0265,12.1393,3.9834],[53.0371,12.1371,106.0132],[53.0474,12.1324,25.9479],[53.054,12.1324,64.9123],[53.0554,12.1282,0.0],[53.0585,12.1251,0.5067],[53.0613,12.1263,2.6155],[53.0615,12.1285,20.2151],[53.0651,12.1285,0.0],[53.0665,12.1301,18.245],[53.069,12.1287,0.0],[53.0743,12.1313,18.6251],[53.084,12.1313,-0.0737],[53.0846,12.1332,18.5529],[53.0868,12.1335,0.0],[53.0885,12.1407,51.097],[53.0899,12.1412,0.0],[53.0882,12.1496,0.0],[53.0901,12.1532,0.0],[53.0863,12.1618,6.0492],[53.0743,12.169,0.745],[53.0738,12.174,0.0],[53.0565,12.1743,0.0],[53.0515,12.1782,0.0],[53.0443,12.1791,0.0],[53.0396,12.1779,0.0],[53.0374,12.1794,0.0]]],
[[[52.0838,12.2446,0.0],[52.0827,12.2449,0.0],[52.0818,12.2418,1.5705],[52.0807,12.2435,0.0],[52.0781,12.2435,0.0],[52.0774,12.2405,0.2246],[52.0738,12.2412,0.0],[52.0715,12.2382,2.3703],[52.0632,12.2401,0.3002],[52.0638,12.2371,0.0901],[52.0624,12.2368,0.2477],[52.0615,12.2335,0.0],[52.0674,12.236,0.1823],[52.0685,12.2321,0.5847],[52.0615,12.2285,0.0],[52.0633,12.2276,1.3025],[52.064,12.2238,6.9246],[52.071,12.224,3.9223],[52.0713,12.221,0.0],[52.0741,12.2207,8.6494],[52.079,12.2171,5.2803],[52.0841,12.2171,15.4215],[52.0857,12.214,1.2422],[52.091,12.2157,35.395],[52.0904,12.2124,0.0],[52.0949,12.2127,27.5383],[52.0938,12.2082,0.0],[52.0996,12.2065,8.1377],[52.0976,12.2024,0.0],[52.1032,12.204,0.0],[52.1037,12.2054,0.0],[52.1024,12.206,23.7693],[52.1046,12.206,30.1139],[52.1065,12.2054,0.0],[52.1043,12.204,0.0],[52.1063,12.2024,0.0],[52.1076,12.2024,0.0],[52.1071,12.2049,0.0],[52.1082,12.2049,12.7522],[52.1226,12.2015,0.0],[52.1213,12.2057,4.1446],[52.126,12.2012,0.0],[52.1293,12.2029,0.0],[52.1296,12.2051,3.1535],[52.1351,12.2046,0.6641],[52.1354,12.2015,0.0],[52.1424,12.2004,0.0],[52.1451,12.2018,6.6713],[52.1465,12.1979,6.0028],[52.1443,12.1971,3.5445],[52.146,12.1954,0.0],[52.1474,12.1963,3.109],[52.1479,12.1924,0.0],[52.1501,12.191,0.0],[52.1518,12.1868,0.0],[52.1632,12.1829,0.0],[52.1649,12.1851,0.0],[52.1674,12.1849,0.0],[52.1704,12.1874,0.0],[52.1757,12.1857,10.3518],[52.1785,12.1821,9.1884],[52.1801,12.1826,0.0],[52.1801,12.1846,4.0586],[52.1838,12.1843,11.3428],[52.1843,12.1824,2.0826],[52.1865,12.1818,0.0],[52.1921,12.1829,21.47],[52.1982,12.1818,0.963],[52.2007,12.1793,0.0],[52.2079,12.1807,6.121],[52.2126,12.1782,0.0],[52.2146,12.1804,0.0],[52.221,12.1799,0.0],[52.2232,12.1821,3.5635],[52.2271,12.1804,0.0],[52.2282,12.1821,12.4092],[52.2293,12.1732,3.6556],[52.2376,12.1571,0.0],[52.2451,12.1557,1.8317],[52.2493,12.1579,2.4642],[52.2524,12.156,1.7679],[52.2577,12.1565,3.5404],[52.2629,12.1549,0.0],[52.2663,12.1568,1.0804],[52.2743,12.154,3.2746],[52.2776,12.1546,6.839],[52.284,12.1501,0.0],[52.294,12.151,0.9777],[52.296,12.1471,1.6433],[52.2982,12.149,42.5411],[52.2999,12.1485,0.0],[52.2999,12.1504,0.0],[52.3019,12.1513,0.0],[52.3104,12.1499,0.0],[52.3179,12.1515,31.1839],[52.324,12.1482,0.0],[52.3254,12.1504,0.0],[52.3312,12.1501,0.0],[52.3357,12.1524,12.8223],[52.3415,12.1507,0.0],[52.3418,12.1543,4.2941],[52.3563,12.1596,0.0],[52.3701,12.1563,1.5596],[52.3729,12.154,10.4385],[52.379,12.1554,0.0],[52.3807,12.1585,0.0],[52.3801,12.1615,0.0],[52.3699,12.1646,45.111],[52.3671,12.1685,22.3874],[52.3676,12.1788,10.0357],[52.3704,12.1804,0.9785],[52.3699,12.1827,15.0608],[52.3729,12.1835,0.0],[52.3726,12.1846,5.0343],[52.3788,12.1849,0.0],[52.3796,12.1879,1.0175],[52.3824,12.1876,0.998],[52.3829,12.1893,4.1227],[52.3876,12.1904,0.0],[52.389,12.1949,5.9348],[52.3943,12.1949,0.0],[52.3951,12.1974,0.0],[52.391,12.1985,3.9354],[52.3754,12.1888,0.6717],[52.3585,12.191,0.0],[52.3537,12.1901,2.4565],[52.3399,12.1951,1.0455],[52.3376,12.1932,3.8858],[52.3329,12.1946,0.0],[52.3318,12.1913,4.7502],[52.3204,12.1888,0.0],[52.3129,12.1907,1.3268],[52.2991,12.2013,0.0],[52.296,12.1982,1.5036],[52.2932,12.1982,1.8499],[52.2882,12.2015,0.4835],[52.2843,12.2001,4.9839],[52.2793,12.2063,0.1462],[52.2746,12.2049,7.4073],[52.2699,12.201,3.2256],[52.2668,12.2024,0.0],[52.2654,12.199,2.5883],[52.2635,12.1999,6.2559],[52.2632,12.2021,0.0],[52.2604,12.2012,3.2667],[52.2601,12.2032,0.0],[52.2576,12.2043,0.0],[52.2487,12.2012,1.1086],[52.2441,12.2049,0.0],[52.2424,12.2032,1.4547],[52.2349,12.204,0.0],[52.2329,12.2029,2.1804],[52.2315,12.2046,0.0],[52.2247,12.2046,0.0],[52.2204,12.2007,1.6616],[52.2154,12.206,0.0],[52.2124,12.206,0.0],[52.2107,12.2043,0.4465],[52.2088,12.206,0.0],[52.2071,12.2026,1.0324],[52.2026,12.2024,2.1967],[52.191,12.2076,0.3176],[52.1807,12.2149,0.9555],[52.1785,12.214,0.1936],[52.176,12.2176,0.0],[52.1726,12.2151,0.9118],[52.1704,12.2154,1.877],[52.1549,12.2287,0.4743],[52.1501,12.2354,2.9206],[52.1418,12.2338,0.1795],[52.1332,12.2405,0.0],[52.1287,12.2391,0.2252],[52.1254,12.2421,0.0],[52.1205,12.2421,0.0],[52.1207,12.2396,0.0578],[52.1188,12.2388,0.1136],[52.1121,12.2441,0.0],[52.1063,12.2426,1.6065],[52.1037,12.2443,0.0],[52.1049,12.2412,0.0],[52.0982,12.2382,1.0364],[52.0868,12.2407,0.0],[52.0838,12.2446,0.0]]],
[[[52.1365,12.4429,0.0],[52.1354,12.4435,0.0],[52.1346,12.4418,6.7272],[52.1349,12.439,4.3037],[52.1307,12.4377,0.0],[52.1315,12.4351,0.0],[52.1343,12.4346,0.0],[52.1365,12.4388,22.1799],[52.1429,12.4405,0.0],[52.1413,12.4426,0.0],[52.1365,12.4429,0.0]]],
[[[53.1587,12.6376,0.6336],[53.1587,12.639,0.0],[53.1573,12.6385,0.6336],[53.156,12.6346,0.0],[53.1576,12.6349,1.8469],[53.1587,12.6376,0.6336]]],
[[[53.2699,12.1285,1.7437],[53.2449,12.1221,0.0],[53.2474,12.119,21.0327],[53.2482,12.119,21.0327],[53.2474,12.1218,84.5669],[53.2515,12.1182,2.4946],[53.2543,12.1199,56.9049],[53.2565,12.1146,88.3124],[53.2588,12.1132,15.8268],[53.2627,12.1137,9.8163],[53.2643,12.1121,138.7735],[53.2779,12.1149,110.9625],[53.2826,12.1129,0.1085],[53.2829,12.1115,0.0],[53.2857,12.1127,2.4204],[53.2907,12.1113,0.0],[53.291,12.1093,0.0],[53.294,12.1104,0.0],[53.2946,12.1126,237.1702],[53.2969,12.1124,360.6217],[53.3007,12.1085,17.5538],[53.3032,12.1082,28.3778],[53.3071,12.1088,69.4259],[53.3101,12.1113,0.0],[53.309,12.1132,0.0],[53.2943,12.1193,1.5335],[53.2868,12.1265,1.652],[53.279,12.1285,0.8024],[53.2699,12.1285,1.7437]]],
[[[53.7485,12.5665,24.1625],[53.7486,12.6022,15.1025],[53.7388,12.6232,13.5104],[53.7385,12.6376,0.0],[53.7332,12.6393,0.4314],[53.7046,12.6596,0.2436],[53.6843,12.6762,0.0],[53.676,12.681,1.7504],[53.6515,12.7018,0.0],[53.6457,12.7032,0.3653],[53.641,12.7004,12.1612],[53.619,12.7001,1.9829],[53.616,12.6979,8.1418],[53.604,12.6971,0.0],[53.5843,12.7018,8.1323],[53.5776,12.7001,12.2351],[53.5646,12.7051,6.3742],[53.5568,12.7101,5.229],[53.549,12.711,0.0],[53.5424,12.7137,9.5034],[53.5185,12.7104,0.0],[53.5151,12.7085,1.9073],[53.5149,12.706,14.6552],[53.5105,12.7032,0.0],[53.5076,12.699,0.0],[53.501,12.6979,4.7495],[53.4965,12.7001,11.6671],[53.4938,12.6979,14.1904],[53.4935,12.699,0.7074],[53.4876,12.6982,15.2498],[53.4851,12.6999,0.9969],[53.4837,12.6887,1.3279],[53.4763,12.6865,0.1657],[53.4729,12.6788,0.0],[53.4679,12.6721,1.4091],[53.4649,12.6704,4.7074],[53.461,12.671,0.0],[53.4493,12.6685,6.046],[53.4426,12.6713,1.8252],[53.4374,12.671,0.0],[53.4215,12.6649,19.9414],[53.4165,12.6646,3.4133],[53.4079,12.6587,126.4635],[53.3976,12.6557,0.0],[53.3965,12.6526,9.9018],[53.3993,12.6499,0.0],[53.399,12.6435,0.0],[53.4007,12.6421,8.7144],[53.3993,12.6296,0.0],[53.4029,12.6287,12.5387],[53.4043,12.6196,332.6437],[53.4015,12.6138,0.0],[53.4018,12.6104,279.1442],[53.399,12.6065,0.0],[53.3996,12.6032,118.4673],[53.3974,12.6018,0.0],[53.3979,12.6007,0.0],[53.3993,12.601,0.0],[53.4001,12.579,4.3242],[53.399,12.5699,1.101],[53.3949,12.5593,0.0],[53.3921,12.5585,4.2617],[53.3849,12.5501,2.2418],[53.3807,12.5485,13.2646],[53.3779,12.5491,0.0],[53.376,12.5471,0.0],[53.3699,12.5468,6.2674],[53.3655,12.5435,3.1718],[53.359,12.5443,0.0],[53.3557,12.5415,35.2068],[53.3512,12.5427,0.0],[53.3346,12.5374,0.3788],[53.334,12.5388,0.0],[53.3246,12.541,12.0599],[53.3237,12.5435,1.5354],[53.3187,12.544,0.0],[53.3157,12.5413,7.2832],[53.3088,12.5396,0.0],[53.3051,12.5357,0.0],[53.3065,12.5296,0.0],[53.3113,12.5282,33.1295],[53.316,12.5224,0.0],[53.3187,12.5221,17.5753],[53.3221,12.5187,0.0],[53.3463,12.5063,2.6699],[53.361,12.4957,1.9799],[53.3649,12.4955,1.3384],[53.3732,12.4885,0.0],[53.4063,12.4679,0.0],[53.4271,12.4568,0.0],[53.4474,12.4485,0.0],[53.4524,12.4449,0.0],[53.4599,12.4435,4.3726],[53.4657,12.4401,57.6137],[53.474,12.431,7.3335],[53.4726,12.4304,0.0],[53.4732,12.4251,0.0],[53.4751,12.4218,0.0],[53.4784,12.4207,6.8035],[53.4774,12.4165,0.0],[53.4832,12.4135,0.0],[53.5312,12.4332,383.154],[53.5679,12.4431,294.6302],[53.6232,12.45,298.5844],[53.6502,12.4713,380.3085],[53.6745,12.4865,61.5216],[53.7187,12.4949,174.6439],[53.743,12.5113,298.9706],[53.7485,12.5665,24.1625]]],
[[[53.5049,12.7107,0.0],[53.4987,12.711,0.0],[53.496,12.7079,0.0],[53.5024,12.7079,0.0],[53.5049,12.7107,0.0]]]]}}