{"type":"Feature","properties":{"GID_2":"YEM.14.3_1","GID_0":"YEM","country":"Yemen","GID_1":"YEM.14_1","province":"Ibb","NL_NAME_1":"إب","county":"AlMashannah","VARNAME_2":"NA","NL_NAME_2":"المشنة","TYPE_2":"Muderiah","ENGTYPE_2":"District","CC_2":"1118","HASC_2":"NA","name":"Al_Mashannah.county"},
"geometry":{"type": "MultiPolygon","coordinates": [[[[44.1409,13.9483,2230.79],[44.1457,13.9375,2118.8179],[44.1485,13.9352,2123.6028],[44.1561,13.9303,1946.7292],[44.1696,13.927,1952.652],[44.1719,13.9325,1915.9492],[44.1956,13.9403,1879.6765],[44.1989,13.9552,2158.1201],[44.1977,13.9603,2307.4741],[44.1956,13.9622,2287.0786],[44.1951,13.9674,2134.3079],[44.1991,13.9763,2335.085],[44.1954,13.9828,2138.9165],[44.1854,13.9876,1772.6995],[44.1822,13.9796,1980.0681],[44.1839,13.9745,1969.8528],[44.1796,13.9602,1916.0596],[44.1735,13.9599,1910.4475],[44.1576,13.9549,2084.3511],[44.1509,13.9587,2060.3735],[44.148,13.9582,2081.8667],[44.1419,13.9559,2152.4041],[44.1409,13.9483,2230.79]]]]}}