{"type":"Feature","properties":{"GID_1":"YEM.6_1","GID_0":"YEM","country":"Yemen","province":"AlJawf","VARNAME_1":"AlJouf|Aljowf|Jawf","NL_NAME_1":"الجوف","TYPE_1":"Muhafazah","ENGTYPE_1":"Governorate","CC_1":"16","HASC_1":"YE.JA","ISO_1":"NA","name":"Al_Jawf.province"},
"geometry":{"type": "MultiPolygon","coordinates": [[[[45.0132,15.9159,1076.9484],[45.2346,15.7677,1047.0583],[45.4642,15.7615,993.4916],[45.5278,15.7915,986.265],[45.5557,15.8296,983.6352],[45.5867,15.8773,974.5969],[45.6295,15.9229,983.1577],[45.7105,15.9726,1091.3499],[45.8221,16.0118,1008.472],[46.8108,16.1619,883.7923],[46.9971,16.3699,972.6913],[47.0,16.95,851.1688],[46.75,17.2833,790.3716],[46.3667,17.2333,838.3473],[46.1,17.25,822.7863],[45.4,17.3333,992.9552],[45.2167,17.4333,998.7183],[44.8886,17.4333,1092.3297],[44.8879,17.0639,1256.8765],[44.6411,17.0636,1587.8604],[44.5842,17.0557,1592.3976],[44.5066,17.0374,1531.2509],[44.4417,16.9984,1783.2786],[44.3701,16.9443,1619.7617],[44.3031,16.8837,1646.0941],[44.2496,16.8296,1686.1813],[44.1826,16.7775,2233.8789],[44.1469,16.7386,2349.4211],[44.1463,16.7356,2340.6855],[44.0666,16.6864,1580.0159],[44.0488,16.6537,1567.272],[44.0953,16.6539,1529.2109],[44.109,16.6447,1530.2769],[44.1234,16.6417,1518.3202],[44.1489,16.6441,1522.7264],[44.1681,16.6511,1547.3538],[44.1713,16.6503,1565.6267],[44.1865,16.6235,1512.4375],[44.2042,16.5874,1481.1029],[44.2275,16.5621,1438.5009],[44.2347,16.5567,1401.717],[44.2686,16.5406,1364.5881],[44.2673,16.5388,1361.9143],[44.2612,16.5385,1360.7983],[44.2632,16.5366,1358.9385],[44.2573,16.5356,1360.6487],[44.2606,16.5349,1358.5491],[44.2643,16.5277,1355.2041],[44.2637,16.522,1362.1989],[44.2724,16.5084,1363.6685],[44.2765,16.5046,1360.7939],[44.2789,16.4888,1408.4753],[44.2802,16.4888,1409.1152],[44.2732,16.453,1488.7219],[44.2601,16.4035,1667.5214],[44.2656,16.3018,1363.1891],[44.2708,16.2939,1335.1782],[44.2789,16.2929,1288.5129],[44.283,16.3058,1308.5468],[44.3004,16.3068,1279.3196],[44.3055,16.296,1267.8696],[44.2984,16.288,1263.9771],[44.285,16.2351,1513.9177],[44.2711,16.1891,1363.3799],[44.2846,16.1338,1557.6853],[44.3414,16.0915,1634.3715],[44.3495,16.0455,1741.8979],[44.3666,16.0428,1494.9636],[44.3829,16.03,1678.8604],[44.4269,16.0319,1300.9423],[44.575,16.0018,1499.1711],[44.594,16.0303,1592.4934],[44.8414,16.0306,1092.0745],[45.0132,15.9159,1076.9484]]]]}}