{"type":"Feature","properties":{"ISO3166-1-Alpha-3":"YEM","country":"Yemen","fill":"#FF0","id":"335","name":"Al Jawf"},
"geometry":{"type": "Polygon","coordinates": [[[46.32263,17.22407,823.9236],[46.07996,17.24799,870.3076],[45.89082,17.26665,874.7816],[45.64231,17.29109,950.7464],[45.43038,17.31202,970.3184],[45.3847,17.32649,1004.79],[45.22213,17.41739,985.5435],[45.16539,17.42839,1003.6132],[44.99734,17.42953,1054.4099],[44.97247,17.4297,1068.2614],[44.95021,17.11144,1199.3809],[44.86763,17.07149,1277.8628],[44.80882,17.07772,1311.3978],[44.7449,17.07614,1537.7085],[44.67818,17.0618,1540.1749],[44.6231,17.04333,1605.3944],[44.49086,16.97922,1909.9581],[44.47287,16.96062,1800.5256],[44.43251,16.90607,1865.5066],[44.41918,16.8944,2010.0061],[44.40135,16.86432,2052.6855],[44.39128,16.85592,2155.1555],[44.37696,16.85362,2243.415],[44.35898,16.83445,2251.1428],[44.31753,16.80869,2123.1401],[44.30312,16.80218,2130.4065],[44.2949,16.79606,2137.9058],[44.28405,16.79295,2162.4277],[44.27051,16.78668,2193.2869],[44.24849,16.77027,2182.0227],[44.23578,16.75298,2114.2021],[44.21542,16.7165,2230.1743],[44.20286,16.66622,1702.9526],[44.18876,16.63147,1548.7721],[44.24043,16.59782,1435.5356],[44.25609,16.59054,1500.6616],[44.31428,16.54902,1377.7638],[44.3289,16.5339,1365.5112],[44.33495,16.51767,1348.7566],[44.32937,16.50266,1325.0723],[44.32032,16.49091,1317.8425],[44.32001,16.47336,1370.2838],[44.33464,16.44499,1319.3541],[44.34316,16.40766,1389.5803],[44.35185,16.38197,1635.1051],[44.36611,16.35745,1504.9319],[44.36936,16.33523,1276.3739],[44.36735,16.31541,1278.4894],[44.36177,16.29717,1257.8906],[44.36657,16.28454,1250.8113],[44.37278,16.27521,1240.3378],[44.37464,16.25989,1258.8829],[44.35247,16.1955,1220.3923],[44.36208,16.16839,1329.2458],[44.36363,16.13739,1226.587],[44.368899999999996,16.1108,1283.4016],[44.40104,16.05574,1367.5931],[44.42585,16.02827,1273.1218],[44.48109,16.03998,1400.6558],[44.48931,16.04866,1383.6837],[44.50951,16.057,1388.9615],[44.59483,16.0508,1442.8982],[44.66097,16.01143,1405.8038],[44.9978,15.93554,1076.0704],[45.23898,15.81296,1037.2249],[45.44956,15.78007,991.7294],[45.56423,15.79035,982.0019],[45.69285,15.89774,965.603],[45.99448,16.00003,972.2621],[46.83273,16.14969,886.1306],[47.03866,16.34536,987.3042],[46.99703,16.94851,851.8228],[46.983,16.9491,850.2581],[46.97034,16.95685,847.4384],[46.8858,17.06955,803.6215],[46.8118,17.16846,817.7173],[46.7472,17.25476,790.9852],[46.7101,17.27538,830.5664],[46.48789,17.24598,800.4208],[46.32263,17.22407,823.9236]]]}}