{"type":"Feature","properties":{"GID_2":"YEM.19.3_1","GID_0":"YEM","country":"Yemen","GID_1":"YEM.19_1","province":"San`a'","NL_NAME_1":"صنعاء","county":"AlHusn","VARNAME_2":"NA","NL_NAME_2":"الحصن","TYPE_2":"Muderiah","ENGTYPE_2":"District","CC_2":"2315","HASC_2":"NA","name":"Al_Husn.county"},
"geometry":{"type": "MultiPolygon","coordinates": [[[[44.6484,15.0142,2188.4797],[44.6273,15.0592,2113.3364],[44.611,15.0569,2107.6724],[44.5428,15.0852,2192.7549],[44.469,15.073,2277.1104],[44.4483,15.104,2349.2512],[44.4366,15.1064,2294.4148],[44.4174,15.0976,2405.2065],[44.3842,15.0975,2667.8896],[44.3685,15.0703,2950.1477],[44.3604,15.0711,2719.7383],[44.3605,15.028,2591.365],[44.363,14.9979,2487.7456],[44.3667,14.9843,2588.5469],[44.3706,14.9822,2515.3723],[44.3781,14.9698,2507.9392],[44.3915,14.9579,2417.1772],[44.4385,14.9348,2382.3105],[44.4603,14.9394,2317.7102],[44.5115,14.9546,2224.2798],[44.5355,14.9709,2232.4424],[44.5437,14.9813,2177.7017],[44.6324,15.0123,2126.4976],[44.6484,15.0142,2188.4797]]]]}}