{"type":"Feature","properties":{"GID_2":"YEM.13.7_1","GID_0":"YEM","country":"Yemen","GID_1":"YEM.13_1","province":"Hajjah","NL_NAME_1":"حجه","county":"AlMiftah","VARNAME_2":"NA","NL_NAME_2":"المفتاح","TYPE_2":"Muderiah","ENGTYPE_2":"District","CC_2":"1716","HASC_2":"NA","name":"Al_Miftah.county"},
"geometry":{"type": "MultiPolygon","coordinates": [[[[43.5768,15.9579,823.0115],[43.5687,15.96,783.5583],[43.557,15.9748,1063.2625],[43.5271,15.9796,1084.1423],[43.4994,15.9907,1281.0784],[43.4696,15.9902,1789.7572],[43.4582,16.0002,1740.2219],[43.4559,16.0006,1575.7871],[43.446,15.9958,1469.3148],[43.4427,15.9894,1122.3933],[43.4433,15.985,1037.6575],[43.4554,15.9843,1475.1196],[43.4556,15.9702,1785.2601],[43.4595,15.9564,1683.647],[43.4629,15.951599999999999,1906.3507],[43.4718,15.9502,1764.0055],[43.4806,15.9513,1456.2922],[43.4851,15.9495,1442.1417],[43.489,15.9397,1402.9155],[43.4981,15.9296,1045.6069],[43.5061,15.9261,915.3723],[43.5176,15.9329,1412.7582],[43.525,15.9334,1414.2745],[43.5439,15.9253,1165.713],[43.5548,15.9233,1047.4137],[43.5623,15.9264,962.5157],[43.5633,15.9217,1052.6675],[43.5649,15.9214,1056.5173],[43.57,15.9253,803.886],[43.5733,15.9334,906.1637],[43.5836,15.9357,672.401],[43.5866,15.9385,794.1524],[43.5819,15.9419,685.0858],[43.5779,15.9494,701.5197],[43.5768,15.9579,823.0115]]]]}}