{"type":"Feature","properties":{"GID_2":"YEM.21.9_1","GID_0":"YEM","country":"Yemen","GID_1":"YEM.21_1","province":"Ta`izz","NL_NAME_1":"تعز","county":"AshShamayatayn","VARNAME_2":"NA","NL_NAME_2":"الشمايتين","TYPE_2":"Muderiah","ENGTYPE_2":"District","CC_2":"1515","HASC_2":"NA","name":"Ash_Shamayatayn.county"},
"geometry":{"type": "MultiPolygon","coordinates": [[[[43.993899999999996,13.0868,988.6041],[43.9945,13.088,1031.1802],[43.9877,13.0999,1167.2814],[43.9997,13.1325,990.9246],[44.0095,13.1263,860.3829],[44.0252,13.107,1046.2505],[44.0398,13.0955,939.056],[44.0505,13.0901,833.6265],[44.0724,13.0895,776.8694],[44.078,13.0906,900.3027],[44.0823,13.0948,994.8926],[44.0842,13.0992,909.3933],[44.0854,13.1044,934.643],[44.0824,13.1157,919.8854],[44.0818,13.1305,1230.2336],[44.0858,13.1567,1316.2021],[44.0923,13.162,1314.3092],[44.1025,13.1533,1485.3763],[44.1554,13.1514,975.1766],[44.1547,13.1599,1199.1675],[44.1318,13.1882,1494.2209],[44.1292,13.195,1565.623],[44.1296,13.1983,1369.8684],[44.1324,13.201,1299.0969],[44.138,13.2029,1297.2913],[44.1582,13.2046,2057.7097],[44.1621,13.2063,2056.8386],[44.1662,13.2044,1954.826],[44.17,13.2054,2071.6245],[44.1724,13.2099,2147.6094],[44.1656,13.2232,2126.2224],[44.1675,13.2261,2135.9041],[44.1649,13.231,2106.27],[44.1731,13.235,2168.6685],[44.1768,13.2338,2181.7349],[44.1777,13.235,2181.7349],[44.1774,13.2369,2132.7739],[44.1676,13.2363,2080.74],[44.1653,13.2376,2027.4622],[44.1649,13.2422,2007.585],[44.1711,13.2511,1517.9194],[44.1704,13.252,1711.2109],[44.163,13.2583,1479.325],[44.1585,13.2598,1546.4058],[44.145,13.2571,1579.7908],[44.1435,13.253,1681.705],[44.1361,13.2507,1914.4131],[44.1311,13.2504,1899.3306],[44.1172,13.2576,1379.7798],[44.1128,13.2567,1362.6829],[44.0992,13.2468,1402.8645],[44.0938,13.249,1282.2988],[44.0867,13.2465,1247.8906],[44.0854,13.2484,1241.6682],[44.083,13.2469,1278.2644],[44.0812,13.2487,1260.0819],[44.0702,13.2483,1252.3159],[44.0355,13.2569,1166.1328],[44.0125,13.2675,1076.4768],[44.0094,13.2705,1071.1309],[44.0052,13.2708,1065.8008],[44.0052,13.2742,1060.0597],[43.9964,13.2802,1052.5496],[43.9715,13.2864,1098.2637],[43.9661,13.2883,1018.6176],[43.9634,13.2913,998.308],[43.9576,13.2894,957.7525],[43.9519,13.2845,952.8981],[43.9447,13.2751,922.8647],[43.9363,13.2735,934.1889],[43.917,13.2745,1019.8209],[43.8964,13.2797,1101.4355],[43.8603,13.2851,1309.7526],[43.8459,13.2924,1512.2802],[43.8227,13.2949,1164.9615],[43.7823,13.2876,581.5543],[43.7904,13.279,670.6683],[43.8054,13.2553,643.1414],[43.8055,13.2422,767.564],[43.7977,13.222,751.4686],[43.8065,13.2028,734.5015],[43.8152,13.1943,959.6082],[43.8392,13.1945,1087.7852],[43.8587,13.1903,1100.5919],[43.8686,13.1795,1096.5564],[43.8744,13.1382,760.0873],[43.8722,13.1314,642.8254],[43.8644,13.1185,849.1657],[43.8704,13.1103,758.4988],[43.8912,13.0998,841.7765],[43.9372,13.0893,736.9307],[43.9757,13.0694,761.5994],[43.9896,13.0789,1092.5355],[43.993899999999996,13.0868,988.6041]]]]}}