{"type":"Feature","properties":{"GID_2":"YEM.5.5_1","GID_0":"YEM","country":"Yemen","GID_1":"YEM.5_1","province":"AlHudaydah","NL_NAME_1":"الحديده","county":"AlHali","VARNAME_2":"NA","NL_NAME_2":"الحالي","TYPE_2":"Muderiah","ENGTYPE_2":"District","CC_2":"1823","HASC_2":"NA","name":"Al_Hali.county"},
"geometry":{"type": "MultiPolygon","coordinates": [[[[42.9295,14.8252,0.4153],[42.9365,14.8196,0.0],[42.9357,14.8232,0.0],[42.9329,14.8257,0.0],[42.9304,14.8271,0.1755],[42.9295,14.8252,0.4153]]],
[[[43.0584,14.8279,36.9416],[43.0498,14.8359,36.4645],[43.0447,14.8382,35.2742],[43.0173,14.8474,25.2825],[42.9999,14.8497,19.8503],[42.9924,14.8587,14.7305],[42.9906,14.8664,18.505],[42.9916,14.8675,17.4276],[42.9852,14.871,11.4189],[42.9547,14.8608,5.9018],[42.9494,14.8647,1.1502],[42.949,14.8674,0.0],[42.9446,14.8637,0.0],[42.9429,14.864,0.0],[42.9404,14.8685,0.0],[42.9421,14.8749,0.0],[42.9393,14.8754,1.103],[42.9388,14.8771,0.0],[42.9368,14.8757,0.0],[42.9362,14.8799,0.0],[42.9338,14.8804,0.0],[42.9329,14.884,0.0],[42.9313,14.8846,0.0],[42.9321,14.8799,0.0],[42.9287,14.8782,0.0],[42.9282,14.8757,0.4701],[42.9296,14.8737,0.0],[42.934,14.8732,0.4836],[42.9379,14.8651,0.0],[42.9404,14.8651,0.1662],[42.9421,14.8626,0.2237],[42.9407,14.8546,0.0],[42.9417,14.8463,0.0],[42.9354,14.8407,0.2329],[42.9374,14.8363,1.3288],[42.9335,14.8337,0.0],[42.9324,14.8296,0.0],[42.9324,14.8268,0.0],[42.9365,14.8235,0.0],[42.9376,14.8207,0.0],[42.9346,14.8135,1.8655],[42.9348,14.8133,1.8655],[42.9431,14.8179,4.2111],[42.9502,14.8098,6.884],[42.956,14.81,7.8233],[42.9552,14.7998,10.6262],[42.9525,14.7991,7.6271],[42.9736,14.7789,13.253],[43.0561,14.7794,32.0828],[43.0593,14.7907,33.8238],[43.0735,14.7988,37.859],[43.0662,14.8162,38.267],[43.0584,14.8279,36.9416]]]]}}