{"type":"Feature","properties":{"GID_2":"YEM.21.3_1","GID_0":"YEM","country":"Yemen","GID_1":"YEM.21_1","province":"Ta`izz","NL_NAME_1":"تعز","county":"AlMawasit","VARNAME_2":"NA","NL_NAME_2":"المواسط","TYPE_2":"Muderiah","ENGTYPE_2":"District","CC_2":"1522","HASC_2":"NA","name":"Al_Mawasit.county"},
"geometry":{"type": "MultiPolygon","coordinates": [[[[44.1838,13.2421,1548.8784],[44.1871,13.2598,1244.5565],[44.2019,13.2676,1408.8268],[44.2184,13.2734,1150.5586],[44.2188,13.2882,1173.5344],[44.2174,13.294,1350.0253],[44.2126,13.2956,1277.9725],[44.2118,13.2988,1316.5981],[44.2029,13.3014,1277.8875],[44.2,13.3057,1359.8749],[44.1815,13.3149,1836.1931],[44.1749,13.3162,1689.3964],[44.1704,13.3196,1653.3285],[44.1654,13.3184,1711.5222],[44.1624,13.3247,1658.0897],[44.1596,13.3268,1596.6506],[44.1508,13.3273,1722.5662],[44.1502,13.331,1727.0754],[44.152,13.333,1603.5895],[44.1545,13.3323,1598.0159],[44.1587,13.3372,1493.469],[44.1546,13.3422,1616.4294],[44.1537,13.3479,1643.5476],[44.1394,13.3516,1689.605],[44.1309,13.3499,1740.0319],[44.1201,13.3511,1802.1741],[44.1178,13.3575,2054.7869],[44.1119,13.3618,2180.1162],[44.0967,13.3663,1883.1765],[44.0896,13.3615,1636.8456],[44.0786,13.3619,1447.1685],[44.0763,13.3599,1443.1052],[44.0754,13.3548,1497.8727],[44.0766,13.3445,1490.2698],[44.0742,13.3422,1516.5371],[44.0703,13.3412,1476.4618],[44.0656,13.3424,1432.4979],[44.0515,13.349,1269.9871],[44.0496,13.3485,1255.6064],[44.0456,13.3432,1226.9954],[44.0332,13.34,1275.4604],[44.0218,13.3328,1142.1934],[44.019,13.3332,1141.1383],[44.0181,13.329,1122.0454],[44.0057,13.3253,1136.2067],[43.9926,13.31,1084.9012],[43.9822,13.308,1095.1442],[43.9828,13.2842,1087.885],[43.9964,13.2802,1052.5496],[44.0052,13.2742,1060.0597],[44.0052,13.2708,1065.8008],[44.0094,13.2705,1071.1309],[44.0125,13.2675,1076.4768],[44.0355,13.2569,1166.1328],[44.0702,13.2483,1252.3159],[44.0812,13.2487,1260.0819],[44.083,13.2469,1278.2644],[44.0854,13.2484,1241.6682],[44.0867,13.2465,1247.8906],[44.0938,13.249,1282.2988],[44.0979,13.2467,1344.723],[44.1147,13.2575,1358.2883],[44.1192,13.257,1406.8341],[44.122,13.2543,1459.1632],[44.1312,13.2504,1899.3306],[44.1435,13.253,1681.705],[44.1442,13.256,1567.4172],[44.1468,13.2578,1569.2056],[44.1605,13.2596,1528.5404],[44.1704,13.252,1711.2109],[44.1753,13.2461,1623.4454],[44.1838,13.2421,1548.8784]]]]}}