{"type":"Feature","properties":{"GID_1":"YEM.5_1","GID_0":"YEM","country":"Yemen","province":"AlHudaydah","VARNAME_1":"AlHodeida|Al-Hodeidah|AlHudaid","NL_NAME_1":"الحديده","TYPE_1":"Muhafazah","ENGTYPE_1":"Governorate","CC_1":"18","HASC_1":"YE.HU","ISO_1":"YE-HU","name":"Al_Hudaydah.province"},
"geometry":{"type": "MultiPolygon","coordinates": [[[[42.729,13.6004,0.0],[42.7276,13.6026,0.0],[42.726,13.6026,0.0],[42.7268,13.6007,0.0],[42.729,13.6004,0.0]]],
[[[42.7426,13.6313,9.3054],[42.7401,13.6324,2.5876],[42.7371,13.6307,2.9822],[42.7357,13.6232,13.9504],[42.7329,13.6213,10.8356],[42.7318,13.6163,2.1003],[42.7276,13.6124,4.244],[42.7251,13.6121,2.8072],[42.7246,13.6101,34.7809],[42.7212,13.6101,0.0],[42.7218,13.6076,0.0],[42.7262,13.6032,0.0],[42.7346,13.6065,0.0],[42.741,13.6038,0.0],[42.7415,13.6074,0.0],[42.7399,13.6074,24.1249],[42.739,13.614,0.0],[42.7376,13.6135,16.5528],[42.7382,13.6201,20.7064],[42.7412,13.6257,0.0],[42.7479,13.6285,1.8767],[42.7468,13.6313,3.5674],[42.7426,13.6313,9.3054]]],
[[[42.749,13.6374,0.0],[42.749,13.6388,0.0],[42.746,13.6388,0.0],[42.7457,13.6351,0.0],[42.7482,13.6349,0.0],[42.749,13.6374,0.0]]],
[[[42.7543,13.6538,8.9602],[42.7518,13.6549,11.0895],[42.7487,13.6532,26.1803],[42.7438,13.6471,0.0],[42.7435,13.6435,0.0],[42.7468,13.6426,0.0],[42.7487,13.6446,0.0],[42.7513,13.6446,0.0],[42.7543,13.6485,0.0],[42.7543,13.6538,8.9602]]],
[[[42.7796,13.6343,0.0],[42.7782,13.6357,0.0],[42.7776,13.6326,0.0],[42.7788,13.6324,0.0],[42.7796,13.6343,0.0]]],
[[[42.781,13.6365,0.0],[42.7813,13.6382,0.0],[42.7801,13.6388,0.0],[42.779,13.6365,0.0],[42.781,13.6365,0.0]]],
[[[42.8035,13.6638,0.0],[42.8015,13.6654,1.7593],[42.8001,13.6629,1.3916],[42.8021,13.6621,0.0],[42.8035,13.6638,0.0]]],
[[[42.7935,13.714,48.7866],[42.7904,13.7154,18.4063],[42.7896,13.7132,0.0],[42.7901,13.706,0.0],[42.7918,13.7046,0.0],[42.7943,13.7049,0.0],[42.7965,13.7082,0.0],[42.7935,13.714,48.7866]]],
[[[42.8079,13.7168,51.6816],[42.8054,13.7174,6.2632],[42.804,13.7096,0.0],[42.8096,13.7068,0.0],[42.8121,13.7126,0.0],[42.8079,13.7168,51.6816]]],
[[[42.8401,13.7837,0.0],[42.8404,13.7857,0.0],[42.8374,13.7832,0.0264],[42.8338,13.784,0.0],[42.836,13.7821,1.0622],[42.8401,13.7837,0.0]]],
[[[42.7888,13.7907,0.0],[42.7863,13.7918,17.7922],[42.784,13.7876,69.7938],[42.7854,13.7815,0.0],[42.7885,13.7801,0.0],[42.7921,13.7829,0.0],[42.7912,13.7879,0.0],[42.7888,13.7907,0.0]]],
[[[42.8085,13.7901,0.0],[42.8079,13.7924,0.0],[42.8046,13.7915,0.1345],[42.8049,13.7893,0.0],[42.8071,13.7904,0.1317],[42.8065,13.7882,0.0],[42.8085,13.7901,0.0]]],
[[[42.7807,13.7812,40.9776],[42.779,13.7824,3.2489],[42.7776,13.7776,12.9552],[42.7715,13.7763,3.7143],[42.7721,13.7712,1.7276],[42.7682,13.7679,6.2414],[42.7551,13.7676,0.0],[42.746,13.7607,0.0],[42.7418,13.761,0.0],[42.7363,13.7582,6.7329],[42.7326,13.749,14.0366],[42.7268,13.746,0.538],[42.716,13.744,0.3244],[42.7113,13.7374,0.0],[42.7065,13.7343,0.0],[42.7049,13.7288,0.0],[42.706,13.7249,3.7478],[42.7029,13.7201,0.0],[42.7021,13.7154,0.3407],[42.7046,13.7079,6.8485],[42.7021,13.7026,0.0],[42.7021,13.6988,0.1809],[42.6943,13.6963,0.0],[42.6935,13.694,1.0058],[42.6881,13.693,0.0],[42.6876,13.6904,2.3632],[42.6843,13.689,0.0],[42.6818,13.684,0.2651],[42.6824,13.6807,0.2211],[42.6846,13.6788,1.529],[42.6832,13.6754,5.7694],[42.676,13.6779,1.7397],[42.6749,13.674,2.4804],[42.6685,13.6729,0.4715],[42.6662,13.6699,0.0],[42.6651,13.664,0.9694],[42.6685,13.6596,1.404],[42.6688,13.6551,0.0],[42.6707,13.6538,0.8119],[42.6732,13.6546,3.5991],[42.6726,13.6529,1.6966],[42.6754,13.6493,0.0],[42.6893,13.6563,0.0],[42.6926,13.656,5.4023],[42.6926,13.6529,0.0],[42.6946,13.6521,0.4353],[42.6957,13.6579,6.521],[42.694,13.6626,4.7158],[42.6963,13.6618,0.0],[42.7007,13.6654,0.0],[42.7018,13.6696,0.9018],[42.7074,13.6704,0.0],[42.7107,13.6776,12.4901],[42.7196,13.6804,0.979],[42.7324,13.6774,0.0],[42.7349,13.6801,0.0],[42.7379,13.6804,0.0],[42.739,13.6851,0.5754],[42.7429,13.6876,0.0],[42.7429,13.6912,0.0],[42.7449,13.6926,0.0],[42.744,13.6946,2.5319],[42.7504,13.7013,0.0],[42.751,13.7051,0.0],[42.756,13.7082,0.0],[42.7551,13.7143,1.7506],[42.7576,13.7174,1.9166],[42.7565,13.7224,11.4296],[42.7618,13.7254,0.0],[42.7654,13.7246,0.0],[42.7665,13.7263,2.8073],[42.7657,13.7301,2.9407],[42.7687,13.7312,0.7104],[42.7701,13.7343,2.2096],[42.7768,13.7315,0.0],[42.7785,13.7324,0.0],[42.7743,13.7438,2.8688],[42.7749,13.7476,2.4934],[42.7774,13.7499,0.0],[42.7768,13.7604,0.0],[42.7785,13.7621,1.8638],[42.7815,13.7621,0.0],[42.7865,13.7696,0.0],[42.7835,13.774,21.3884],[42.7835,13.7799,3.02],[42.781,13.7796,63.2116],[42.7807,13.7812,40.9776]]],
[[[42.756,13.7749,0.0],[42.7565,13.776,5.0867],[42.7546,13.7754,0.0],[42.754,13.774,0.0],[42.7549,13.774,0.0],[42.7549,13.7749,0.0],[42.756,13.7749,0.0]]],
[[[42.7135,13.8799,0.0],[42.714,13.879,0.0],[42.7154,13.8807,0.8499],[42.7146,13.8799,0.0],[42.7135,13.8799,0.0]]],
[[[42.7146,13.8854,4.9144],[42.7101,13.8851,0.0],[42.7096,13.8813,0.0],[42.711,13.8849,0.0],[42.7154,13.8832,0.0],[42.7146,13.8854,4.9144]]],
[[[42.5765,13.4499,0.0],[42.5762,13.4518,0.0],[42.5732,13.4504,0.0],[42.5735,13.4496,0.0],[42.5765,13.4499,0.0]]],
[[[42.611,13.5254,0.0],[42.6082,13.5263,3.6051],[42.6079,13.5235,0.0],[42.6096,13.5226,0.0],[42.611,13.5254,0.0]]],
[[[42.6199,13.5354,0.0],[42.6185,13.5365,0.0],[42.6176,13.5357,0.0],[42.6185,13.534,0.0],[42.6199,13.5354,0.0]]],
[[[42.5718,15.1782,1.0057],[42.5704,15.1804,0.0],[42.5671,15.1776,0.0],[42.5668,15.1751,0.3908],[42.5693,15.1721,0.5446],[42.5738,15.174,0.0],[42.5738,15.1765,0.0],[42.5718,15.1782,1.0057]]],
[[[42.1596,15.0304,12.5484],[42.1585,15.0315,1.251],[42.1543,15.0307,0.6346],[42.1518,15.0282,0.0],[42.1496,15.0204,0.0],[42.1529,15.0151,0.0],[42.1574,15.0168,0.0],[42.1576,15.0099,0.0],[42.1613,15.011,0.0],[42.1635,15.009,0.0],[42.1626,15.0129,16.7927],[42.1651,15.0126,0.0],[42.1671,15.0143,0.0],[42.1679,15.0251,2.3962],[42.1632,15.0304,0.4656],[42.1596,15.0304,12.5484]]],
[[[42.1807,15.0787,3.8593],[42.1754,15.0799,0.0],[42.1699,15.0746,0.0],[42.1699,15.0696,1.3621],[42.166,15.0693,0.0],[42.1632,15.0657,0.0],[42.1601,15.0668,0.4435],[42.1624,15.064,6.7039],[42.1601,15.061,2.1925],[42.161,15.0582,0.0],[42.1626,15.0576,6.5535],[42.1638,15.0518,0.0],[42.1657,15.0518,0.0],[42.1649,15.0493,1.7831],[42.1668,15.0421,1.3595],[42.169,15.0401,0.0],[42.1688,15.0379,0.0],[42.171,15.0376,15.5675],[42.1721,15.0335,0.0],[42.1749,15.0335,0.0],[42.1754,15.0279,0.0],[42.1776,15.0276,0.0],[42.184,15.0301,0.0],[42.1843,15.0326,9.7835],[42.1868,15.0335,0.9214],[42.1885,15.0374,12.3197],[42.1937,15.0404,0.0],[42.1963,15.0465,0.0],[42.1951,15.0521,0.0],[42.1935,15.0515,2.5093],[42.1915,15.056,0.0],[42.1932,15.0621,0.0],[42.1907,15.0624,5.59],[42.1937,15.0676,0.0],[42.1899,15.0726,0.0],[42.1879,15.0726,6.4209],[42.1862,15.0774,0.0],[42.1807,15.0787,3.8593]]],
[[[42.1415,15.0701,0.0],[42.1401,15.071,0.0],[42.1407,15.0682,21.4435],[42.1376,15.0646,0.0],[42.1387,15.0624,0.0],[42.1454,15.0657,2.7285],[42.1454,15.0699,3.2841],[42.1415,15.0701,0.0]]],
[[[42.1579,15.0885,38.7023],[42.1563,15.0901,1.1973],[42.1482,15.0851,4.6988],[42.1465,15.086,1.8079],[42.1454,15.0835,0.4692],[42.1465,15.0787,0.0],[42.1512,15.0782,0.0],[42.1574,15.0807,3.2988],[42.1593,15.0851,12.1772],[42.1579,15.0885,38.7023]]],
[[[42.1076,15.1085,0.0],[42.1071,15.1113,0.0],[42.1037,15.111,0.0],[42.1043,15.1085,0.0],[42.1051,15.1104,0.0],[42.1076,15.1085,0.0]]],
[[[42.1096,15.1243,0.0],[42.1063,15.1254,0.0],[42.1032,15.1221,2.6467],[42.0979,15.1229,0.0],[42.0968,15.1218,0.0],[42.1013,15.1196,0.0],[42.1029,15.1171,4.4369],[42.1013,15.1154,0.0],[42.1032,15.1149,0.0],[42.1068,15.1157,0.0],[42.1113,15.1193,0.0],[42.1096,15.1243,0.0]]],
[[[42.0968,15.1246,0.0],[42.0974,15.1268,0.0],[42.0943,15.1251,0.0],[42.0951,15.124,0.0],[42.0968,15.1246,0.0]]],
[[[42.1165,15.1324,79.2033],[42.1165,15.134,12.4798],[42.1149,15.1343,12.4798],[42.1121,15.1301,3.6015],[42.1165,15.1296,17.4745],[42.1165,15.1324,79.2033]]],
[[[42.1057,15.1499,17.4682],[42.1037,15.1513,2.1145],[42.1015,15.149,0.0],[42.1046,15.1385,0.0],[42.1087,15.1418,0.0],[42.1079,15.1476,10.7905],[42.1057,15.1499,17.4682]]],
[[[42.1146,15.176,8.5902],[42.1099,15.1765,20.5001],[42.1079,15.1735,0.0],[42.1124,15.1701,0.0],[42.1182,15.1696,4.8315],[42.1188,15.1715,5.4337],[42.1146,15.176,8.5902]]],
[[[42.3718,15.5332,7.8539],[42.3662,15.5346,1.1114],[42.3618,15.5324,0.6325],[42.3587,15.5329,0.3358],[42.3585,15.5313,0.8538],[42.3607,15.5276,0.3612],[42.3685,15.5224,2.3227],[42.3685,15.5168,0.0],[42.371,15.5096,0.0],[42.3765,15.5035,4.2055],[42.3782,15.4918,0.6543],[42.3926,15.4774,3.5844],[42.4029,15.4704,0.0],[42.4093,15.4685,0.0],[42.4118,15.4707,0.0],[42.411,15.4757,1.8425],[42.3999,15.484,0.0],[42.3929,15.4871,0.0],[42.3907,15.4907,0.0],[42.3854,15.4926,2.0047],[42.3785,15.5001,1.5228],[42.3785,15.5101,0.0],[42.3743,15.5238,0.4317],[42.3796,15.5268,0.0],[42.3799,15.5301,2.1026],[42.3793,15.5318,0.0],[42.3757,15.5307,0.204],[42.3718,15.5332,7.8539]]],
[[[42.3821,15.5104,0.0],[42.381,15.5129,0.0],[42.3835,15.5057,0.0],[42.3838,15.5063,0.0],[42.3821,15.5104,0.0]]],
[[[42.8171,13.8596,0.0],[42.8176,13.8621,0.0],[42.8163,13.8618,0.0],[42.8143,13.8571,0.0],[42.8146,13.8532,0.0],[42.8163,13.8557,5.812],[42.8171,13.8596,0.0]]],
[[[42.8104,13.8774,0.0],[42.8065,13.8785,19.7631],[42.8049,13.8763,11.2503],[42.8004,13.8754,2.1001],[42.7988,13.8771,0.0],[42.7949,13.8774,0.1859],[42.7868,13.8682,32.7935],[42.7796,13.8635,10.0434],[42.7726,13.8513,0.0],[42.7762,13.8465,37.6008],[42.7749,13.8437,0.0],[42.776,13.839,0.0],[42.7793,13.8415,2.6234],[42.7807,13.8401,0.0],[42.7824,13.8413,1.3958],[42.7826,13.8399,0.0],[42.7868,13.846,4.371],[42.7899,13.8443,0.0],[42.7946,13.8463,0.0],[42.7971,13.8526,8.8295],[42.8007,13.854,0.0],[42.801,13.8588,20.6057],[42.8035,13.8599,0.0],[42.8035,13.8629,6.5636],[42.806,13.8651,1.2281],[42.806,13.8693,26.634],[42.8093,13.8726,3.73],[42.8104,13.8774,0.0]]],
[[[42.8229,13.8799,0.0],[42.8226,13.8821,0.0],[42.8171,13.8707,1.494],[42.819,13.8668,0.7522],[42.8185,13.864,0.0],[42.8196,13.8643,0.0],[42.8201,13.8674,0.0],[42.8226,13.8693,2.6463],[42.8213,13.8757,0.6392],[42.8229,13.8799,0.0]]],
[[[42.8126,13.8804,0.0],[42.8126,13.8815,0.0],[42.8104,13.8813,0.3625],[42.8115,13.8796,0.0],[42.8126,13.8804,0.0]]],
[[[42.7154,13.9401,0.0],[42.7163,13.9415,0.0],[42.7163,13.9429,0.0],[42.714,13.9396,0.0],[42.7154,13.9401,0.0]]],
[[[42.7196,13.9571,0.0],[42.716,13.9585,2.8944],[42.7143,13.9565,17.6012],[42.7149,13.9524,41.2915],[42.711,13.9468,0.0],[42.7115,13.9418,0.0],[42.7126,13.9446,13.3656],[42.7157,13.9443,0.0],[42.7154,13.9499,4.6105],[42.719,13.9532,0.0],[42.7196,13.9571,0.0]]],
[[[42.6971,13.9587,0.0],[42.6943,13.9601,1.4955],[42.6937,13.9563,0.0],[42.6965,13.9571,0.0],[42.6976,13.954,0.0],[42.6963,13.9535,0.0],[42.6976,13.9529,0.0],[42.699,13.9549,0.0],[42.6971,13.9587,0.0]]],
[[[42.7632,14.0715,0.0],[42.761,14.0726,0.0],[42.7585,14.0715,0.0],[42.7571,14.0676,0.0],[42.754,14.0696,0.3337],[42.7487,14.0682,2.0411],[42.7443,14.0649,0.0],[42.7443,14.0615,1.1891],[42.7396,14.0593,0.0],[42.7349,14.0593,0.0],[42.7321,14.0626,0.0],[42.7324,14.0601,0.0],[42.7262,14.0565,0.4668],[42.7218,14.0504,0.2438],[42.7171,14.0485,0.2021],[42.7157,14.046,1.2467],[42.7118,14.046,0.0],[42.7057,14.0418,0.0],[42.7035,14.0376,0.0],[42.7035,14.0338,0.0],[42.7021,14.0318,0.0],[42.701,14.0329,0.0],[42.6996,14.0288,0.0],[42.704,14.0296,0.0],[42.7076,14.0413,0.0],[42.7118,14.0426,0.3629],[42.7121,14.0413,0.0],[42.7076,14.0326,0.7674],[42.706,14.0324,0.0],[42.7043,14.0265,0.0],[42.6993,14.0249,0.0],[42.6996,14.0282,0.0],[42.696,14.0293,0.0],[42.6932,14.0265,0.0],[42.6926,14.0221,0.0],[42.6899,14.0176,0.0],[42.6796,14.0104,5.7766],[42.6757,14.0043,0.0],[42.6862,14.0026,0.566],[42.6876,13.9985,0.0],[42.6862,13.9976,0.0],[42.6871,13.9921,0.3161],[42.6854,13.9904,0.0],[42.6857,13.9874,0.0],[42.6871,13.9868,0.0],[42.6899,13.9893,1.1453],[42.6915,13.9879,0.4104],[42.6951,13.9888,4.2892],[42.7121,13.9796,1.8369],[42.7149,13.9746,7.2024],[42.7129,13.9707,0.0],[42.7135,13.9632,0.0],[42.7168,13.9596,0.0],[42.7176,13.9632,14.8038],[42.7243,13.9643,1.6657],[42.726,13.9626,17.0963],[42.7249,13.9576,1.6357],[42.7282,13.9571,10.5319],[42.7279,13.9532,0.0],[42.736,13.9535,0.0],[42.7385,13.951,1.3865],[42.7399,13.9526,9.8641],[42.7429,13.9518,0.0],[42.7457,13.9538,4.791],[42.7479,13.9526,0.0],[42.7546,13.9535,0.6769],[42.7601,13.951,0.2749],[42.7618,13.9463,1.4846],[42.7532,13.9393,4.2679],[42.7518,13.9351,32.7243],[42.7485,13.9324,0.0],[42.7465,13.9224,0.0],[42.7487,13.9218,28.1729],[42.7487,13.9187,8.8419],[42.7463,13.9113,0.0],[42.7504,13.9071,4.4001],[42.756,13.9107,6.1679],[42.754,13.9151,2.3665],[42.7518,13.9157,0.0],[42.7526,13.9176,1.788],[42.759,13.9179,0.0],[42.7588,13.9213,17.5956],[42.7607,13.9232,3.8259],[42.769,13.9249,0.3415],[42.7715,13.9238,0.4731],[42.7718,13.9215,0.5807],[42.7671,13.909,0.0],[42.7701,13.9063,0.4481],[42.7768,13.9051,0.0],[42.779,13.9071,27.3716],[42.7813,13.906,0.0],[42.7832,13.9099,3.0637],[42.7876,13.9135,2.8953],[42.7826,13.9168,0.9886],[42.7793,13.9251,1.3973],[42.7751,13.9257,0.7479],[42.7743,13.9279,2.1385],[42.784,13.9382,0.0],[42.7843,13.9482,0.0],[42.7793,13.9551,3.5656],[42.7818,13.9671,0.0],[42.7796,13.9738,0.2574],[42.7826,13.9771,1.2618],[42.7824,13.981,3.1643],[42.7854,13.9826,1.2989],[42.7904,13.9893,0.3446],[42.7879,13.9963,0.0],[42.7893,14.0029,0.3758],[42.7879,14.0124,2.0591],[42.7896,14.0165,1.5627],[42.7879,14.0204,0.0],[42.7888,14.0221,1.9287],[42.7912,14.0213,0.4564],[42.7949,14.0296,0.0],[42.7882,14.0304,3.8964],[42.7863,14.0371,0.0],[42.7876,14.0401,2.509],[42.7868,14.0438,0.0],[42.7807,14.049,2.5129],[42.7788,14.0529,0.0],[42.7715,14.0551,13.9105],[42.7704,14.0596,3.0044],[42.7671,14.0607,8.7278],[42.7651,14.0635,0.5939],[42.7651,14.0688,0.0],[42.7632,14.0715,0.0]]],
[[[42.8174,13.8896,0.9552],[42.8163,13.8879,0.0],[42.8163,13.8865,0.0],[42.8182,13.8912,0.0],[42.8174,13.8896,0.9552]]],
[[[42.8171,14.0782,5.2928],[42.8149,14.0796,3.8988],[42.8129,14.0763,1.3764],[42.8168,14.0751,0.0],[42.8171,14.0782,5.2928]]],
[[[42.8218,14.0824,0.0],[42.8185,14.0824,0.0],[42.8179,14.081,0.0],[42.8224,14.076,1.4851],[42.8232,14.0821,0.0],[42.8218,14.0824,0.0]]],
[[[42.9287,14.8246,0.4153],[42.9329,14.8238,0.0],[42.9351,14.8196,0.0],[42.9365,14.8196,0.0],[42.9357,14.8232,0.0],[42.9304,14.8271,0.1755],[42.9301,14.8321,0.0],[42.9215,14.8388,0.2069],[42.9235,14.8426,0.0],[42.9301,14.8474,0.0],[42.9332,14.8518,0.0],[42.9321,14.8518,0.0],[42.9293,14.8501,0.0],[42.924,14.8451,0.0],[42.921,14.8449,0.3484],[42.9171,14.8471,0.0],[42.9157,14.8524,0.0],[42.9124,14.8549,0.1275],[42.9126,14.8579,0.1687],[42.9149,14.8588,0.0],[42.9132,14.8632,0.0],[42.9157,14.8682,0.0],[42.924,14.8699,0.0],[42.9249,14.874,1.3459],[42.9235,14.8768,0.0],[42.9085,14.8699,0.2478],[42.9001,14.8721,0.0],[42.8999,14.8676,0.0],[42.8954,14.8657,0.0],[42.9068,14.8679,0.0],[42.9085,14.8671,0.5831],[42.9046,14.8568,0.0],[42.9051,14.8529,0.5459],[42.9021,14.8501,0.4338],[42.9012,14.8465,1.678],[42.8937,14.8485,1.3685],[42.8915,14.8651,0.0],[42.8846,14.8729,0.0],[42.8854,14.8779,0.0],[42.8871,14.879,0.0],[42.8849,14.8832,0.0],[42.8885,14.8835,0.0],[42.8851,14.8893,0.0],[42.8865,14.8954,0.0],[42.8996,14.8971,0.0],[42.8982,14.9001,0.0],[42.9024,14.9001,0.0],[42.9024,14.9015,0.0],[42.8882,14.9018,0.0],[42.889,14.9038,0.0],[42.8868,14.9049,0.0],[42.8879,14.9065,0.0],[42.8796,14.9115,0.5784],[42.8821,14.9146,0.3101],[42.8871,14.9149,2.2007],[42.8882,14.9163,1.215],[42.891,14.9154,0.0],[42.891,14.9129,0.0],[42.8926,14.9129,0.0],[42.8926,14.9174,0.0],[42.8821,14.9154,0.3101],[42.879,14.9193,0.271],[42.8829,14.9193,0.0],[42.8824,14.9221,0.0],[42.8757,14.9238,0.0],[42.8701,14.9149,1.0929],[42.8688,14.8988,0.0],[42.8704,14.8882,0.4911],[42.8779,14.8749,0.9672],[42.8793,14.8599,0.0],[42.8821,14.8543,0.0],[42.8849,14.8546,0.7283],[42.8863,14.8513,0.0],[42.9143,14.8285,0.0],[42.9182,14.8279,1.2064],[42.9185,14.8235,0.5003],[42.921,14.8213,1.4574],[42.921,14.811,0.0],[42.931,14.8054,0.7838],[42.9407,14.796,2.2902],[42.9407,14.7901,0.0],[42.9457,14.7857,1.1125],[42.944,14.7843,0.0],[42.9468,14.7837,0.9079],[42.9446,14.7813,0.0],[42.949,14.7774,3.2451],[42.9538,14.7563,0.0],[42.951,14.7504,0.0],[42.9476,14.7479,0.0],[42.9465,14.744,0.0],[42.9471,14.7371,0.0],[42.9454,14.7351,0.0],[42.9493,14.7274,0.0],[42.9479,14.7199,0.0],[42.954,14.7065,0.0],[42.9554,14.7071,0.3677],[42.9565,14.7026,0.0],[42.9626,14.6974,1.1027],[42.9671,14.6893,0.4753],[42.9668,14.6826,0.2234],[42.9649,14.6812,0.0],[42.9654,14.6765,0.0],[42.9726,14.674,0.2091],[42.9746,14.6701,0.0],[42.9826,14.6635,0.0],[42.9846,14.6593,0.2284],[42.984,14.6487,0.6849],[42.981,14.6363,0.0],[42.9824,14.6271,0.0],[42.9868,14.6163,0.2174],[42.9865,14.6126,0.0],[42.9907,14.6088,0.2094],[42.991,14.6029,0.0],[42.9896,14.6032,0.0],[42.9893,14.5999,0.0],[42.9924,14.5938,0.0],[42.991,14.5938,0.0],[42.9901,14.591,0.0],[42.9968,14.5821,0.0],[42.9946,14.5801,0.0],[42.9974,14.5763,0.0],[43.0004,14.5754,0.0],[43.0024,14.5715,0.0],[43.0004,14.566,0.0],[42.9971,14.5626,0.0],[42.9879,14.5643,0.0],[42.9874,14.5612,0.0],[42.9896,14.5579,0.0],[43.0021,14.5554,0.0],[43.0049,14.5474,0.0],[43.0096,14.5468,0.0],[43.0121,14.5449,0.8112],[43.0143,14.5363,0.0],[43.0132,14.5304,0.0],[43.0085,14.5232,0.0],[43.0065,14.521,0.0],[43.0018,14.5204,0.2309],[43.0015,14.5179,0.0],[43.0035,14.5182,0.0],[43.0065,14.5146,0.0],[43.0082,14.506,0.0],[42.9968,14.4943,0.0],[43.0035,14.4954,0.0],[43.0099,14.4935,0.0],[43.0143,14.4901,3.4461],[43.0149,14.4865,1.7789],[43.0099,14.4785,0.0],[43.0029,14.4788,0.0],[43.0051,14.4735,0.0],[43.0004,14.4796,0.0],[42.9949,14.4771,0.0],[42.9946,14.4749,0.0],[42.9957,14.4735,0.0],[43.0013,14.4757,0.0],[43.0062,14.4713,0.0],[43.009,14.4718,0.0],[43.0132,14.4643,0.0],[43.0185,14.4626,5.9871],[43.0196,14.459,0.0],[43.0176,14.4471,0.0],[43.0135,14.4449,0.0],[43.0171,14.4421,3.1405],[43.0176,14.4371,0.0],[43.0137,14.436,0.0],[43.0104,14.4374,0.0],[43.0082,14.4421,0.0],[43.0082,14.4476,0.0],[43.0054,14.4504,0.2549],[43.0026,14.4693,0.0],[42.994,14.4715,0.6424],[42.9924,14.4763,0.0],[42.989,14.479,0.0],[42.9899,14.4812,0.0],[42.9879,14.484,0.0],[42.9901,14.4893,0.0],[42.9738,14.4899,0.455],[42.9738,14.4963,0.0],[42.9724,14.4963,0.5905],[42.9696,14.5018,0.2815],[42.9701,14.5251,0.0],[42.9682,14.5246,0.7749],[42.9665,14.5293,0.7762],[42.9701,14.5324,0.0],[42.9593,14.5329,0.333],[42.9596,14.5349,0.4139],[42.9524,14.5374,0.0],[42.9499,14.5421,0.0],[42.9499,14.5582,0.0],[42.9518,14.5621,0.0],[42.9471,14.566,0.0],[42.9529,14.5754,0.0],[42.9479,14.5715,0.0],[42.9468,14.5674,0.3821],[42.944,14.5671,0.7976],[42.941,14.5588,0.0],[42.9432,14.5418,0.0],[42.9435,14.5404,0.0],[42.9601,14.5307,0.0],[42.964,14.526,1.005],[42.9679,14.514,0.842],[42.9668,14.5074,0.0],[42.971,14.4988,0.0],[42.9704,14.496,0.1679],[42.9732,14.4882,0.8253],[42.9729,14.4821,0.7722],[42.984,14.4646,0.7438],[42.9843,14.4496,0.0],[42.9921,14.4379,1.138],[42.9921,14.4307,0.0],[42.9965,14.4174,1.0795],[42.9957,14.411,0.6109],[42.9974,14.3976,0.0],[43.0004,14.3949,0.8611],[43.0007,14.3924,0.266],[43.0163,14.3704,1.4785],[43.0229,14.3582,3.5811],[43.0329,14.3315,15.4708],[43.0343,14.3115,0.0],[43.0365,14.3038,0.2191],[43.0354,14.2979,0.4926],[43.0426,14.2857,0.8056],[43.0465,14.2732,0.0],[43.0568,14.251,0.0],[43.0668,14.2382,2.3477],[43.0707,14.2301,0.6902],[43.0765,14.2026,4.4808],[43.0754,14.196,0.4295],[43.0765,14.1815,2.0288],[43.0785,14.174,0.1037],[43.0876,14.1554,0.0],[43.0896,14.1421,0.0],[43.0885,14.1251,0.0],[43.0921,14.1149,0.0],[43.1085,14.0882,0.0],[43.1063,14.0746,0.1081],[43.0974,14.0635,0.1215],[43.1071,14.0599,1.6098],[43.1132,14.0557,1.7238],[43.1221,14.0426,1.3811],[43.1237,14.0326,0.7293],[43.1271,14.0268,0.0],[43.1454,14.009,3.3724],[43.1468,14.0057,2.9788],[43.1457,13.9865,0.2028],[43.1543,13.9765,1.8101],[43.1576,13.9699,0.457],[43.1599,13.9535,0.0],[43.1693,13.9482,0.6089],[43.1707,13.9446,3.5131],[43.1899,13.9335,2.3732],[43.201,13.9179,0.5735],[43.1988,13.9132,0.3544],[43.2004,13.911,2.6511],[43.2001,13.9057,1.3767],[43.2129,13.9007,2.9035],[43.2218,13.8951,0.0],[43.2313,13.8863,0.8257],[43.2343,13.8804,13.7563],[43.2354,13.8715,5.5436],[43.2321,13.8624,0.0],[43.2321,13.8576,0.0],[43.229,13.8535,0.6464],[43.2354,13.8385,2.2886],[43.2351,13.8263,0.3612],[43.2335,13.8265,0.3984],[43.2349,13.8318,2.2072],[43.2321,13.834,0.6204],[43.2321,13.8401,0.8106],[43.2296,13.8346,0.0],[43.2315,13.8304,0.0],[43.2321,13.8226,0.0],[43.2357,13.8193,1.6889],[43.2396,13.8063,0.0],[43.2446,13.8004,4.1212],[43.2476,13.7838,0.0],[43.2646,13.7463,0.0],[43.2665,13.736,0.0],[43.2751,13.7224,0.4345],[43.2751,13.7138,0.0],[43.2804,13.7065,1.2392],[43.2837,13.6985,2.322],[43.2874,13.6788,0.0],[43.3385,13.6974,26.7323],[43.4058,13.717,66.2584],[43.423,13.7402,81.6056],[43.4173,13.7677,73.1616],[43.4367,13.797,100.2806],[43.4767,13.7934,182.2576],[43.4783,13.7965,191.4496],[43.4798,13.805,207.0163],[43.4687,13.8202,171.1491],[43.4694,13.8325,234.9044],[43.4819,13.8533,180.9673],[43.484,13.8825,199.4178],[43.4879,13.8871,207.1953],[43.5115,13.8934,229.5102],[43.5272,13.8943,253.0553],[43.5334,13.8974,254.1258],[43.5491,13.899,281.562],[43.5562,13.8952,291.7279],[43.5719,13.8968,298.0885],[43.6009,13.9062,341.8627],[43.61,13.9147,361.2051],[43.6548,13.9144,431.5217],[43.6605,13.9209,477.1857],[43.6775,13.9185,516.2129],[43.6859,13.9149,719.2897],[43.6887,13.9104,695.3058],[43.6966,13.9086,1056.4235],[43.7081,13.92,799.9075],[43.709,13.9263,827.5877],[43.7062,13.9295,784.1445],[43.6825,13.9339,664.5302],[43.6709,13.9425,542.2317],[43.6517,13.9677,410.2281],[43.6525,13.9804,419.4443],[43.6548,13.9877,433.59],[43.6608,13.9986,561.9329],[43.6643,14.0015,607.7384],[43.6788,14.0055,560.2578],[43.6886,14.0037,558.9679],[43.7038,13.9808,596.1937],[43.705,13.9775,597.173],[43.7042,13.9594,641.0315],[43.7051,13.9567,644.4601],[43.7088,13.9558,635.2369],[43.7125,13.959,649.4777],[43.7153,13.9676,631.2817],[43.7227,13.9708,644.6349],[43.7257,13.9741,744.1818],[43.7231,13.9807,736.077],[43.7246,13.9909,701.0323],[43.7317,14.0209,674.2961],[43.736,14.0309,629.9149],[43.7449,14.0429,594.4178],[43.7537,14.0503,628.5629],[43.7687,14.0481,701.231],[43.7733,14.0499,719.7607],[43.777,14.0572,644.771],[43.7741,14.0703,675.9906],[43.7564,14.0911,648.7387],[43.7526,14.1001,621.0996],[43.7478,14.1028,669.0457],[43.7198,14.0753,791.2691],[43.7054,14.0682,592.5052],[43.6929,14.0663,781.7168],[43.6732,14.0679,515.8866],[43.6435,14.0914,504.325],[43.6286,14.1058,479.4872],[43.602,14.1242,407.5034],[43.5904,14.1292,396.0122],[43.5523,14.1285,353.4406],[43.5429,14.1297,344.8919],[43.5188,14.1614,382.7195],[43.504,14.1745,378.6886],[43.5007,14.184,447.3002],[43.5005,14.1904,464.4528],[43.515,14.1986,621.9872],[43.5266,14.2074,404.1653],[43.5298,14.2113,341.1775],[43.532,14.219,374.3931],[43.5261,14.243,426.0321],[43.5164,14.2555,620.8745],[43.5117,14.279,276.7327],[43.5072,14.2918,278.7284],[43.5035,14.2955,257.6082],[43.5012,14.3025,256.1892],[43.4853,14.3284,361.0364],[43.4796,14.3408,306.3543],[43.4763,14.3587,293.5529],[43.4758,14.3759,282.98],[43.5181,14.379,347.8483],[43.5347,14.3776,368.1549],[43.5416,14.4002,520.972],[43.5468,14.4269,437.9064],[43.5453,14.4489,378.203],[43.5394,14.4691,472.6817],[43.5337,14.4802,404.7904],[43.5247,14.5151,420.0401],[43.5109,14.5528,337.4427],[43.5076,14.5781,342.1798],[43.5093,14.5935,318.9213],[43.5006,14.5927,319.2236],[43.4932,14.5985,293.8174],[43.4785,14.6193,262.1334],[43.4763,14.6253,253.4332],[43.4772,14.646,271.1772],[43.4694,14.6905,294.4004],[43.4705,14.6943,294.035],[43.4744,14.7012,301.4901],[43.4819,14.7082,415.3858],[43.4888,14.7144,582.7191],[43.5024,14.7202,429.7322],[43.5075,14.7274,374.4528],[43.489,14.762,348.0858],[43.4739,14.8089,341.1047],[43.4684,14.8159,339.244],[43.4708,14.8259,441.0358],[43.4799,14.8334,638.1653],[43.4874,14.8438,532.9173],[43.5039,14.8809,1212.7175],[43.5153,14.8855,1068.6433],[43.5379,14.8876,706.4249],[43.5517,14.9003,637.9524],[43.5646,14.9064,600.0964],[43.5679,14.9135,579.2633],[43.5713,14.9321,541.2296],[43.57,14.949,496.4912],[43.5846,14.9464,549.6703],[43.599,14.9414,600.9141],[43.607,14.9356,668.8032],[43.6185,14.9316,598.5975],[43.6307,14.9341,627.2678],[43.6394,14.9403,634.7806],[43.655,14.9597,727.3396],[43.6657,14.9674,748.1454],[43.6666,14.971,706.5392],[43.6645,14.9751,751.442],[43.6541,14.9784,847.3015],[43.6488,14.9837,702.193],[43.6428,15.0098,740.2796],[43.6335,15.0104,835.6367],[43.6297,15.0064,972.941],[43.6294,15.0024,786.1823],[43.6245,14.9951,710.7072],[43.6124,14.9899,603.7115],[43.5942,14.9979,569.2372],[43.5743,15.0004,531.6622],[43.5666,15.0113,523.402],[43.5506,15.0166,493.3964],[43.5371,15.0168,483.0764],[43.531,15.0189,473.4702],[43.5169,15.0319,458.0089],[43.513,15.0383,460.3082],[43.5115,15.049,479.257],[43.4962,15.0501,580.3832],[43.49,15.0567,468.1031],[43.452,15.0824,367.9212],[43.4391,15.0969,351.8922],[43.4327,15.1124,361.1545],[43.4291,15.133,382.2388],[43.4208,15.1516,408.145],[43.4106,15.1657,452.1465],[43.3984,15.177,554.5917],[43.3851,15.1934,311.5923],[43.3629,15.194,349.103],[43.3594,15.1961,398.8278],[43.359,15.22,358.2936],[43.3478,15.2194,320.4726],[43.3344,15.2229,337.8188],[43.3276,15.2339,328.3498],[43.322,15.2361,357.5576],[43.3097,15.236,347.9742],[43.3038,15.2482,507.1321],[43.2794,15.2786,253.5525],[43.2729,15.2941,207.8148],[43.2583,15.3013,178.7296],[43.2512,15.3231,176.7332],[43.245,15.3268,178.2941],[43.2417,15.3393,184.0224],[43.2435,15.3459,183.8062],[43.2429,15.354,176.8021],[43.2529,15.3606,184.3672],[43.2511,15.3722,157.4076],[43.2539,15.3885,160.7963],[43.2571,15.3912,172.8545],[43.2507,15.4117,176.9711],[43.2608,15.4474,224.8927],[43.2602,15.4493,224.626],[43.2577,15.4499,216.234],[43.2494,15.4482,205.1239],[43.251,15.451599999999999,211.1356],[43.2504,15.4608,230.4296],[43.2435,15.4628,212.5578],[43.241,15.4658,226.2578],[43.241,15.508,195.0892],[43.2233,15.5133,147.7805],[43.2236,15.539,189.4986],[43.2279,15.5703,319.4662],[43.2245,15.5902,241.9814],[43.2225,15.6204,183.7704],[43.2386,15.6812,186.4907],[43.2365,15.6862,185.156],[43.2245,15.6986,173.174],[43.2148,15.712,171.6916],[43.2139,15.7248,166.6545],[43.2238,15.7433,174.8739],[43.2355,15.7579,182.8202],[43.2397,15.7666,222.4087],[43.245,15.8193,213.7286],[43.2431,15.8692,217.8885],[43.2391,15.874,239.5746],[43.2208,15.8763,190.6943],[43.1301,15.8558,125.4472],[43.0402,15.8225,81.8566],[43.012,15.8178,68.3768],[42.9664,15.814,51.4012],[42.9458,15.8057,42.7768],[42.9278,15.8147,38.7521],[42.902,15.8172,29.9007],[42.8947,15.8198,27.4561],[42.8813,15.8191,24.4422],[42.8695,15.8272,20.4732],[42.862,15.8406,16.59],[42.8531,15.8427,13.0259],[42.809,15.8682,0.0],[42.7793,15.8376,0.0],[42.7757,15.8285,0.0],[42.7757,15.826,0.0],[42.7782,15.826,0.1083],[42.7788,15.8221,0.2645],[42.7768,15.8176,0.4445],[42.7713,15.8126,0.5671],[42.7649,15.8099,0.0],[42.7585,15.8107,0.0],[42.7546,15.8132,0.0],[42.7585,15.8093,0.0],[42.7582,15.8051,0.0],[42.7618,15.804,0.5358],[42.7604,15.7932,0.6204],[42.7571,15.789,0.2618],[42.7526,15.7879,0.8118],[42.7513,15.7901,0.0],[42.7363,15.7988,0.0],[42.7465,15.7901,0.1213],[42.7426,15.7838,0.8884],[42.7371,15.7826,0.0],[42.7374,15.781,0.0],[42.7357,15.7807,0.0],[42.7407,15.7782,0.3274],[42.7418,15.7738,0.6398],[42.7415,15.7657,0.6658],[42.7374,15.7588,0.0],[42.7368,15.7549,0.4841],[42.7315,15.7524,0.2549],[42.7287,15.7529,0.0],[42.7282,15.7496,1.0459],[42.7251,15.7496,0.2893],[42.7163,15.7432,1.4651],[42.7157,15.7404,1.4999],[42.7129,15.7379,1.5323],[42.7076,15.7396,0.189],[42.7062,15.7388,0.0],[42.7065,15.7363,0.2633],[42.7046,15.7363,2.1131],[42.7038,15.7396,0.0],[42.701,15.7388,0.0],[42.6974,15.7404,0.0],[42.6974,15.7385,0.0],[42.7004,15.7379,0.2634],[42.7007,15.7324,0.3723],[42.709,15.731,1.6758],[42.7071,15.7301,0.0],[42.7079,15.7271,3.3459],[42.7065,15.7257,0.8436],[42.7026,15.7265,1.1835],[42.696,15.731,0.0],[42.6957,15.7338,0.0],[42.6926,15.7301,0.0],[42.6885,15.7329,0.0],[42.6868,15.7238,0.0],[42.6846,15.7221,0.0],[42.6853,15.7249,0.0],[42.6838,15.724,0.0],[42.6849,15.7254,0.0],[42.6832,15.7274,0.0],[42.6815,15.7196,0.0],[42.676,15.716,0.0],[42.6774,15.7151,0.0],[42.6821,15.7179,0.0],[42.679,15.7024,0.1643],[42.6807,15.6938,0.9481],[42.6765,15.6929,0.0],[42.6754,15.6954,0.0],[42.6743,15.6935,0.0],[42.6763,15.6865,0.0],[42.679,15.684,0.0],[42.6787,15.6818,0.0],[42.684,15.6899,0.0],[42.6871,15.6907,0.0],[42.6896,15.6943,0.0],[42.7032,15.696,0.0],[42.706,15.6932,1.729],[42.7085,15.6818,0.9993],[42.7026,15.6754,0.0],[42.7018,15.6724,0.6576],[42.7001,15.6726,0.0],[42.6988,15.6668,0.409],[42.6971,15.6668,0.0],[42.6979,15.6588,0.4044],[42.6965,15.6557,0.0],[42.6996,15.6496,0.5162],[42.6937,15.6446,0.0],[42.6918,15.6396,0.0],[42.6954,15.6388,0.0],[42.6982,15.6335,0.0],[42.7038,15.6296,0.0],[42.7026,15.6182,0.0],[42.7038,15.6157,0.0],[42.7093,15.6104,0.0],[42.7104,15.6113,0.0],[42.7193,15.6063,0.0],[42.7224,15.6013,0.0],[42.7221,15.5946,0.0],[42.714,15.5882,0.0],[42.7065,15.5671,0.0],[42.6943,15.566,0.0],[42.6963,15.5626,0.0],[42.6963,15.5576,0.0],[42.7096,15.5426,0.0],[42.7157,15.5446,0.0],[42.7193,15.5424,0.0],[42.724,15.5435,0.0],[42.726,15.5399,0.0],[42.731,15.5393,0.0],[42.7426,15.5332,1.7599],[42.7432,15.529,0.1521],[42.7443,15.5296,0.1521],[42.7457,15.5271,0.0],[42.7457,15.5229,0.0],[42.7515,15.5143,0.0],[42.7501,15.5085,0.0],[42.7518,15.5076,0.0],[42.7518,15.5046,0.0],[42.7543,15.5038,0.0],[42.7551,15.4976,0.0],[42.7621,15.4896,0.0],[42.7601,15.4826,0.0],[42.7607,15.4782,0.0],[42.7699,15.4699,0.0],[42.774,15.4632,0.0],[42.7701,15.4551,0.0],[42.7735,15.4421,0.0],[42.7704,15.4407,0.0],[42.7679,15.4324,0.0],[42.759,15.4238,0.0],[42.759,15.4213,0.0],[42.7663,15.4207,0.0],[42.7663,15.4179,0.0],[42.7696,15.4143,0.1957],[42.7699,15.4068,0.0],[42.7804,15.3904,0.2405],[42.7818,15.3765,0.0],[42.7796,15.3754,0.0],[42.7793,15.3729,0.0],[42.7765,15.3729,0.0],[42.7765,15.3671,0.0],[42.779,15.3671,0.0],[42.7807,15.3612,0.0],[42.786,15.361,0.0],[42.7832,15.366,0.0],[42.7865,15.3671,0.0],[42.7879,15.3626,0.0],[42.7932,15.361,0.0],[42.7951,15.354,0.0],[42.7938,15.3538,0.0],[42.7921,15.3493,0.0],[42.7918,15.331,0.0],[42.7882,15.3185,0.0],[42.774,15.3062,0.0],[42.7804,15.306,0.0],[42.7837,15.309,0.0],[42.7863,15.309,0.0],[42.7868,15.306,0.0],[42.7954,15.3038,0.0],[42.7974,15.2971,0.0],[42.8035,15.2893,0.0],[42.8099,15.2863,0.0],[42.8096,15.2832,0.0],[42.8063,15.2712,0.8673],[42.7918,15.2565,0.0],[42.7863,15.249,0.4541],[42.7865,15.2465,1.3068],[42.7821,15.2446,0.0],[42.7818,15.2404,0.0],[42.7832,15.2385,0.0],[42.7813,15.2349,0.1665],[42.7799,15.2354,0.1665],[42.7801,15.2376,0.0],[42.7746,15.2351,0.0],[42.7732,15.2304,0.0],[42.7765,15.2262,1.2414],[42.7754,15.2249,1.4549],[42.7726,15.2288,0.0],[42.7713,15.2368,0.0],[42.7668,15.2371,0.0],[42.7649,15.2399,0.2227],[42.766,15.2421,0.0],[42.7646,15.2451,0.0],[42.7663,15.2474,0.0],[42.764,15.2515,0.0],[42.7676,15.2563,0.0],[42.7663,15.2607,0.2108],[42.7682,15.2665,0.0],[42.7668,15.2668,1.229],[42.7668,15.2687,0.7868],[42.7621,15.2712,0.5434],[42.7601,15.2768,0.0],[42.7576,15.2774,0.0],[42.7557,15.2774,0.0],[42.7482,15.2707,0.0],[42.7457,15.279,0.0],[42.7326,15.2732,1.2224],[42.726,15.2804,0.7289],[42.7268,15.2851,0.0],[42.7293,15.2874,0.0],[42.7282,15.2901,0.0],[42.729,15.2951,0.9905],[42.7246,15.2965,0.5332],[42.7243,15.2996,0.0],[42.7193,15.3015,0.8175],[42.719,15.3115,0.0],[42.716,15.3124,0.0],[42.716,15.309,0.9487],[42.7132,15.3107,0.0],[42.7062,15.3113,0.0],[42.6999,15.309,0.0],[42.6971,15.3051,0.0],[42.6921,15.3049,0.0],[42.6921,15.301,0.1689],[42.6896,15.2988,0.0],[42.6893,15.2951,1.067],[42.6874,15.2957,0.0342],[42.6896,15.3007,0.0],[42.6899,15.3151,0.0],[42.6921,15.3157,0.0],[42.6949,15.3226,0.0],[42.6957,15.3382,0.0],[42.6965,15.3399,0.0],[42.6979,15.3385,0.0],[42.699,15.3393,0.0],[42.701,15.3465,0.0],[42.7038,15.3476,0.0],[42.7054,15.3515,0.0],[42.7043,15.3635,1.348],[42.6982,15.3657,0.0],[42.6926,15.3624,0.0],[42.689,15.3543,0.0],[42.6885,15.3449,0.0],[42.6904,15.3432,0.0],[42.6888,15.3399,0.0],[42.6896,15.331,0.2411],[42.6846,15.3282,0.0],[42.6807,15.3199,2.2794],[42.6685,15.3157,0.0],[42.6704,15.3143,3.6086],[42.6699,15.3104,0.0],[42.6671,15.3076,0.0],[42.6668,15.2993,0.0],[42.6674,15.301,0.5744],[42.6696,15.3001,0.0],[42.6729,15.2937,0.0],[42.681,15.2865,0.0],[42.6882,15.2743,0.0],[42.6882,15.2704,0.0],[42.6838,15.261,0.2499],[42.6785,15.2574,0.0],[42.6785,15.2549,0.0],[42.6804,15.2532,1.047],[42.679,15.2454,12.981],[42.674,15.2437,0.9741],[42.6718,15.2379,1.0791],[42.6682,15.2374,0.0],[42.6676,15.2346,2.8138],[42.6518,15.2329,1.3634],[42.6399,15.2338,0.0],[42.6296,15.2363,0.3668],[42.6257,15.2443,0.0],[42.6118,15.2532,0.7066],[42.6071,15.254,0.0],[42.6068,15.2521,0.2733],[42.6051,15.2529,0.0],[42.6029,15.2513,0.3333],[42.5999,15.2463,0.0],[42.601,15.2382,2.6458],[42.6007,15.2365,3.0549],[42.5974,15.2368,0.0],[42.5968,15.2279,0.0],[42.6071,15.216,0.0],[42.609,15.2174,3.6181],[42.6162,15.2104,0.0],[42.6171,15.2085,8.3402],[42.6157,15.2068,0.0],[42.6185,15.204,3.315],[42.6207,15.1957,0.0],[42.6232,15.1926,3.6229],[42.6224,15.189,0.0],[42.6301,15.1832,0.0],[42.6399,15.1812,1.1514],[42.6424,15.1785,0.0],[42.644,15.1788,0.0],[42.6443,15.1807,0.0],[42.6496,15.1793,0.0],[42.6596,15.181,0.0],[42.6651,15.1846,0.0],[42.6629,15.1863,0.0],[42.6643,15.1907,0.4159],[42.6685,15.1926,0.0],[42.6676,15.1985,0.0],[42.6662,15.1982,1.4885],[42.6654,15.2013,0.8652],[42.6657,15.2074,1.5716],[42.6712,15.2138,2.5195],[42.6793,15.2165,1.6102],[42.6832,15.2143,1.3231],[42.721,15.2079,0.0],[42.7885,15.1865,1.8874],[42.8015,15.1801,0.9359],[42.8024,15.1779,0.6479],[42.8368,15.1607,1.902],[42.8535,15.1457,0.7533],[42.8585,15.1382,3.7442],[42.8604,15.129,4.9402],[42.8676,15.1204,0.0],[42.8713,15.1124,0.0],[42.8715,15.1071,0.0],[42.8662,15.0943,1.5073],[42.8668,15.0899,0.0],[42.861,15.0821,0.0],[42.861,15.0801,0.2508],[42.8635,15.079,1.5728],[42.8676,15.0726,0.0],[42.8671,15.0674,0.3465],[42.8657,15.0693,0.0],[42.8643,15.0671,0.0],[42.8649,15.0582,0.0],[42.8662,15.0571,2.3955],[42.8638,15.0571,0.0],[42.8638,15.0551,0.0],[42.8662,15.054,1.0997],[42.8643,15.0513,0.0],[42.8665,15.0493,1.1211],[42.8654,15.0424,0.0],[42.8715,15.0363,0.2763],[42.8713,15.029,0.0],[42.8688,15.029,0.0],[42.8693,15.0215,0.0],[42.876,15.0163,0.5653],[42.8796,15.0071,0.0],[42.8849,15.0021,1.0856],[42.8901,15.0021,1.7951],[42.8946,15.0001,0.0],[42.8976,14.9954,0.0],[42.906,14.9918,0.0],[42.9099,14.989,6.995],[42.9096,14.9868,0.0],[42.9115,14.9868,1.4548],[42.9151,14.9832,0.0],[42.921,14.9715,0.0],[42.9232,14.9712,0.0],[42.926,14.9671,4.799],[42.9301,14.9571,4.4917],[42.9304,14.9479,1.3668],[42.926,14.9443,0.0],[42.9321,14.9432,0.6046],[42.9362,14.9385,3.8983],[42.9354,14.9332,0.5969],[42.9313,14.9315,0.0],[42.9332,14.931,0.0],[42.9332,14.9293,0.0],[42.9351,14.9313,0.0],[42.939,14.9301,0.0],[42.9382,14.9271,0.0],[42.941,14.9265,0.0],[42.9407,14.9224,0.0],[42.9449,14.9163,0.0],[42.9432,14.9137,0.0],[42.9451,14.9101,0.0],[42.9432,14.9026,0.0],[42.9451,14.9015,0.0],[42.9429,14.9013,0.0],[42.9446,14.8968,0.0],[42.9435,14.8899,0.0],[42.9449,14.8849,0.0],[42.9471,14.884,0.0],[42.946,14.8785,0.0],[42.9499,14.8746,0.0],[42.9507,14.8704,0.3934],[42.9496,14.8676,0.0],[42.9446,14.8637,0.0],[42.9424,14.8643,0.0],[42.9404,14.8685,0.0],[42.9421,14.8749,0.0],[42.9393,14.8754,1.103],[42.9388,14.8771,0.0],[42.9368,14.8757,0.0],[42.9362,14.8799,0.0],[42.9338,14.8804,0.0],[42.9329,14.884,0.0],[42.9313,14.8846,0.0],[42.9321,14.8799,0.0],[42.9287,14.8782,0.0],[42.9282,14.8757,0.4701],[42.9296,14.8737,0.0],[42.934,14.8732,0.4836],[42.9379,14.8651,0.0],[42.9404,14.8651,0.1662],[42.9421,14.8626,0.2237],[42.9407,14.8546,0.0],[42.9417,14.8463,0.0],[42.9354,14.8407,0.2329],[42.9374,14.8363,1.3288],[42.9335,14.8337,0.0],[42.9324,14.8296,0.0],[42.9324,14.8268,0.0],[42.9365,14.8235,0.0],[42.9376,14.8207,0.0],[42.936,14.8146,1.7494],[42.9332,14.8124,0.0],[42.929,14.8121,0.0],[42.9251,14.8154,1.7109],[42.9265,14.8243,0.8568],[42.9271,14.8254,0.8568],[42.9287,14.8246,0.4153]]],
[[[42.761,14.0865,0.0],[42.7604,14.0879,0.0],[42.7579,14.0876,0.0],[42.7582,14.0826,0.0],[42.7618,14.0826,0.0],[42.761,14.0865,0.0]]],
[[[42.7574,15.2874,0.0],[42.7549,15.2965,0.0],[42.7515,15.2899,0.0],[42.7493,15.2887,0.0],[42.751,15.286,0.0],[42.7482,15.2815,0.0],[42.7529,15.2807,0.0],[42.7529,15.2826,0.0],[42.7571,15.2854,0.0],[42.7574,15.2874,0.0]]],
[[[42.631,15.421,0.0],[42.6293,15.4221,0.0],[42.6285,15.4179,1.0628],[42.6265,15.4176,0.0],[42.6232,15.4126,0.5053],[42.6207,15.4124,0.0],[42.6204,15.4071,0.0],[42.6232,15.4057,0.0],[42.6335,15.4068,0.0],[42.6354,15.4149,0.0],[42.631,15.421,0.0]]],
[[[42.6304,15.4565,0.7891],[42.6268,15.4582,0.0],[42.6079,15.4449,0.0],[42.599,15.444,0.0],[42.5946,15.4418,0.0],[42.5999,15.4354,0.0],[42.5993,15.431,0.0],[42.591,15.4299,0.3171],[42.5876,15.4279,0.0],[42.5863,15.4238,1.1986],[42.5749,15.4082,1.1104],[42.5679,15.4018,4.8312],[42.5643,15.4004,0.0],[42.5607,15.3965,0.0],[42.5596,15.3926,1.2927],[42.5535,15.3882,0.0],[42.5576,15.3801,1.9515],[42.5524,15.3707,0.0],[42.5596,15.3649,3.4312],[42.5593,15.359,3.0593],[42.5629,15.3554,0.0],[42.5649,15.3504,0.0],[42.5654,15.3385,0.8826],[42.5629,15.336,0.0],[42.5621,15.3257,1.8275],[42.5563,15.3143,2.1147],[42.5549,15.3132,1.6177],[42.5535,15.3151,1.7704],[42.5468,15.3118,1.4203],[42.5426,15.314,0.0],[42.5354,15.3129,0.0],[42.5332,15.309,0.0],[42.5335,15.3051,0.0],[42.5363,15.3001,0.0],[42.5435,15.2943,1.6034],[42.5435,15.2887,0.0],[42.5482,15.2832,0.0],[42.5604,15.2746,0.0],[42.5693,15.2657,0.0],[42.5754,15.2635,0.0],[42.5762,15.2649,0.0],[42.5793,15.2643,0.554],[42.579,15.2621,0.0],[42.5804,15.264,1.1715],[42.5843,15.2632,0.2653],[42.5826,15.2618,0.0],[42.5863,15.2615,0.0],[42.5929,15.2638,0.0],[42.5954,15.2718,0.0],[42.5949,15.2751,0.0],[42.5982,15.2751,0.0],[42.601,15.2824,0.0],[42.604,15.2849,0.0],[42.6068,15.2849,0.0],[42.6115,15.2904,0.0],[42.6135,15.2971,0.0],[42.6182,15.3029,0.0],[42.6218,15.3249,0.0],[42.6193,15.3263,0.0],[42.6204,15.3299,0.0],[42.6185,15.3338,0.0],[42.6135,15.334,0.0],[42.6126,15.3388,0.6201],[42.6207,15.3385,0.0],[42.6188,15.3488,0.0],[42.6165,15.3499,0.4741],[42.6193,15.3504,0.0],[42.621,15.354,0.0],[42.6207,15.359,1.1829],[42.6257,15.3629,0.0],[42.6249,15.3657,4.1222],[42.629,15.3671,1.0606],[42.6312,15.3707,1.2558],[42.6282,15.3726,0.0],[42.6279,15.3776,0.0],[42.6257,15.3782,0.3442],[42.6274,15.3801,0.5779],[42.6312,15.3782,0.0],[42.6346,15.3826,0.9222],[42.6338,15.3913,0.0],[42.6376,15.3921,0.0],[42.6363,15.3971,0.0],[42.6393,15.3976,0.0],[42.6399,15.4035,0.0],[42.6288,15.4032,0.6373],[42.6201,15.3988,0.0],[42.6171,15.3993,0.0],[42.6107,15.3957,0.0],[42.6099,15.3932,0.5104],[42.5962,15.386,0.0],[42.5938,15.3876,0.0],[42.5893,15.3874,0.0],[42.5857,15.3938,0.0],[42.5774,15.3946,0.0],[42.5771,15.3982,0.0],[42.5801,15.4004,0.0],[42.584,15.4007,0.0],[42.5943,15.3993,0.0],[42.5938,15.3974,0.0],[42.5907,15.3971,0.0],[42.5913,15.3946,0.0],[42.594,15.3954,0.0],[42.5988,15.401,0.0],[42.6051,15.4021,0.8031],[42.6115,15.4004,0.0],[42.6174,15.4037,0.0],[42.6176,15.4057,0.0],[42.6129,15.4076,0.0],[42.6137,15.4104,0.0],[42.6115,15.4104,0.0],[42.6076,15.4143,0.4904],[42.6146,15.4132,0.0],[42.6196,15.4176,0.0],[42.6182,15.4251,0.0],[42.6107,15.4232,0.539],[42.6057,15.4179,0.247],[42.5988,15.4174,0.0],[42.5993,15.4201,1.3184],[42.6018,15.4199,0.0],[42.6032,15.4221,1.1145],[42.6074,15.4229,0.0],[42.6085,15.4299,1.4862],[42.6107,15.429,0.0],[42.6129,15.4307,0.0],[42.614,15.4365,0.168],[42.6188,15.4354,0.0],[42.6268,15.4274,0.0],[42.6324,15.4315,0.0],[42.6343,15.4312,0.0],[42.6368,15.4368,0.0],[42.6415,15.436,0.0],[42.6435,15.4407,0.0],[42.6424,15.4321,0.0],[42.6443,15.4315,0.0],[42.646,15.4282,0.0],[42.6488,15.4299,0.0],[42.6499,15.4335,0.0],[42.6476,15.434,0.0],[42.649,15.441,0.0],[42.6471,15.4418,0.0],[42.6476,15.444,0.0],[42.6415,15.4463,1.9465],[42.6437,15.4487,0.0],[42.6376,15.4501,1.9904],[42.6399,15.4562,0.0],[42.6365,15.4579,0.0],[42.6318,15.4579,0.0],[42.6304,15.4565,0.7891]]],
[[[42.5251,15.4157,0.0],[42.5249,15.4176,0.0],[42.5226,15.4174,1.5006],[42.5238,15.4154,0.0],[42.5251,15.4157,0.0]]],
[[[42.5054,15.5051,0.9402],[42.5013,15.5063,0.3842],[42.4932,15.5015,0.2819],[42.4863,15.4999,0.0],[42.4824,15.4949,0.0],[42.4821,15.4921,0.0],[42.4863,15.4851,0.0],[42.4868,15.4876,0.0],[42.4901,15.4896,0.0],[42.4976,15.489,0.0],[42.4987,15.4901,0.0],[42.501,15.4932,0.0],[42.4971,15.4926,0.0],[42.4963,15.4957,0.0],[42.4974,15.4968,0.0],[42.5029,15.4985,0.0],[42.5129,15.4971,2.0875],[42.5143,15.4935,1.0943],[42.5124,15.4887,0.0],[42.5021,15.4893,0.0],[42.4996,15.4818,0.0],[42.5013,15.4782,0.0],[42.5035,15.4774,0.0],[42.5137,15.4765,0.0],[42.5176,15.4804,0.0],[42.5199,15.4854,0.0],[42.5254,15.4882,0.0],[42.5293,15.4946,0.2429],[42.5324,15.496,0.3367],[42.5329,15.4993,0.0],[42.531,15.5015,0.0],[42.5179,15.5001,1.8788],[42.5054,15.5051,0.9402]]],
[[[42.5599,15.5721,0.0],[42.5585,15.5782,0.0],[42.5507,15.5713,0.0],[42.5388,15.569,0.0],[42.534,15.5663,0.0],[42.5349,15.5599,0.0],[42.5376,15.5579,0.0],[42.5393,15.5621,0.0],[42.5418,15.5596,0.0],[42.5454,15.5629,0.0],[42.549,15.5593,0.0],[42.5551,15.564,0.0],[42.5599,15.5721,0.0]]],
[[[42.3849,15.5179,0.0],[42.384,15.5196,0.0],[42.3826,15.5188,0.0],[42.3843,15.5171,0.0],[42.3849,15.5179,0.0]]],
[[[41.8451,15.5571,0.9534],[41.8401,15.5582,4.6174],[41.8299,15.5562,2.5797],[41.8251,15.5538,0.0],[41.8193,15.5476,0.0],[41.8146,15.539,5.909],[41.8149,15.5332,1.8976],[41.8182,15.5265,0.0],[41.824,15.5232,0.0],[41.8276,15.5229,0.0],[41.834,15.5249,0.0],[41.8382,15.5285,0.0],[41.8435,15.529,1.1624],[41.8504,15.5335,0.0],[41.8526,15.5426,1.0375],[41.8518,15.5499,0.0],[41.8499,15.554,0.0],[41.8451,15.5571,0.9534]]],
[[[42.2976,15.7138,0.0],[42.294,15.7149,0.8086],[42.2865,15.7113,0.0],[42.2846,15.7051,0.0],[42.2849,15.694,0.0],[42.2829,15.6863,0.0],[42.2907,15.6846,1.2943],[42.2949,15.6682,0.0],[42.3018,15.661,0.0],[42.3076,15.6585,0.0],[42.3082,15.6626,2.9951],[42.2996,15.6935,15.17],[42.3001,15.6999,0.0],[42.2982,15.7038,0.0],[42.2988,15.7129,0.0],[42.2976,15.7138,0.0]]],
[[[42.3915,15.7463,0.2442],[42.3899,15.7482,0.9843],[42.3804,15.7465,0.7559],[42.3774,15.741,0.0],[42.381,15.7346,1.223],[42.3796,15.7315,0.0],[42.3832,15.729,2.4986],[42.3843,15.7262,0.0],[42.3832,15.7221,0.0],[42.3779,15.7188,0.0],[42.3776,15.716,0.0],[42.3849,15.7001,0.0],[42.3904,15.7018,0.0],[42.3913,15.704,0.0],[42.3949,15.7032,0.0],[42.404,15.7071,2.3524],[42.409,15.7063,0.0],[42.4129,15.7076,1.6714],[42.424,15.7068,0.0],[42.4293,15.7043,1.1162],[42.4501,15.7013,0.6909],[42.4593,15.6979,0.0],[42.4815,15.7004,0.0],[42.4824,15.7054,0.0],[42.4846,15.7049,0.0],[42.4815,15.7085,0.0],[42.484,15.7168,0.0],[42.4754,15.7174,0.0],[42.4671,15.7154,1.3942],[42.459,15.7163,0.741],[42.4535,15.7188,0.0],[42.4515,15.7229,0.0],[42.444,15.7201,1.7591],[42.4393,15.7207,0.0],[42.4338,15.7262,0.0],[42.4251,15.7268,1.716],[42.419,15.7313,0.0],[42.4065,15.7346,3.3546],[42.4029,15.7385,0.0],[42.3946,15.7421,1.3203],[42.3915,15.7463,0.2442]]],
[[[42.5018,15.5921,0.0],[42.5007,15.5938,0.0],[42.4979,15.5938,0.0],[42.496,15.5913,2.3737],[42.4979,15.5899,0.0],[42.5018,15.5921,0.0]]],
[[[42.6026,15.6507,0.0],[42.5982,15.6518,0.2375],[42.5946,15.6501,2.3291],[42.5874,15.6501,0.0],[42.5846,15.6465,0.4561],[42.5857,15.6421,0.0],[42.5949,15.6365,0.5427],[42.5965,15.6274,0.0],[42.5949,15.6254,0.0],[42.5988,15.6201,0.0],[42.6035,15.6182,0.0],[42.611,15.6199,0.0],[42.616,15.6238,0.0],[42.6135,15.626,0.2381],[42.6165,15.6276,1.0442],[42.6201,15.6263,0.0],[42.624,15.6271,0.0],[42.6257,15.6238,0.0],[42.6288,15.6246,0.0],[42.6299,15.6226,0.0],[42.6363,15.624,0.0],[42.6396,15.6265,0.0],[42.6396,15.6299,0.0],[42.6379,15.629,0.0],[42.6379,15.6313,0.0],[42.6349,15.6304,4.6415],[42.6276,15.6338,0.0],[42.6243,15.6335,1.29],[42.6218,15.6374,0.0],[42.6193,15.6371,0.0],[42.616,15.6399,0.2567],[42.6099,15.6399,0.3093],[42.6065,15.6479,0.4737],[42.6026,15.6507,0.0]]],
[[[42.5668,15.709,0.0],[42.5526,15.7101,0.0],[42.546,15.7076,0.0],[42.5424,15.7088,0.0],[42.5399,15.7038,0.0],[42.5468,15.7021,0.0],[42.5646,15.7018,0.0],[42.566,15.7049,0.0],[42.569,15.7051,0.0],[42.5668,15.709,0.0]]],
[[[42.519,15.7163,0.4351],[42.5187,15.7193,0.0],[42.5135,15.7179,0.3827],[42.5121,15.7151,0.4777],[42.5157,15.7143,1.0251],[42.519,15.7163,0.4351]]],
[[[42.5026,15.7338,0.0],[42.5004,15.7349,0.3604],[42.4968,15.734,0.0],[42.4921,15.7265,0.0],[42.4921,15.721,0.0],[42.496,15.7199,0.0],[42.496,15.7212,0.0],[42.4985,15.7221,1.5135],[42.5021,15.7201,0.0],[42.5049,15.7229,0.0],[42.5062,15.729,0.0],[42.5026,15.7338,0.0]]],
[[[42.6282,15.7693,0.0],[42.6274,15.7707,0.0],[42.6226,15.7701,0.0],[42.6107,15.7638,0.0],[42.6021,15.7471,0.0],[42.5996,15.7388,0.0],[42.6004,15.7357,0.0],[42.604,15.7357,0.0],[42.604,15.7338,0.0],[42.6071,15.7338,0.0],[42.6201,15.7446,0.0],[42.624,15.7582,0.0],[42.6285,15.7654,0.0],[42.6282,15.7693,0.0]]],
[[[42.5346,15.8171,0.0],[42.5335,15.8185,0.0],[42.5326,15.8165,0.0],[42.536,15.8146,0.0],[42.5363,15.8154,0.0],[42.5346,15.8171,0.0]]],
[[[42.5388,15.8179,0.0],[42.539,15.8193,0.0],[42.536,15.8182,0.0],[42.5363,15.8176,0.0],[42.5388,15.8179,0.0]]],
[[[42.9354,14.599,1.0214],[42.9354,14.6007,0.0],[42.929,14.5996,0.0],[42.9318,14.5971,0.4234],[42.9354,14.599,1.0214]]],
[[[42.9179,14.6226,0.0],[42.9188,14.6243,0.0],[42.9121,14.6215,0.5107],[42.9063,14.6229,0.6099],[42.9049,14.6265,0.6161],[42.9079,14.6304,0.0],[42.9068,14.6324,0.634],[42.9026,14.6326,0.8846],[42.8988,14.6301,0.0],[42.8982,14.6251,0.0],[42.9043,14.6149,0.0],[42.921,14.6024,0.0],[42.9276,14.5993,0.0],[42.9285,14.6024,0.5721],[42.9304,14.6012,0.0],[42.931,14.6046,0.5456],[42.9374,14.6082,0.1275],[42.9418,14.6085,0.0],[42.944,14.6121,0.1102],[42.9435,14.6126,0.1102],[42.9296,14.6076,0.4367],[42.9226,14.6076,0.3766],[42.9171,14.6104,0.0],[42.9176,14.6121,0.1473],[42.9201,14.6124,0.0],[42.9199,14.6138,0.0],[42.9151,14.6146,0.0],[42.919,14.6204,0.0],[42.9179,14.6226,0.0]]],
[[[42.9207,14.6254,0.0],[42.9188,14.6243,0.0],[42.9221,14.6243,0.0],[42.9232,14.6263,0.0],[42.9279,14.6279,0.0],[42.9343,14.6285,0.0],[42.9274,14.629,0.0],[42.9207,14.6254,0.0]]],
[[[42.9429,14.8871,0.0],[42.9421,14.8926,0.433],[42.9385,14.8924,0.0],[42.9388,14.8907,0.0],[42.941,14.8912,0.0],[42.941,14.8871,0.0],[42.9388,14.8868,0.0],[42.9382,14.8849,0.0],[42.9401,14.884,0.0],[42.9382,14.8838,0.0],[42.9379,14.8807,0.0],[42.9401,14.8763,0.0],[42.9426,14.8751,0.0],[42.9429,14.8765,0.0],[42.9426,14.8782,0.0],[42.9413,14.8829,0.0],[42.9443,14.881,0.0],[42.9449,14.8832,0.0],[42.9429,14.8871,0.0]]],
[[[42.9285,14.9168,0.0],[42.934,14.9204,0.0],[42.9274,14.9174,0.0],[42.926,14.911,0.2606],[42.9218,14.9065,0.0],[42.9268,14.9101,0.0],[42.9285,14.9168,0.0]]],
[[[42.934,14.9171,0.0],[42.9357,14.9176,0.0],[42.9326,14.9185,0.0],[42.9332,14.9168,0.0],[42.934,14.9171,0.0]]],
[[[42.9137,14.936,0.0],[42.9168,14.9346,0.0],[42.9223,14.9416,0.0],[42.921,14.9456,0.0],[42.9186,14.947,0.0],[42.9141,14.9438,0.0],[42.9137,14.936,0.0]]],
[[[42.894,14.8749,0.0],[42.8887,14.8757,0.0],[42.8879,14.8726,0.0],[42.8913,14.8735,0.0],[42.8985,14.871,0.0],[42.8976,14.874,0.0],[42.894,14.8749,0.0]]],
[[[42.8954,14.9937,0.0],[42.8946,14.9929,0.0],[42.896,14.9932,0.0],[42.8968,14.9954,0.0],[42.8954,14.9946,0.0],[42.8954,14.9937,0.0]]],
[[[42.6763,15.6821,0.0],[42.6743,15.6874,0.0],[42.6751,15.6785,0.0],[42.6726,15.6785,0.0],[42.6721,15.6768,0.0],[42.6743,15.6768,0.0],[42.6754,15.6729,0.0],[42.6776,15.674,0.0],[42.6782,15.6768,0.0],[42.6763,15.6821,0.0]]],
[[[42.6854,15.734,0.0],[42.6843,15.736,0.0],[42.6843,15.7274,0.0],[42.6865,15.7313,0.0],[42.6854,15.734,0.0]]],
[[[42.6726,15.8935,0.0],[42.6726,15.8949,0.0],[42.6699,15.8949,0.0],[42.6699,15.894,0.0],[42.6726,15.8935,0.0]]],
[[[42.4604,15.7713,1.4854],[42.4624,15.7774,0.0],[42.4529,15.7735,0.3111],[42.4518,15.764,0.0],[42.4574,15.7665,0.0],[42.4604,15.7713,1.4854]]],
[[[42.4463,15.846,0.0],[42.4463,15.8471,0.0],[42.4435,15.8468,0.2647],[42.4396,15.8449,0.0],[42.4393,15.8418,0.0],[42.4426,15.8415,0.0],[42.4463,15.846,0.0]]],
[[[42.2863,15.8715,0.0],[42.2865,15.874,0.0],[42.2854,15.8743,0.0],[42.2849,15.8713,0.0],[42.2863,15.8715,0.0]]],
[[[42.5699,15.8604,0.5751],[42.5676,15.861,0.0],[42.5635,15.8579,0.0],[42.5626,15.8529,0.0],[42.5643,15.8521,0.0],[42.5646,15.8535,0.0],[42.5668,15.8526,0.0],[42.5682,15.8538,0.2221],[42.5699,15.8524,0.0],[42.5696,15.8562,0.0],[42.5724,15.8599,0.0],[42.5699,15.8604,0.5751]]],
[[[42.4851,15.8613,0.4046],[42.4843,15.8624,0.0],[42.4815,15.8615,0.5058],[42.4782,15.8579,0.7331],[42.4782,15.856,0.0],[42.4799,15.8557,0.0],[42.4851,15.8613,0.4046]]],
[[[42.6001,15.9201,0.2546],[42.6001,15.9221,0.0],[42.5962,15.9232,0.0],[42.5918,15.9196,0.0],[42.5907,15.9165,0.3374],[42.5854,15.9143,0.0],[42.5871,15.9124,0.0],[42.5857,15.909,0.0],[42.5893,15.9063,0.0],[42.5879,15.904,0.0],[42.5887,15.8996,0.0],[42.5863,15.899,0.0],[42.5868,15.8962,0.0],[42.5901,15.8985,0.0],[42.5907,15.9049,0.0],[42.5954,15.9146,0.0],[42.5949,15.9165,0.0],[42.6001,15.9201,0.2546]]]]}}