{"type":"Feature","properties":{"ISO3166-1-Alpha-3":"YEM","country":"Yemen","fill":"#F0F","id":"151","name":"Al Hudaydah"},
"geometry":{"type": "MultiPolygon","coordinates": [[[[42.68857,13.6638,42.6181],[42.74391,13.68842,0.0],[42.75408,13.6979,0.0],[42.76149,13.71931,0.0],[42.79184,13.75072,0.0],[42.79493,13.76992,0.0],[42.78256,13.77993,3.02],[42.76173,13.77216,0.0],[42.71925,13.74262,11.3542],[42.69353,13.6992,0.0],[42.6858,13.67853,18.277],[42.6858,13.67845,18.277],[42.68629,13.67597,42.1751],[42.68849,13.66376,42.6181],[42.68857,13.6638,42.6181]]],
[[[42.78858,13.9267,0.0],[42.78663,13.944,0.0],[42.78663,13.94404,0.0],[42.7881,13.97533,0.0],[42.80161,14.012269999999999,0.0],[42.80177,14.02314,0.0],[42.79575,14.03718,0.0],[42.76759,14.07152,0.0],[42.76026,14.06468,13.4597],[42.74399,14.06013,4.7539],[42.72104,14.04597,3.1824],[42.70086,14.02827,0.0],[42.69191,14.01317,3.3281],[42.69923,13.99225,8.3282],[42.70069,13.98794,1.5917],[42.71249,13.97744,0.0],[42.72153,13.96939,15.7372],[42.74659,13.95653,12.5591],[42.76759,13.94868,73.9473],[42.76759,13.94864,73.9473],[42.75408,13.92072,24.0385],[42.78175,13.91999,2.169],[42.78858,13.9267,0.0]]],
[[[42.58155,15.39159,0.6787],[42.58473,15.39663,0.0],[42.59897,15.40363,2.9165],[42.60808,15.41039,1.1993],[42.61199,15.41657,1.2161],[42.6115,15.42129,1.0295],[42.60719,15.42292,0.0],[42.61036,15.42939,0.0],[42.636,15.44554,1.0315],[42.63103,15.45425,1.3998],[42.62387,15.45734,0.0],[42.6019,15.44628,0.0],[42.5975,15.43915,0.0],[42.59344,15.43073,1.0407],[42.58375,15.4228,0.0],[42.57097,15.4101,0.0],[42.55893,15.39297,0.0],[42.55616,15.34146,0.0],[42.54591,15.31696,0.0],[42.54575,15.29442,2.4138],[42.55738,15.27757,2.3952],[42.56837,15.26887,5.1612],[42.5822,15.26822,6.6253],[42.59392,15.27871,1.1245],[42.61411,15.30805,0.9878],[42.61524,15.31403,0.6696],[42.60939,15.3122,1.0412],[42.60841,15.31403,2.0036],[42.61329,15.31855,1.3952],[42.61549,15.32636,4.0071],[42.61345,15.3347,0.0],[42.61622,15.34809,2.2979],[42.6281,15.38646,2.1362],[42.62818,15.39867,7.9266],[42.6185,15.40009,0.0],[42.60564,15.39301,0.0],[42.59254,15.38947,0.0],[42.58155,15.39159,0.6787]]],
[[[42.83473,15.91396,-1.8639],[42.83456,15.91406,-1.8639],[42.83033,15.89252,1.6955],[42.82,15.87495,1.3138],[42.80177,15.86034,0.0],[42.78346,15.84943,0.0],[42.7658,15.83576,0.0],[42.75245,15.81639,0.0],[42.74724,15.7884,0.7267],[42.74692,15.77265,1.2411],[42.74578,15.76195,1.3649],[42.74171,15.75324,1.5419],[42.73341,15.74307,1.6781],[42.72104,15.73281,1.268],[42.70924,15.7259,2.5838],[42.69923,15.71743,0.8394],[42.69191,15.70209,6.3547],[42.71363,15.69473,1.0612],[42.71608,15.67984,0.7227],[42.70558,15.64435,0.9743],[42.70826,15.62783,1.0108],[42.71485,15.61396,1.1353],[42.72389,15.6022,0.0],[42.73341,15.59223,1.9202],[42.72136,15.57819,1.1469],[42.71925,15.57001,1.1872],[42.75994,15.51606,1.7504],[42.77426,15.49103,1.7869],[42.77833,15.47899,1.9259],[42.78053,15.46747,1.4459],[42.78126,15.45572,1.9278],[42.77996,15.44318,3.4256],[42.77768,15.43281,1.1476],[42.77719,15.42194,1.0708],[42.78126,15.4079,0.9649],[42.79737,15.37971,1.791],[42.8069,15.34431,2.3086],[42.80909,15.26777,1.2629],[42.80307,15.24518,1.5867],[42.7881,15.22972,0.5912],[42.79168,15.2263,1.0102],[42.79461,15.2226,1.2448],[42.79591,15.21735,1.5213],[42.79493,15.2093,1.3983],[42.78199,15.21507,1.072],[42.77858,15.22163,1.7619],[42.78126,15.2403,0.0],[42.77914,15.25332,0.0],[42.77426,15.26044,0.0],[42.73373,15.29389,0.0],[42.71852,15.30313,0.4567],[42.69939,15.31167,0.0],[42.70786,15.32152,0.0],[42.7151,15.33698,0.0],[42.71762,15.35346,0.0],[42.71241,15.36628,0.0],[42.70427,15.35545,0.0],[42.67823,15.30829,20.7079],[42.68067,15.29605,11.9676],[42.69093,15.28124,1.3622],[42.69191,15.2707,0.4495],[42.68873,15.25703,1.5888],[42.68263,15.24649,25.3857],[42.67172,15.23965,0.0],[42.65463,15.23721,0.0],[42.62135,15.2447,1.5816],[42.61012,15.2436,6.9143],[42.61671,15.22972,6.1747],[42.61801,15.20751,8.3402],[42.63771,15.19086,7.1781],[42.66041,15.18256,0.0],[42.6714,15.18537,0.0],[42.67693,15.2058,0.0],[42.69142,15.21426,1.3075],[42.71127,15.21426,4.0105],[42.73341,15.2093,4.0655],[42.75473,15.20181,5.872],[42.7767,15.19139,3.7439],[42.79689,15.1787,0.0],[42.82895,15.15176,0.0],[42.86402,15.13642,18.8403],[42.87745,15.11986,14.3287],[42.88233,15.10248,14.4467],[42.87745,15.04853,10.3571],[42.88014,15.02485,4.0942],[42.88722,15.00821,8.1819],[42.89812,14.99527,0.0],[42.92359,14.97142,5.1409],[42.93214,14.96084,10.7656],[42.93727,14.94847,10.5133],[42.94166,14.91535,0.0],[42.95232,14.87954,6.2801],[42.95314,14.8592,3.0784],[42.94679,14.82587,8.3815],[42.94565,14.81143,7.654],[42.92661,14.82323,0.0],[42.91041,14.84138,0.7276],[42.89829,14.86176,0.0],[42.89112,14.88032,0.0],[42.89096,14.89142,0.0],[42.89405,14.89932,0.3815],[42.89576,14.90599,0.0],[42.89112,14.9138,0.0],[42.88331,14.91551,0.0],[42.8816,14.90461,1.3715],[42.88364,14.88369,0.5456],[42.89454,14.84748,1.3685],[42.94223,14.78889,6.3616],[42.95314,14.75373,0.0],[42.95411,14.74266,0.0],[42.96168,14.70856,0.8074],[42.96656,14.70185,0.9795],[42.97145,14.69701,1.3137],[42.97381,14.69188,1.5364],[42.97682,14.68838,1.5606],[42.98365,14.68513,4.8313],[42.99049,14.68008,4.9825],[42.9948,14.66791,4.4531],[42.99733,14.66621,6.3217],[42.99985,14.66332,7.5801],[43.00099,14.65717,9.0355],[42.99879,14.65127,9.8804],[42.98951,14.64106,5.0696],[42.98732,14.63386,1.7423],[42.99806,14.60151,6.5587],[43.01759,14.57123,13.0259],[43.02866,14.53799,13.6983],[43.01401,14.49677,3.1262],[43.02003,14.48461,6.8541],[43.02198,14.4711,10.2171],[43.02149,14.44208,12.0026],[43.00611,14.45478,0.0],[42.99415,14.50047,0.0],[42.98365,14.52033,0.0],[42.97348,14.52847,0.0],[42.96599,14.53026,0.7762],[42.96119,14.52538,0.0],[42.95932,14.5135,0.0],[42.96339,14.50776,0.0],[42.9817,14.49478,0.0],[42.98732,14.48924,0.0],[42.98992,14.48021,0.0],[42.9935,14.44831,0.6504],[43.00611,14.41942,1.4334],[43.011,14.38841,1.4349],[43.01905,14.36835,2.528],[43.04756,14.27551,3.6769],[43.06592,14.22487,0.0],[43.07579,14.19476,2.6377],[43.08425,14.15919,0.0],[43.09552,14.08396,0.0],[43.11807,14.05249,2.776],[43.13919,14.00735,0.0],[43.16172,13.95399,1.2078],[43.22731,13.88544,0.0],[43.23316,13.87637,0.0],[43.2435,13.79434,0.0],[43.24789,13.78368,0.0],[43.28094,13.72211,4.7234],[43.28533,13.68659,0.0],[43.28429,13.66487,0.0],[43.28452,13.66498,0.0],[43.28767,13.66643,0.484],[43.35811,13.72185,41.6022],[43.38715,13.73358,55.8763],[43.42219,13.74309,81.7044],[43.44441,13.74681,101.3366],[43.45542,13.75981,104.7759],[43.46534,13.77895,144.4037],[43.54104,13.87548,497.9093],[43.57691,13.89073,295.608],[43.60099,13.89838,328.4086],[43.68429,13.91199,641.9545],[43.71023,13.92008,813.9838],[43.72217,13.9176,705.1339],[43.72015,13.93321,686.7137],[43.71225,13.94584,653.0553],[43.69824,13.96354,705.5217],[43.70181,13.9761,598.327],[43.72,13.98434,659.0886],[43.73535,13.9777,688.8342],[43.74465,13.97152,774.4128],[43.76046,13.98132,960.9536],[43.79896,14.04168,804.6855],[43.80501,14.06906,731.901],[43.80036,14.0864,854.5403],[43.79756,14.11405,797.4375],[43.78191,14.10785,686.1207],[43.76935,14.09793,740.9043],[43.7541,14.08963,649.4867],[43.74139,14.07806,624.3604],[43.72573,14.07604,759.5149],[43.70599,14.084,903.3818],[43.64998,14.11689,570.0978],[43.61897,14.12689,427.8524],[43.59603,14.14126,511.9124],[43.57939,14.15557,392.6841],[43.56605,14.18924,516.5848],[43.56528,14.22296,542.0789],[43.53159,14.35985,391.9032],[43.53877,14.37344,373.1578],[43.5583,14.37432,418.1114],[43.59365,14.41599,678.0621],[43.59706,14.43436,594.8436],[43.59603,14.46036,670.019],[43.59334,14.47242,960.674],[43.58001,14.49749,743.1761],[43.57737,14.51356,1036.2388],[43.53815,14.61441,907.554],[43.53453,14.6336,1036.0372],[43.53856,14.65011,888.3705],[43.53608,14.66507,520.8209],[43.53453,14.68303,809.0309],[43.53763,14.70021,799.1227],[43.549,14.7145,752.5992],[43.55381,14.73055,692.7492],[43.54104,14.80442,839.6368],[43.55691,14.8484,1290.0466],[43.57582,14.87403,649.061],[43.59458,14.88963,628.1741],[43.62409,14.91971,581.4128],[43.63153,14.93402,630.5773],[43.64207,14.93273,648.2928],[43.67297,14.9217,793.1104],[43.68817,14.9239,1011.2024],[43.70196,14.9334,968.8967],[43.71829,14.95663,1826.7031],[43.72403,14.96193,1776.009],[43.72465,14.97314,1952.5906],[43.70026,14.99459,1854.8131],[43.68119,14.99188,1644.7583],[43.66197,14.99237,1169.989],[43.63509,14.99818,745.3438],[43.60347,15.01417,630.2066],[43.57102,15.04425,751.9932],[43.5459,15.05774,1052.4276],[43.515,15.08735,968.807],[43.50012,15.10967,954.7437],[43.48895,15.13897,1040.8002],[43.4689,15.17194,762.0505],[43.45728,15.20026,715.7753],[43.44828,15.21737,492.1537],[43.40622,15.22886,394.4561],[43.38141,15.24992,859.2583],[43.35904,15.26581,912.6176],[43.33222,15.30555,713.6478],[43.32974,15.33304,954.6033],[43.3254,15.35594,697.0334],[43.32803,15.38842,926.9239],[43.32679,15.41707,936.8699],[43.32183,15.43386,968.11],[43.32106,15.45583,515.7509],[43.31635,15.46725,868.4966],[43.31387,15.50967,794.541],[43.2993,15.59685,269.6433],[43.3007,15.61024,248.0913],[43.30504,15.62024,233.6217],[43.31201,15.67835,338.2498],[43.30039,15.71085,455.9384],[43.30054,15.72932,687.1665],[43.3086,15.74317,849.3966],[43.31532,15.75992,547.5029],[43.32168,15.78526,595.4003],[43.32307,15.81697,652.6398],[43.31139,15.84446,585.6714],[43.28535,15.86355,322.528],[43.18262,15.85588,163.1257],[43.14396,15.84699,135.525],[43.12908,15.83673,123.9267],[43.10722,15.82619,113.0365],[43.06469,15.8288,91.8098],[42.9972,15.82017,64.3694],[42.83473,15.91396,-1.8639]]]]}}