{"type":"Feature","properties":{"GID_2":"YEM.5.11_1","GID_0":"YEM","country":"Yemen","GID_1":"YEM.5_1","province":"AlHudaydah","NL_NAME_1":"الحديده","county":"AlMina","VARNAME_2":"NA","NL_NAME_2":"الميناء","TYPE_2":"Muderiah","ENGTYPE_2":"District","CC_2":"1822","HASC_2":"NA","name":"Al_Mina.county"},
"geometry":{"type": "MultiPolygon","coordinates": [[[[42.9304,14.8271,0.1755],[42.9301,14.8321,0.0],[42.9215,14.8388,0.2069],[42.9235,14.8426,0.0],[42.9301,14.8474,0.0],[42.9332,14.8518,0.0],[42.9321,14.8518,0.0],[42.9293,14.8501,0.0],[42.924,14.8451,0.0],[42.921,14.8449,0.3484],[42.9171,14.8471,0.0],[42.9157,14.8524,0.0],[42.9124,14.8549,0.1275],[42.9126,14.8579,0.1687],[42.9149,14.8588,0.0],[42.9132,14.8632,0.0],[42.9157,14.8682,0.0],[42.924,14.8699,0.0],[42.9249,14.874,1.3459],[42.9235,14.8768,0.0],[42.9085,14.8699,0.2478],[42.9001,14.8721,0.0],[42.8999,14.8676,0.0],[42.8954,14.8657,0.0],[42.9068,14.8679,0.0],[42.9085,14.8671,0.5831],[42.9046,14.8568,0.0],[42.9051,14.8529,0.5459],[42.9021,14.8501,0.4338],[42.9012,14.8465,1.678],[42.8937,14.8485,1.3685],[42.8915,14.8651,0.0],[42.8846,14.8729,0.0],[42.8854,14.8779,0.0],[42.8871,14.879,0.0],[42.8849,14.8832,0.0],[42.8885,14.8835,0.0],[42.8851,14.8893,0.0],[42.8865,14.8954,0.0],[42.8996,14.8971,0.0],[42.8982,14.9001,0.0],[42.9024,14.9001,0.0],[42.9024,14.9015,0.0],[42.8882,14.9018,0.0],[42.889,14.9038,0.0],[42.8868,14.9049,0.0],[42.8879,14.9065,0.0],[42.8796,14.9115,0.5784],[42.8821,14.9146,0.3101],[42.8871,14.9149,2.2007],[42.8882,14.9163,1.215],[42.891,14.9154,0.0],[42.891,14.9129,0.0],[42.8926,14.9129,0.0],[42.8926,14.9174,0.0],[42.8821,14.9154,0.3101],[42.879,14.9193,0.271],[42.8829,14.9193,0.0],[42.8824,14.9221,0.0],[42.8757,14.9238,0.0],[42.8701,14.9149,1.0929],[42.8707,14.9115,1.5859],[42.8688,14.9082,0.0],[42.8693,14.8926,1.1294],[42.8779,14.8749,0.9672],[42.8788,14.8621,0.0],[42.8821,14.8543,0.0],[42.8849,14.8546,0.7283],[42.8863,14.8513,0.0],[42.9143,14.8285,0.0],[42.9182,14.8279,1.2064],[42.9185,14.8235,0.5003],[42.921,14.8213,1.4574],[42.921,14.811,0.0],[42.931,14.8054,0.7838],[42.9407,14.796,2.2902],[42.9407,14.7901,0.0],[42.9437,14.7877,0.8431],[42.9469,14.7877,9.0544],[42.9452,14.7908,12.7112],[42.9462,14.7974,8.6979],[42.9512,14.7971,9.2582],[42.9525,14.7997,7.6271],[42.9552,14.7998,10.6262],[42.956,14.81,7.8233],[42.9502,14.8098,6.884],[42.9431,14.8179,4.2111],[42.9332,14.8124,0.0],[42.9274,14.8129,1.7942],[42.9251,14.8154,1.7109],[42.9249,14.8196,0.9214],[42.9271,14.8254,0.8568],[42.9293,14.8246,0.4153],[42.9304,14.8271,0.1755]]],
[[[42.8893,14.8754,0.0],[42.8879,14.8726,0.0],[42.8913,14.8735,0.0],[42.8985,14.871,0.0],[42.8971,14.8743,0.0],[42.8893,14.8754,0.0]]]]}}