{"type":"Feature","properties":{"GID_2":"YEM.17.3_1","GID_0":"YEM","country":"Yemen","GID_1":"YEM.17_1","province":"Raymah","NL_NAME_1":"ريمة","county":"AsSalafiyah","VARNAME_2":"NA","NL_NAME_2":"السلفية","TYPE_2":"Muderiah","ENGTYPE_2":"District","CC_2":"3103","HASC_2":"NA","name":"As_Salafiyah.county"},
"geometry":{"type": "MultiPolygon","coordinates": [[[[43.7547,14.8397,862.5012],[43.7472,14.8421,801.6764],[43.7073,14.7862,1540.459],[43.7325,14.7541,1594.1511],[43.7405,14.7204,1814.6664],[43.7418,14.6975,1701.3839],[43.7452,14.6943,1662.1798],[43.7508,14.6921,1789.4624],[43.7643,14.6671,1463.9156],[43.77,14.6508,1728.408],[43.7645,14.6443,1415.4612],[43.769,14.6367,1293.3318],[43.778,14.6291,1553.0156],[43.7848,14.6128,1689.8032],[43.7915,14.6052,1859.6113],[43.8005,14.6009,1877.0612],[43.8039,14.5955,1749.8456],[43.7906,14.5792,1214.6188],[43.7906,14.5723,1190.6721],[43.7943,14.5555,1058.7761],[43.7971,14.5494,1030.228],[43.8003,14.549,1103.0525],[43.8185,14.5561,1202.0231],[43.8287,14.5626,1237.9106],[43.8409,14.5594,1497.0923],[43.8503,14.5637,1358.2542],[43.8595,14.561,1163.3591],[43.8652,14.5573,1115.5966],[43.8724,14.5462,1116.2814],[43.8843,14.5377,1098.8993],[43.8894,14.531,1096.8864],[43.8909,14.5313,1119.3862],[43.8956,14.5454,1177.5295],[43.9061,14.5504,1088.0613],[43.9125,14.5658,1138.7552],[43.9244,14.5809,1180.8572],[43.929,14.5941,1202.3292],[43.9356,14.5975,1187.724],[43.936,14.6037,1251.6483],[43.9296,14.6042,1299.5443],[43.9223,14.612,1392.6311],[43.92,14.6247,1242.6343],[43.9109,14.6297,1279.17],[43.9025,14.6399,1290.3845],[43.9001,14.6599,1214.968],[43.9069,14.6694,1213.1469],[43.9085,14.674,1226.9723],[43.891,14.6922,1191.2133],[43.879,14.7172,1125.3002],[43.8595,14.7296,1056.7209],[43.8357,14.7523,1012.059],[43.8264,14.7544,967.5541],[43.7919,14.7835,962.7756],[43.7692,14.8099,894.4832],[43.7566,14.8329,893.2577],[43.7547,14.8397,862.5012]]]]}}