{"type":"Feature","properties":{"GID_1":"YEM.10_1","GID_0":"YEM","country":"Yemen","province":"Amran","VARNAME_1":"'Amran","NL_NAME_1":"عمران","TYPE_1":"Muhafazah","ENGTYPE_1":"Governorate","CC_1":"29","HASC_1":"YE.AM","ISO_1":"NA","name":"Amran.province"},
"geometry":{"type": "MultiPolygon","coordinates": [[[[43.7884,15.5706,3055.5154],[43.8,15.5671,3197.7539],[43.8106,15.5598,3136.353],[43.8123,15.5614,3141.9177],[43.8254,15.5593,3118.7593],[43.8324,15.5537,2803.5566],[43.8366,15.5482,2838.8323],[43.8548,15.5443,2780.29],[43.8709,15.5387,2603.0564],[43.8753,15.5348,2598.8562],[43.9011,15.5343,2573.5349],[43.9101,15.5422,2566.3032],[43.9172,15.552,2535.4946],[43.9161,15.5648,2619.9185],[43.912,15.5773,2737.8584],[43.925,15.5854,2416.2258],[43.9381,15.5973,2313.0095],[43.9541,15.6056,2366.1353],[43.9578,15.6056,2351.8677],[43.9616,15.6029,2326.4932],[43.9617,15.5965,2409.5479],[43.9561,15.5846,2467.7705],[43.9561,15.5709,2471.1401],[43.9618,15.5609,2496.8755],[43.9666,15.5573,2500.8435],[43.9998,15.5627,2633.2656],[44.0246,15.5731,2639.0537],[44.0449,15.5856,2643.9194],[44.0624,15.6185,2607.5281],[44.0778,15.6277,2555.3777],[44.0839,15.6411,2578.2473],[44.0949,15.6382,2593.3657],[44.1037,15.6439,2666.7964],[44.1076,15.6487,2619.2341],[44.107,15.6569,2585.041],[44.1009,15.6765,2588.9031],[44.0964,15.7183,2603.5845],[44.0987,15.728,2615.2666],[44.1234,15.7519,2807.55],[44.1808,15.8267,2641.0266],[44.1823,15.8329,2625.6074],[44.1772,15.8407,2626.855],[44.1489,15.8716,2682.2644],[44.1478,15.9082,2411.3516],[44.1625,15.9334,2667.072],[44.1659,15.9584,2235.3103],[44.1562,15.9855,1906.8391],[44.1574,15.9939,2143.6411],[44.1626,15.9961,1811.4062],[44.1772,15.9944,1657.0295],[44.1943,15.9958,1624.3894],[44.2093,15.9938,1612.8201],[44.221,15.9951,1611.167],[44.2551,16.0153,1537.4929],[44.2605,16.0228,1532.3014],[44.2585,16.0265,1522.2048],[44.2585,16.032,1521.8979],[44.3258,16.0311,1452.9495],[44.3379,16.0366,1384.9775],[44.3495,16.0455,1741.8979],[44.3414,16.0915,1634.3715],[44.2846,16.1338,1557.6853],[44.2711,16.1891,1363.3799],[44.285,16.2351,1513.9177],[44.2984,16.288,1263.9771],[44.3055,16.296,1267.8696],[44.3004,16.3068,1279.3196],[44.283,16.3058,1308.5468],[44.2789,16.2929,1288.5129],[44.2708,16.2939,1335.1782],[44.2656,16.3018,1363.1891],[44.2601,16.4035,1667.5214],[44.2732,16.453,1488.7219],[44.2802,16.4888,1409.1152],[44.2789,16.4888,1408.4753],[44.2765,16.5046,1360.7939],[44.2724,16.5084,1363.6685],[44.2637,16.522,1362.1989],[44.2643,16.5277,1355.2041],[44.2606,16.5349,1358.5491],[44.2573,16.5356,1360.6487],[44.2632,16.5366,1358.9385],[44.2612,16.5385,1360.7983],[44.2673,16.5388,1361.9143],[44.2686,16.5406,1364.5881],[44.2347,16.5567,1401.717],[44.2275,16.5621,1438.5009],[44.2042,16.5874,1481.1029],[44.1865,16.6235,1512.4375],[44.1713,16.6503,1565.6267],[44.1681,16.6511,1547.3538],[44.1489,16.6441,1522.7264],[44.1234,16.6417,1518.3202],[44.109,16.6447,1530.2769],[44.0953,16.6539,1529.2109],[43.9953,16.6534,1631.597],[43.8652,16.6653,1890.424],[43.8229,16.676,1819.8317],[43.7854,16.6899,1863.8198],[43.7383,16.6912,1771.7872],[43.7243,16.6874,1625.4399],[43.7144,16.6791,1674.5138],[43.6698,16.6536,1465.8301],[43.5814,16.6434,1604.0308],[43.5317,16.6299,1538.5714],[43.5322,16.5437,1150.5862],[43.5397,16.445,1068.7056],[43.5185,16.403199999999998,853.1341],[43.5108,16.3739,888.7546],[43.5173,16.3175,1157.2158],[43.529,16.3051,1133.1534],[43.5187,16.2789,1130.063],[43.5149,16.2553,1106.5564],[43.515,16.2449,1126.0978],[43.5163,16.2374,1194.7188],[43.5259,16.2348,1132.8019],[43.5456,16.2181,1246.8281],[43.5653,16.1958,1217.0403],[43.5667,16.1929,1281.1083],[43.5668,16.1694,1128.6387],[43.5759,16.0973,1192.8633],[43.5915,16.0806,1068.2632],[43.5965,16.071,1032.0803],[43.598,16.0583,1020.4293],[43.6023,16.0424,967.8152],[43.6202,16.0249,1015.8415],[43.6258,16.0146,991.1111],[43.6244,16.001,954.2187],[43.6167,15.9913,932.5519],[43.6031,15.9844,935.0966],[43.5846,15.9779,860.0338],[43.5784,15.9739,913.8986],[43.5784,15.9635,819.3411],[43.5766,15.9596,813.2542],[43.5779,15.9494,701.5197],[43.5819,15.9419,685.0858],[43.5866,15.9385,794.1524],[43.5923,15.9354,798.2699],[43.599,15.9365,825.9585],[43.6195,15.9641,980.8181],[43.6286,15.9792,944.5394],[43.6407,15.9932,933.5193],[43.6448,15.994,958.1624],[43.6512,15.9889,982.5093],[43.6555,15.995,993.5568],[43.6555,15.9976,1020.1177],[43.6753,15.9967,1196.4229],[43.6961,15.9795,1116.7781],[43.6986,15.9753,1296.199],[43.6987,15.9676,1130.0886],[43.7012,15.9588,1150.9386],[43.7071,15.9474,1044.2854],[43.7086,15.9384,1125.2979],[43.7079,15.9269,1176.0631],[43.7038,15.911,1064.2427],[43.7117,15.8787,1196.5555],[43.7107,15.8628,1385.1775],[43.7127,15.8576,1389.3032],[43.7206,15.8565,1248.7554],[43.7295,15.8404,1206.7391],[43.7273,15.8375,1275.7297],[43.721,15.8117,1264.1453],[43.7177,15.8106,1232.3972],[43.718,15.8128,1248.6089],[43.715,15.8168,1226.8002],[43.7126,15.8176,1233.5933],[43.7083,15.8167,1215.8888],[43.7069,15.8111,1264.5795],[43.7071,15.8066,1326.8606],[43.712,15.7979,1357.0399],[43.7106,15.793,1382.3575],[43.7144,15.7889,1333.4219],[43.7181,15.7795,1433.6906],[43.7171,15.768,1581.8031],[43.7109,15.7536,1692.7441],[43.7314,15.754,1564.6937],[43.7454,15.7439,1720.2463],[43.7511,15.7426,1785.9871],[43.754,15.7341,1975.9285],[43.7531,15.73,2009.9318],[43.7488,15.7257,2080.8469],[43.7373,15.7186,2161.3401],[43.729,15.7075,2546.7495],[43.7267,15.702,2368.8884],[43.7266,15.6945,2194.1465],[43.7287,15.6928,2069.9919],[43.7274,15.6817,2142.092],[43.7286,15.6696,2171.4312],[43.7341,15.6627,2361.3218],[43.7352,15.6577,2248.946],[43.7254,15.6566,2137.8264],[43.7206,15.6531,1882.0381],[43.709,15.6558,1807.139],[43.7002,15.6607,1494.4521],[43.692,15.6577,1730.2589],[43.6863,15.6639,1397.8021],[43.6756,15.6656,1387.9492],[43.6656,15.6635,1377.2566],[43.6588,15.6573,1457.5977],[43.6558,15.6566,1491.0553],[43.6469,15.6476,1601.8413],[43.6401,15.6309,1986.1338],[43.6413,15.6005,1831.3363],[43.6509,15.5928,1883.6655],[43.658,15.5896,2092.5854],[43.6656,15.5887,1875.1698],[43.669,15.5858,1938.8495],[43.6677,15.5782,1836.527],[43.6505,15.5619,1259.8488],[43.6476,15.5562,1207.0623],[43.6356,15.543,1065.1536],[43.6332,15.5367,1000.3264],[43.6357,15.5341,1056.8999],[43.647,15.5316,1126.3601],[43.668,15.5426,1352.4666],[43.668,15.5466,1398.0977],[43.675,15.5534,1272.4735],[43.6772,15.5534,1274.2048],[43.6926,15.5484,1302.8115],[43.7016,15.548,1570.8591],[43.7142,15.5326,1524.22],[43.7296,15.532,1513.7584],[43.7322,15.5348,1554.2141],[43.732,15.5452,1892.9586],[43.7346,15.5469,1719.4149],[43.7536,15.5412,1740.0439],[43.7619,15.5409,1917.655],[43.7731,15.548,2282.4783],[43.7763,15.5508,2668.853],[43.7773,15.5662,2909.7004],[43.7812,15.57,2786.0229],[43.7884,15.5706,3055.5154]]]]}}