{"type":"Feature","properties":{"ISO3166-1-Alpha-3":"YEM","country":"Yemen","fill":"#F0F","id":"155","name":"Amran"},
"geometry":{"type": "Polygon","coordinates": [[[44.1177,16.6109,1589.6085],[44.07517,16.61183,1800.2698],[44.03001,16.62064,1701.7253],[43.92774,16.66149,1747.7845],[43.85684,16.67852,1829.0195],[43.81793,16.67898,1787.0032],[43.79167,16.67092,1861.7166],[43.77741,16.66102,1765.9766],[43.7493,16.64627,1895.0452],[43.72977,16.63862,1920.9803],[43.5999,16.60852,1560.7518],[43.59551,16.4361,1335.8118],[43.61044,16.29926,1234.9553],[43.60734,16.28293,1256.7177],[43.60579,16.2611,1463.3691],[43.60595,16.24345,1223.6802],[43.60936,16.22914,1246.7156],[43.60858,16.21415,1200.3223],[43.61463,16.20348,1232.4564],[43.64486,16.18359,1426.8488],[43.65623,16.16609,1287.2676],[43.65483,16.13648,1315.9241],[43.65871,16.1116,1292.8489],[43.65995,16.08917,1077.3853],[43.69902,16.01189,995.1952],[43.6984,15.99768,938.6826],[43.6891,15.98667,872.05],[43.67576,15.97745,914.8146],[43.66553,15.96859,939.1168],[43.65995,15.95804,1153.533],[43.65654,15.94758,884.4559],[43.66817,15.93662,1112.3262],[43.67995,15.93879,922.7839],[43.71829,15.98156,984.4332],[43.72759,15.98556,985.6261],[43.73783,15.98032,1120.9111],[43.75023,15.97008,1286.3929],[43.77524,15.93073,1207.4073],[43.78516,15.89296,1258.4963],[43.79167,15.85337,1844.991],[43.78749,15.83402,2082.9751],[43.78454,15.79798,1714.9475],[43.79043,15.77361,2271.2378],[43.79214,15.75439,2036.9681],[43.8095,15.73969,2360.9204],[43.81669,15.73051,2559.8386],[43.81121,15.69418,2643.1521],[43.80408,15.66726,2864.8035],[43.79353,15.65504,3215.4729],[43.77834,15.65204,3082.7344],[43.75969,15.65607,2899.3794],[43.74356,15.65499,2425.3081],[43.73023,15.64739,1991.7911],[43.72186,15.63824,2190.4116],[43.71659,15.62814,2678.7214],[43.71349,15.61434,2568.2397],[43.71318,15.60106,2209.7451],[43.72697,15.57721,2091.532],[43.72527,15.56375,2168.8423],[43.70527,15.52629,1560.7938],[43.72868,15.52846,1565.6904],[43.74713,15.53481,1936.4758],[43.79912,15.53282,2773.4263],[43.8432,15.55068,2957.1763],[43.86257,15.56368,2650.4653],[43.88076,15.56112,2706.7422],[43.89472,15.55623,2636.5447],[43.90355,15.54443,2582.5356],[43.92138,15.53334,2589.1523],[43.98422,15.50474,2596.2192],[43.99528,15.53001,2600.406],[43.99388,15.54572,2547.1133],[44.00753,15.55944,2625.5679],[44.04582,15.55639,2566.7881],[44.07858,15.5605,2398.8784],[44.10638,15.57458,2466.0688],[44.16721,15.62062,2364.803],[44.1779,15.66225,2446.3398],[44.17961,15.70827,2573.0244],[44.19806,15.73343,2578.2744],[44.22648,15.75454,2553.6553],[44.24803,15.78255,2452.4966],[44.25283,15.80141,2453.1362],[44.25392,15.82304,2514.8335],[44.24648,15.84224,2403.144],[44.24043,15.87022,2247.9678],[44.23609,15.92515,1945.0992],[44.24384,15.95063,1952.8776],[44.25454,15.97381,2048.2678],[44.31257,16.00331,2131.3752],[44.3706,16.02455,1432.298],[44.42585,16.02827,1273.1218],[44.40104,16.05574,1367.5931],[44.368899999999996,16.1108,1283.4016],[44.36363,16.13739,1226.587],[44.36208,16.16839,1329.2458],[44.35247,16.1955,1220.3923],[44.37464,16.25989,1258.8829],[44.37278,16.27521,1240.3378],[44.36657,16.28454,1250.8113],[44.36177,16.29717,1257.8906],[44.36735,16.31541,1278.4894],[44.36936,16.33523,1276.3739],[44.36611,16.35745,1504.9319],[44.35185,16.38197,1635.1051],[44.34316,16.40766,1389.5803],[44.33464,16.44499,1319.3541],[44.32001,16.47336,1370.2838],[44.32032,16.49091,1317.8425],[44.32937,16.50266,1325.0723],[44.33495,16.51767,1348.7566],[44.3289,16.5339,1365.5112],[44.31428,16.54902,1377.7638],[44.25609,16.59054,1500.6616],[44.24043,16.59782,1435.5356],[44.18876,16.63147,1548.7721],[44.1177,16.6109,1589.6085]]]}}