{"type":"Feature","properties":{"GID_2":"YEM.5.1_1","GID_0":"YEM","country":"Yemen","GID_1":"YEM.5_1","province":"AlHudaydah","NL_NAME_1":"الحديده","county":"AdDahi","VARNAME_2":"NA","NL_NAME_2":"الضحي","TYPE_2":"Muderiah","ENGTYPE_2":"District","CC_2":"1809","HASC_2":"NA","name":"Ad_Dahi.county"},
"geometry":{"type": "MultiPolygon","coordinates": [[[[43.163,15.2548,121.8129],[43.1319,15.2551,112.9002],[43.1051,15.2595,95.165],[43.0891,15.2584,87.2357],[43.0742,15.2484,80.5299],[43.0525,15.2243,68.2668],[43.0285,15.2137,58.1858],[43.0007,15.1822,48.1252],[42.9848,15.1595,43.6191],[42.9857,15.1532,44.3578],[43.0174,15.1542,50.4272],[43.0291,15.1616,56.6307],[43.034,15.1739,58.3082],[43.0391,15.1797,59.9664],[43.0555,15.1908,65.0853],[43.0703,15.1947,70.3585],[43.1079,15.1874,85.0162],[43.154,15.1856,112.7066],[43.1758,15.1888,128.2236],[43.2077,15.2057,155.9167],[43.2225,15.2119,165.1677],[43.2358,15.2196,180.6305],[43.2419,15.228,182.1338],[43.2528,15.2319,190.0884],[43.2599,15.2312,196.7355],[43.2623,15.2274,201.0926],[43.2623,15.2206,203.6346],[43.2835,15.2086,228.2268],[43.3242,15.1968,272.0938],[43.3494,15.1719,339.163],[43.3604,15.1651,476.0346],[43.3779,15.1627,332.3484],[43.3916,15.1627,496.7484],[43.4022,15.1734,571.8531],[43.3851,15.1934,311.5923],[43.3629,15.194,349.103],[43.3594,15.1961,398.8278],[43.359,15.22,358.2936],[43.3478,15.2194,320.4726],[43.3344,15.2229,337.8188],[43.3276,15.2339,328.3498],[43.322,15.2361,357.5576],[43.3097,15.236,347.9742],[43.3038,15.2482,507.1321],[43.2794,15.2786,253.5525],[43.2731,15.2933,219.1951],[43.2681,15.291,208.5343],[43.2394,15.2627,158.5593],[43.1769,15.2549,129.2819],[43.163,15.2548,121.8129]]]]}}