{"type":"Feature","properties":{"GID_2":"YEM.2.5_1","GID_0":"YEM","country":"Yemen","GID_1":"YEM.2_1","province":"Abyan","NL_NAME_1":"أبين","county":"Khanfir","VARNAME_2":"NA","NL_NAME_2":"خنفر","TYPE_2":"Muderiah","ENGTYPE_2":"District","CC_2":"1211","HASC_2":"NA","name":"Khanfir.county"},
"geometry":{"type": "MultiPolygon","coordinates": [[[[45.096,12.9402,2.6858],[45.0988,12.9403,0.0],[45.1054,12.9518,0.6834],[45.1115,12.9579,0.0],[45.1124,12.9613,1.9174],[45.1382,12.9849,0.0],[45.1679,13.0018,2.1413],[45.199,13.0149,2.161],[45.2062,13.016,0.3617],[45.2137,13.021,2.5515],[45.2188,13.0213,2.0497],[45.2315,13.0268,3.2257],[45.2474,13.0301,1.1534],[45.254,13.0332,2.908],[45.3088,13.0438,4.2337],[45.3526,13.0493,1.3226],[45.3551,13.0518,2.355],[45.3713,13.0562,1.8387],[45.3724,13.0588,2.0931],[45.3737,13.0588,2.0931],[45.3746,13.0557,0.41],[45.3768,13.0554,0.0],[45.3812,13.0593,1.4639],[45.3838,13.0588,1.1708],[45.3846,13.0613,1.7865],[45.3863,13.0607,1.7865],[45.3871,13.0643,1.4629],[45.3904,13.0632,0.0],[45.3935,13.0688,2.4198],[45.4021,13.0732,0.0],[45.4049,13.0771,2.6612],[45.3591,13.1301,20.6986],[45.3622,13.1409,24.8818],[45.3592,13.1476,26.9384],[45.4617,13.1926,10.8049],[45.4957,13.1926,0.0],[45.5207,13.2268,0.0],[45.5604,13.2685,0.7747],[45.5926,13.2974,0.8045],[45.6174,13.3171,0.0],[45.6329,13.3335,2.008],[45.646,13.3429,0.3501],[45.659,13.3499,1.2191],[45.6754,13.3549,1.0624],[45.7101,13.3557,1.2491],[45.7335,13.3624,1.124],[45.7396,13.3674,4.5621],[45.7438,13.3665,0.0],[45.7557,13.3699,1.7946],[45.764,13.3699,0.4983],[45.7735,13.3743,1.8716],[45.7796,13.374,1.7579],[45.7849,13.3774,1.5929],[45.7965,13.3799,0.0],[45.8029,13.3832,1.3427],[45.8146,13.3832,0.8231],[45.8299,13.3876,1.6476],[45.8368,13.3876,2.3463],[45.8649,13.3982,1.7122],[45.8718,13.3954,0.0],[45.876,13.3974,5.608],[45.8829,13.3951,0.5901],[45.8999,13.3971,3.5538],[45.9082,13.3965,0.9213],[45.9151,13.401,3.6083],[45.9385,13.4068,0.0],[45.9685,13.4076,1.9142],[45.9888,13.4154,0.0],[46.0093,13.4176,1.4449],[46.0182,13.4201,1.5834],[46.0412,13.4201,1.6217],[46.0726,13.4135,0.0],[46.0849,13.414,1.9423],[46.0921,13.4174,5.0499],[46.0949,13.4154,0.0],[46.099,13.4154,0.0],[46.101,13.4176,5.881],[46.1199,13.4179,1.0244],[46.131,13.4215,2.1605],[46.1471,13.4218,0.7847],[46.159,13.4199,0.0],[46.179,13.4254,0.0],[46.1846,13.4257,2.6818],[46.186,13.4243,0.4247],[46.1954,13.4265,0.0],[46.2068,13.4263,0.7871],[46.2199,13.4312,3.8205],[46.249,13.434,4.4539],[46.264,13.4312,0.0],[46.2735,13.4324,5.135],[46.2857,13.4279,0.4205],[46.2888,13.4282,1.0912],[46.291,13.426,0.636],[46.2938,13.4263,1.9372],[46.2968,13.4232,0.0],[46.2999,13.4254,1.1701],[46.319,13.424,3.5495],[46.339,13.4199,0.0],[46.3413,13.4176,0.3736],[46.349,13.4179,2.3774],[46.3518,13.414,1.7744],[46.3701,13.4151,0.0],[46.3732,13.4129,1.2134],[46.3729,13.4104,0.0],[46.3768,13.4146,1.8667],[46.3832,13.4146,0.6891],[46.3899,13.4176,2.3504],[46.3982,13.4182,0.0],[46.3644,13.4759,76.3135],[46.3369,13.5317,230.279],[46.3249,13.5767,485.8125],[46.3252,13.6261,597.5406],[46.3417,13.6886,803.0453],[46.3512,13.7355,430.0825],[46.2886,13.7358,475.0497],[46.1735,13.7318,812.2373],[46.1505,13.6872,1095.3535],[46.1051,13.6488,1190.6309],[46.0373,13.6215,1073.8225],[45.9694,13.5886,1109.6174],[45.9258,13.5902,1023.4363],[45.894,13.5466,1136.4072],[45.8106,13.4848,1049.439],[45.7885,13.5065,863.8281],[45.7754,13.5083,818.6741],[45.7686,13.4984,792.9445],[45.7409,13.5173,700.4589],[45.7328,13.5393,603.1833],[45.7213,13.5498,803.8965],[45.699,13.581,657.1504],[45.6491,13.601,714.6672],[45.6411,13.5998,609.1362],[45.5844,13.6065,798.5988],[45.51,13.58,844.47],[45.5084,13.5734,729.0677],[45.472,13.5251,564.6144],[45.4658,13.5036,911.8509],[45.4291,13.4786,621.8671],[45.3887,13.4607,505.4428],[45.3594,13.4392,456.9447],[45.2975,13.41,418.6244],[45.2793,13.4137,358.626],[45.2655,13.3631,193.6692],[45.2006,13.3317,362.7462],[45.1954,13.3253,255.8971],[45.1886,13.2821,142.6381],[45.1703,13.2017,152.2229],[45.1292,13.1302,105.1836],[45.0928,13.0856,24.9396],[45.0677,13.0672,27.8304],[45.0658,13.0407,25.5298],[45.0733,13.0078,14.967],[45.0881,12.9773,7.4334],[45.0881,12.9413,2.5267],[45.096,12.9402,2.6858]]],
[[[46.3986,13.4182,0.0],[46.3985,13.4184,0.0],[46.3985,13.4182,0.0],[46.3986,13.4182,0.0]]]]}}