{"type":"Feature","properties":{"GID_2":"YEM.10.20_1","GID_0":"YEM","country":"Yemen","GID_1":"YEM.10_1","province":"Amran","NL_NAME_1":"عمران","county":"Thula","VARNAME_2":"NA","NL_NAME_2":"ثلاء","TYPE_2":"Muderiah","ENGTYPE_2":"District","CC_2":"2917","HASC_2":"NA","name":"Thula.county"},
"geometry":{"type": "MultiPolygon","coordinates": [[[[43.8106,15.5598,3136.353],[43.8123,15.5614,3141.9177],[43.8254,15.5593,3118.7593],[43.8324,15.5537,2803.5566],[43.8366,15.5482,2838.8323],[43.8548,15.5443,2780.29],[43.8709,15.5387,2603.0564],[43.8753,15.5348,2598.8562],[43.8788,15.5342,2632.5586],[43.9011,15.5343,2573.5349],[43.9101,15.5422,2566.3032],[43.9172,15.552,2535.4946],[43.9161,15.5648,2619.9185],[43.912,15.5775,2737.8584],[43.8985,15.5975,2592.9912],[43.8932,15.6271,2677.3503],[43.8884,15.6284,2568.3735],[43.8778,15.638,2301.2964],[43.8651,15.6263,2706.9756],[43.8469,15.6253,2624.6655],[43.8266,15.6311,3069.5879],[43.8134,15.6329,2918.1924],[43.8012,15.6535,3095.5684],[43.7956,15.6678,3037.3455],[43.7879,15.6662,2971.1277],[43.7819,15.6612,3108.6582],[43.7799,15.6465,3093.7156],[43.7749,15.6435,2939.603],[43.7459,15.6439,2381.2717],[43.7359,15.6362,2736.551],[43.7332,15.6313,2798.3069],[43.7332,15.6257,2782.21],[43.7344,15.6205,2747.6748],[43.743,15.6127,2754.0986],[43.7403,15.6011,2592.0803],[43.7404,15.5929,2504.8042],[43.7451,15.5708,2247.2322],[43.7518,15.5567,1802.4811],[43.7501,15.542,1780.0413],[43.7619,15.5409,1917.655],[43.7763,15.5508,2668.853],[43.7773,15.5662,2909.7004],[43.7812,15.57,2786.0229],[43.7857,15.5711,3037.8789],[43.8,15.5671,3197.7539],[43.8106,15.5598,3136.353]]]]}}