{"type":"Feature","properties":{"GID_2":"YEM.10.5_1","GID_0":"YEM","country":"Yemen","GID_1":"YEM.10_1","province":"Amran","NL_NAME_1":"عمران","county":"AsSawd","VARNAME_2":"NA","NL_NAME_2":"السود","TYPE_2":"Muderiah","ENGTYPE_2":"District","CC_2":"2914","HASC_2":"NA","name":"As_Sawd.county"},
"geometry":{"type": "MultiPolygon","coordinates": [[[[43.768,15.742,2144.2881],[43.7945,15.7555,2096.8674],[43.7955,15.7584,2090.9165],[43.8097,15.7585,2045.6172],[43.8259,15.7537,2462.6018],[43.8401,15.7538,2669.9456],[43.8451,15.7587,2629.0044],[43.8471,15.7695,2665.1838],[43.8288,15.789,2315.3096],[43.8155,15.8096,1789.1538],[43.8113,15.8213,1572.3927],[43.8103,15.8311,1445.9624],[43.8142,15.8439,1540.428],[43.803,15.8664,1304.0847],[43.7916,15.8827,1217.8878],[43.7855,15.8768,1444.8279],[43.7791,15.8767,1203.2261],[43.7752,15.8831,1130.1377],[43.7716,15.8849,1132.9022],[43.7657,15.884,1112.2174],[43.7617,15.8776,1100.3428],[43.7561,15.8771,1097.2412],[43.7535,15.8769,1107.7903],[43.7512,15.8835,1072.8556],[43.7402,15.8828,1103.6624],[43.7402,15.8781,1140.8616],[43.7386,15.8765,1140.1274],[43.7217,15.8816,1044.1127],[43.7156,15.8813,1051.8428],[43.7117,15.8787,1196.5555],[43.7107,15.8628,1385.1775],[43.7127,15.8576,1389.3032],[43.7206,15.8565,1248.7554],[43.7295,15.8404,1206.7391],[43.7273,15.8375,1275.7297],[43.721,15.8117,1264.1453],[43.7177,15.8106,1232.3972],[43.718,15.8128,1248.6089],[43.715,15.8168,1226.8002],[43.7126,15.8176,1233.5933],[43.7083,15.8167,1215.8888],[43.7069,15.8111,1264.5795],[43.7071,15.8066,1326.8606],[43.712,15.7979,1357.0399],[43.7106,15.793,1382.3575],[43.7144,15.7889,1333.4219],[43.7181,15.7795,1433.6906],[43.7171,15.768,1581.8031],[43.7109,15.7536,1692.7441],[43.7314,15.754,1564.6937],[43.7488,15.7426,1762.0742],[43.7511,15.7426,1785.9871],[43.756,15.7494,1703.2292],[43.7611,15.7494,1752.5012],[43.7672,15.7455,2010.5741],[43.768,15.742,2144.2881]]]]}}