{"type":"Feature","properties":{"GID_2":"YEM.7.7_1","GID_0":"YEM","country":"Yemen","GID_1":"YEM.7_1","province":"AlMahrah","NL_NAME_1":"المهره","county":"Qishn","VARNAME_2":"NA","NL_NAME_2":"قشن","TYPE_2":"Muderiah","ENGTYPE_2":"District","CC_2":"2808","HASC_2":"NA","name":"Qishn.county"},
"geometry":{"type": "MultiPolygon","coordinates": [[[[51.4521,16.041,438.1127],[51.4099,16.0499,527.6844],[51.2539,16.0648,538.5072],[51.0842,16.0646,725.832],[50.9909,16.0493,681.6856],[50.8519,16.0146,810.6196],[50.7863,15.9804,890.6196],[51.3343,15.6867,738.2484],[51.3807,15.6304,757.9526],[51.4619,15.5203,317.2948],[51.5407,15.4206,537.5215],[51.6228,15.3439,220.8852],[51.6419,15.3373,24.4952],[51.6546,15.3365,50.7356],[51.6554,15.3351,0.0],[51.6635,15.3385,0.0],[51.6643,15.3415,8.6074],[51.6615,15.3443,0.0],[51.6585,15.3449,26.3597],[51.6587,15.3485,0.0],[51.6526,15.3501,16.307],[51.649,15.3493,2.2694],[51.6437,15.3538,0.0],[51.6379,15.3554,43.2087],[51.636,15.3685,0.0],[51.6432,15.3893,1.5169],[51.6599,15.4024,1.2147],[51.6871,15.4168,0.6992],[51.7524,15.4421,1.3004],[51.7793,15.4507,2.6607],[51.7988,15.4546,0.0],[51.8196,15.461,3.2424],[51.8232,15.461,4.6202],[51.8346,15.4537,0.0],[51.8374,15.4488,5.7988],[51.8429,15.4468,0.0],[51.844,15.4438,37.5521],[51.8465,15.4429,0.0],[51.8479,15.4446,6.8756],[51.7356,15.6719,175.801],[51.689,15.7393,323.4939],[51.6347,15.8716,976.3195],[51.6162,16.0052,329.565],[51.4521,16.041,438.1127]]]]}}