{"type":"Feature","properties":{"GID_2":"YEM.21.5_1","GID_0":"YEM","country":"Yemen","GID_1":"YEM.21_1","province":"Ta`izz","NL_NAME_1":"تعز","county":"AlMudhaffar","VARNAME_2":"NA","NL_NAME_2":"المظفر","TYPE_2":"Muderiah","ENGTYPE_2":"District","CC_2":"1518","HASC_2":"NA","name":"Al_Mudhaffar.county"},
"geometry":{"type": "MultiPolygon","coordinates": [[[[43.9911,13.6058,1155.0164],[43.9635,13.5939,1157.2009],[43.9901,13.568,1303.9877],[44.0045,13.5623,1611.4849],[44.0177,13.5605,1650.6844],[44.0195,13.5655,1388.6678],[44.0219,13.5663,1441.1461],[44.0196,13.5693,1377.019],[44.0171,13.5693,1346.6031],[44.0139,13.5752,1297.8468],[44.0105,13.5779,1282.2668],[44.0078,13.5773,1291.283],[43.9911,13.6058,1155.0164]]]]}}