{"type":"Feature","properties":{"GID_1":"YEM.13_1","GID_0":"YEM","country":"Yemen","province":"Hajjah","VARNAME_1":"Hajja","NL_NAME_1":"حجه","TYPE_1":"Muhafazah","ENGTYPE_1":"Governorate","CC_1":"17","HASC_1":"YE.HJ","ISO_1":"YE-HJ","name":"Hajjah.province"},
"geometry":{"type": "MultiPolygon","coordinates": [[[[43.5585,15.5438,736.8941],[43.5802,15.5426,822.8173],[43.5837,15.5353,875.5979],[43.5924,15.5378,984.4224],[43.596,15.5408,835.375],[43.6067,15.5419,900.7194],[43.6132,15.5408,909.6506],[43.6173,15.535,909.0892],[43.6284,15.5313,937.1274],[43.6337,15.5358,1029.7407],[43.6356,15.543,1065.1536],[43.6476,15.5562,1207.0623],[43.6505,15.5619,1259.8488],[43.6677,15.5782,1836.527],[43.669,15.5858,1938.8495],[43.6656,15.5887,1875.1698],[43.658,15.5896,2092.5854],[43.6509,15.5928,1883.6655],[43.6413,15.6005,1831.3363],[43.6401,15.6309,1986.1338],[43.6469,15.6476,1601.8413],[43.6558,15.6566,1491.0553],[43.6588,15.6573,1457.5977],[43.6656,15.6635,1377.2566],[43.6756,15.6656,1387.9492],[43.6863,15.6639,1397.8021],[43.692,15.6577,1730.2589],[43.7002,15.6607,1494.4521],[43.709,15.6558,1807.139],[43.7206,15.6531,1882.0381],[43.7254,15.6566,2137.8264],[43.7352,15.6577,2248.946],[43.7341,15.6627,2361.3218],[43.7286,15.6696,2171.4312],[43.7274,15.6817,2142.092],[43.7287,15.6928,2069.9919],[43.7266,15.6945,2194.1465],[43.7267,15.702,2368.8884],[43.729,15.7075,2546.7495],[43.7373,15.7186,2161.3401],[43.7488,15.7257,2080.8469],[43.7531,15.73,2009.9318],[43.754,15.7341,1975.9285],[43.7511,15.7426,1785.9871],[43.7454,15.7439,1720.2463],[43.7314,15.754,1564.6937],[43.7109,15.7536,1692.7441],[43.7171,15.768,1581.8031],[43.7181,15.7795,1433.6906],[43.7144,15.7889,1333.4219],[43.7106,15.793,1382.3575],[43.712,15.7979,1357.0399],[43.7071,15.8066,1326.8606],[43.7069,15.8111,1264.5795],[43.7083,15.8167,1215.8888],[43.7126,15.8176,1233.5933],[43.715,15.8168,1226.8002],[43.718,15.8128,1248.6089],[43.7177,15.8106,1232.3972],[43.721,15.8117,1264.1453],[43.7273,15.8375,1275.7297],[43.7295,15.8404,1206.7391],[43.7206,15.8565,1248.7554],[43.7127,15.8576,1389.3032],[43.7107,15.8628,1385.1775],[43.7117,15.8787,1196.5555],[43.7038,15.911,1064.2427],[43.7079,15.9269,1176.0631],[43.7086,15.9384,1125.2979],[43.7071,15.9474,1044.2854],[43.7012,15.9588,1150.9386],[43.6987,15.9676,1130.0886],[43.6986,15.9753,1296.199],[43.6961,15.9795,1116.7781],[43.6753,15.9967,1196.4229],[43.6555,15.9976,1020.1177],[43.6555,15.995,993.5568],[43.6512,15.9889,982.5093],[43.6448,15.994,958.1624],[43.6407,15.9932,933.5193],[43.6286,15.9792,944.5394],[43.6195,15.9641,980.8181],[43.599,15.9365,825.9585],[43.5923,15.9354,798.2699],[43.5866,15.9385,794.1524],[43.5819,15.9419,685.0858],[43.5779,15.9494,701.5197],[43.5766,15.9596,813.2542],[43.5784,15.9635,819.3411],[43.5784,15.9739,913.8986],[43.5846,15.9779,860.0338],[43.6031,15.9844,935.0966],[43.6167,15.9913,932.5519],[43.6244,16.001,954.2187],[43.6258,16.0146,991.1111],[43.6202,16.0249,1015.8415],[43.6023,16.0424,967.8152],[43.598,16.0583,1020.4293],[43.5965,16.071,1032.0803],[43.5915,16.0806,1068.2632],[43.5759,16.0973,1192.8633],[43.5668,16.1694,1128.6387],[43.5667,16.1929,1281.1083],[43.5653,16.1958,1217.0403],[43.5456,16.2181,1246.8281],[43.5259,16.2348,1132.8019],[43.5163,16.2374,1194.7188],[43.515,16.2449,1126.0978],[43.5149,16.2553,1106.5564],[43.5187,16.2789,1130.063],[43.529,16.3051,1133.1534],[43.5173,16.3175,1157.2158],[43.5108,16.3739,888.7546],[43.5185,16.403199999999998,853.1341],[43.5397,16.445,1068.7056],[43.5322,16.5437,1150.5862],[43.5317,16.6299,1538.5714],[43.4741,16.6413,1405.3091],[43.4169,16.6448,1058.5854],[43.416,16.6434,1004.2659],[43.3986,16.6403,1090.0286],[43.3981,16.6295,805.0886],[43.3881,16.633,977.9357],[43.3808,16.6236,710.5516],[43.3682,16.6282,712.8151],[43.363,16.6217,783.3202],[43.3491,16.6159,701.4069],[43.3235,16.6103,705.9236],[43.3125,16.6107,471.6378],[43.3046,16.609,382.3073],[43.2917,16.6161,698.9072],[43.2697,16.6318,490.5773],[43.2625,16.6302,445.5381],[43.2498,16.6355,324.3145],[43.2464,16.6347,269.8176],[43.2305,16.6422,275.0075],[43.2269,16.6417,231.6396],[43.2236,16.6479,242.5496],[43.2062,16.6476,207.0559],[43.1929,16.6538,209.4281],[43.1574,16.6656,176.2326],[43.1557,16.6666,200.1214],[43.1516,16.6773,201.0491],[43.1496,16.6737,167.0916],[43.1286,16.6715,146.7834],[43.1408,16.655,161.954],[43.1463,16.6364,206.9762],[43.1444,16.6286,197.4247],[43.1393,16.622,169.2287],[43.1422,16.6054,177.5278],[43.1398,16.5966,187.7324],[43.1295,16.5926,144.9258],[43.131,16.5842,143.9107],[43.1297,16.5739,142.5381],[43.1264,16.5747,131.8755],[43.1207,16.5286,144.0643],[43.0762,16.5284,94.0365],[43.0672,16.5297,87.0713],[43.0588,16.5252,81.2128],[42.9922,16.5217,69.0002],[42.9835,16.5153,70.1475],[42.975,16.5123,67.4171],[42.9582,16.5025,64.9525],[42.9503,16.497,63.9283],[42.9448,16.4898,60.453],[42.9373,16.4414,54.3366],[42.95,16.4076,58.5806],[42.9565,16.4021,63.0018],[42.9498,16.3995,58.3104],[42.9316,16.3988,50.9728],[42.9233,16.3947,48.5171],[42.9098,16.3925,42.6156],[42.8898,16.3817,32.5817],[42.8717,16.3747,26.6123],[42.8526,16.37,21.6288],[42.8277,16.3688,14.2142],[42.8205,16.3647,10.7103],[42.8156,16.3666,8.808],[42.8075,16.374,4.6676],[42.7995,16.3777,1.6612],[42.7828,16.3787,0.8465],[42.7782,16.3692,0.63],[42.7737,16.3677,0.4372],[42.7746,16.3657,0.0],[42.7788,16.3662,0.2197],[42.7818,16.3646,0.5908],[42.7837,16.3596,0.4491],[42.7863,16.3582,1.7422],[42.7849,16.356,0.2444],[42.7968,16.3271,0.8688],[42.7971,16.324,1.1145],[42.7924,16.3115,0.0],[42.7965,16.2849,0.1821],[42.8051,16.2671,0.4938],[42.8037,16.2571,0.0],[42.8051,16.2451,1.1892],[42.8015,16.2365,0.0],[42.8107,16.219,1.0396],[42.8112,16.2143,1.2745],[42.8085,16.2121,0.5288],[42.8088,16.2099,0.5244],[42.8129,16.2082,0.8523],[42.8199,16.2001,0.0],[42.8251,16.1804,0.9722],[42.8187,16.1732,0.4399],[42.8168,16.1685,1.5299],[42.819,16.1612,0.6921],[42.8176,16.1549,0.0],[42.821,16.1482,0.9454],[42.8201,16.1404,0.0],[42.8179,16.1357,0.0],[42.8182,16.1301,0.0],[42.8249,16.119,0.7612],[42.8276,16.1057,0.0],[42.8293,16.1051,1.5981],[42.8293,16.0963,1.5],[42.826,16.0918,0.0],[42.8257,16.0882,0.0],[42.8354,16.0749,0.5306],[42.8374,16.0582,1.3475],[42.8363,16.0529,0.0],[42.8326,16.049,0.0],[42.8318,16.041,0.2887],[42.8354,16.0324,0.9168],[42.834,16.0287,0.0],[42.8343,16.0185,0.0],[42.8249,16.0021,0.0],[42.8232,15.9946,1.1603],[42.8229,15.9893,0.6253],[42.8276,15.9774,0.3568],[42.8274,15.9707,0.0],[42.8232,15.959,0.9243],[42.8246,15.9474,0.0],[42.8174,15.9296,0.0],[42.8185,15.9246,0.0],[42.8176,15.9046,0.0],[42.8154,15.9063,0.0],[42.8149,15.9051,0.0],[42.8154,15.9035,0.0],[42.8176,15.9032,0.4876],[42.8143,15.9013,0.0],[42.8165,15.8985,1.7261],[42.8143,15.8965,0.0],[42.8135,15.8857,0.5524],[42.8099,15.8846,0.0],[42.8135,15.8826,0.4906],[42.8135,15.8813,0.6563],[42.8092,15.8682,0.0],[42.8531,15.8427,13.0259],[42.862,15.8406,16.59],[42.8695,15.8272,20.4732],[42.8813,15.8191,24.4422],[42.8947,15.8198,27.4561],[42.902,15.8172,29.9007],[42.9278,15.8147,38.7521],[42.9458,15.8057,42.7768],[42.9664,15.814,51.4012],[43.012,15.8178,68.3768],[43.0402,15.8225,81.8566],[43.1301,15.8558,125.4472],[43.2208,15.8763,190.6943],[43.2391,15.874,239.5746],[43.2431,15.8692,217.8885],[43.245,15.8193,213.7286],[43.2397,15.7666,222.4087],[43.2355,15.7579,182.8202],[43.2238,15.7433,174.8739],[43.2139,15.7248,166.6545],[43.2148,15.712,171.6916],[43.2245,15.6986,173.174],[43.2365,15.6862,185.156],[43.2386,15.6812,186.4907],[43.2225,15.6204,183.7704],[43.2245,15.5902,241.9814],[43.2279,15.5703,319.4662],[43.2236,15.539,189.4986],[43.2233,15.5133,147.7805],[43.241,15.508,195.0892],[43.241,15.5113,188.27],[43.2428,15.5139,189.438],[43.2766,15.5148,605.79],[43.2966,15.5126,413.926],[43.3022,15.5186,634.8904],[43.3082,15.5216,790.9357],[43.3204,15.5318,351.2059],[43.3824,15.5351,724.447],[43.4028,15.5338,741.4724],[43.4151,15.5386,749.2465],[43.4376,15.5419,998.8744],[43.4477,15.5409,762.5458],[43.4606,15.5514,481.7672],[43.4719,15.5498,512.6625],[43.4844,15.5456,534.2367],[43.4991,15.5449,554.8484],[43.5064,15.5471,601.8475],[43.507,15.5535,650.8949],[43.5585,15.5438,736.8941]]],
[[[42.809,15.8726,0.0],[42.8099,15.8754,0.0],[42.8068,15.8757,0.0],[42.8074,15.874,0.0],[42.809,15.8726,0.0]]],
[[[42.8129,15.8915,0.0],[42.8104,15.8926,0.0],[42.8085,15.891,0.0],[42.8118,15.8882,0.0],[42.8129,15.8915,0.0]]],
[[[42.681,15.9593,0.0],[42.6821,15.9593,0.0],[42.6849,15.9615,0.0],[42.681,15.9604,0.0],[42.681,15.9593,0.0]]],
[[[42.6849,15.9624,0.0],[42.6826,15.9632,0.0],[42.6815,15.9615,0.0],[42.6821,15.9613,0.0],[42.6849,15.9624,0.0]]],
[[[42.6401,15.9663,0.0],[42.6387,15.9671,0.0],[42.6374,15.9654,0.0],[42.6385,15.9649,0.0],[42.6401,15.9663,0.0]]],
[[[42.6338,15.9907,0.0],[42.6299,15.9912,0.1983],[42.6293,15.9893,0.8122],[42.6315,15.9871,0.9697],[42.6357,15.9874,0.0],[42.636,15.9893,0.0],[42.6338,15.9907,0.0]]],
[[[42.596,16.0043,0.1564],[42.5962,16.0054,0.1564],[42.5938,16.0054,0.7856],[42.5851,16.0018,0.2658],[42.5865,15.9996,0.0],[42.5918,15.9996,0.0],[42.5926,16.0029,0.0],[42.596,16.0043,0.1564]]],
[[[42.826,16.0057,0.0],[42.8262,16.0071,0.0],[42.8249,16.004,0.0],[42.8257,16.0046,0.0],[42.826,16.0057,0.0]]],
[[[42.7099,16.0196,0.0],[42.7101,16.0207,0.0],[42.7079,16.0207,0.3536],[42.7043,16.0193,0.0],[42.7074,16.0187,0.0],[42.7099,16.0196,0.0]]],
[[[42.604,16.0251,0.5853],[42.6029,16.0265,0.3114],[42.6018,16.0237,0.0],[42.6029,16.0235,0.0],[42.604,16.0251,0.5853]]],
[[[42.6682,16.1707,0.0],[42.6665,16.171,0.0],[42.6679,16.1674,0.3615],[42.6721,16.1685,0.0],[42.6715,16.1699,0.0],[42.6682,16.1707,0.0]]]]}}