{"type":"Feature","properties":{"ISO3166-1-Alpha-3":"YEM","country":"Yemen","fill":"#00F","id":"154","name":"Hajjah"},
"geometry":{"type": "Polygon","coordinates": [[[43.41289,16.6133,1166.8292],[43.39227,16.6164,779.9302],[43.37423,16.62583,713.9479],[43.20618,16.67232,221.6901],[43.18568,16.68485,266.1032],[43.18608,16.68327,258.8707],[43.17998,16.66462,207.2424],[43.16293,16.66152,194.8242],[43.12277,16.6733,152.6025],[43.09776,16.67779,129.8169],[43.08495,16.67258,128.5288],[43.07998,16.65883,115.6034],[43.07864,16.63769,109.8777],[43.07461,16.61878,103.799],[43.04877,16.55346,84.6553],[43.03627,16.5363,80.5542],[43.01467,16.5207,77.6138],[42.97095,16.49579,77.6188],[42.95627,16.49073,62.3852],[42.91741,16.4838,48.3088],[42.90677,16.47936,43.1536],[42.90294,16.46628,42.9144],[42.90563,16.45109,43.8968],[42.90677,16.43492,41.681],[42.89819,16.4189,35.1824],[42.87245,16.40164,27.8395],[42.83731,16.38722,16.2663],[42.78949,16.37094,0.7827],[42.7907,16.36864,1.0646],[42.79884,16.35847,2.0769],[42.80177,16.35322,1.8295],[42.80299,16.34736,3.7245],[42.80307,16.34235,3.4439],[42.80258,16.33942,4.9131],[42.80177,16.34016,2.1582],[42.80763,16.31957,5.0445],[42.80885,16.31265,2.7827],[42.81275,16.23827,0.9902],[42.8401,16.09781,2.6697],[42.84327,16.05219,0.7378],[42.83481,15.91535,-1.8639],[42.83456,15.91406,-1.8639],[42.83473,15.91396,-1.8639],[42.9972,15.82017,64.3694],[43.06469,15.8288,91.8098],[43.10722,15.82619,113.0365],[43.12908,15.83673,123.9267],[43.14396,15.84699,135.525],[43.18262,15.85588,163.1257],[43.28535,15.86355,322.528],[43.31139,15.84446,585.6714],[43.32307,15.81697,652.6398],[43.32168,15.78526,595.4003],[43.31532,15.75992,547.5029],[43.3086,15.74317,849.3966],[43.30054,15.72932,687.1665],[43.30039,15.71085,455.9384],[43.31201,15.67835,338.2498],[43.30504,15.62024,233.6217],[43.3007,15.61024,248.0913],[43.2993,15.59685,269.6433],[43.31387,15.50967,794.541],[43.3701,15.52892,853.6531],[43.54528,15.54556,691.8903],[43.56636,15.54303,742.8529],[43.5876,15.54466,918.9711],[43.67886,15.53443,1268.5032],[43.70527,15.52629,1560.7938],[43.72527,15.56375,2168.8423],[43.72697,15.57721,2091.532],[43.71318,15.60106,2209.7451],[43.71349,15.61434,2568.2397],[43.71659,15.62814,2678.7214],[43.72186,15.63824,2190.4116],[43.73023,15.64739,1991.7911],[43.74356,15.65499,2425.3081],[43.75969,15.65607,2899.3794],[43.77834,15.65204,3082.7344],[43.79353,15.65504,3215.4729],[43.80408,15.66726,2864.8035],[43.81121,15.69418,2643.1521],[43.81669,15.73051,2559.8386],[43.8095,15.73969,2360.9204],[43.79214,15.75439,2036.9681],[43.79043,15.77361,2271.2378],[43.78454,15.79798,1714.9475],[43.78749,15.83402,2082.9751],[43.79167,15.85337,1844.991],[43.78516,15.89296,1258.4963],[43.77524,15.93073,1207.4073],[43.75023,15.97008,1286.3929],[43.73783,15.98032,1120.9111],[43.72759,15.98556,985.6261],[43.71829,15.98156,984.4332],[43.67995,15.93879,922.7839],[43.66817,15.93662,1112.3262],[43.65654,15.94758,884.4559],[43.65995,15.95804,1153.533],[43.66553,15.96859,939.1168],[43.67576,15.97745,914.8146],[43.6891,15.98667,872.05],[43.6984,15.99768,938.6826],[43.69902,16.01189,995.1952],[43.65995,16.08917,1077.3853],[43.65871,16.1116,1292.8489],[43.65483,16.13648,1315.9241],[43.65623,16.16609,1287.2676],[43.64486,16.18359,1426.8488],[43.61463,16.20348,1232.4564],[43.60858,16.21415,1200.3223],[43.60936,16.22914,1246.7156],[43.60595,16.24345,1223.6802],[43.60579,16.2611,1463.3691],[43.60734,16.28293,1256.7177],[43.61044,16.29926,1234.9553],[43.59551,16.4361,1335.8118],[43.5999,16.60852,1560.7518],[43.48864,16.61785,1262.8385],[43.41289,16.6133,1166.8292]]]}}