{"type":"Feature","properties":{"GID_2":"YEM.14.14_1","GID_0":"YEM","country":"Yemen","GID_1":"YEM.14_1","province":"Ibb","NL_NAME_1":"إب","county":"FarAlUdayn","VARNAME_2":"NA","NL_NAME_2":"فرعالعدين","TYPE_2":"Muderiah","ENGTYPE_2":"District","CC_2":"1110","HASC_2":"NA","name":"Far_Al_Udayn.county"},
"geometry":{"type": "MultiPolygon","coordinates": [[[[43.6548,13.9144,431.5217],[43.6548,13.9014,598.0634],[43.6648,13.8625,679.4715],[43.6703,13.8564,507.2119],[43.6803,13.8532,567.6179],[43.6995,13.8531,654.0562],[43.7174,13.8471,697.5632],[43.7395,13.8522,808.9714],[43.7486,13.863,880.6422],[43.7518,13.883,779.7553],[43.753,13.8862,813.6136],[43.7568,13.8873,865.324],[43.7601,13.8857,859.4581],[43.783,13.8621,846.7958],[43.7847,13.8593,837.8757],[43.7842,13.8565,800.9323],[43.7859,13.8556,816.8309],[43.7841,13.8525,805.5784],[43.7849,13.8497,819.512],[43.7896,13.8486,789.7367],[43.7931,13.8497,790.2099],[43.7985,13.8705,938.2357],[43.8346,13.8786,1050.4559],[43.8403,13.8832,1314.1772],[43.8408,13.8875,1180.2719],[43.8641,13.8908,1469.6093],[43.8565,13.9048,1325.2075],[43.8557,13.9155,1491.5309],[43.857,13.9246,1328.8424],[43.8645,13.937,1204.0691],[43.8697,13.9596,1115.9237],[43.8723,13.9651,1126.8048],[43.8751,13.9679,1102.9443],[43.8885,13.9724,1063.3225],[43.8963,13.9737,1055.251],[43.9093,13.9726,1107.8621],[43.9138,13.9788,1058.7841],[43.9134,13.9849,1109.9434],[43.9081,13.9904,1047.5627],[43.9028,13.9917,972.9888],[43.8902,13.99,1064.5776],[43.8715,13.9929,1414.0807],[43.8528,13.9981,1227.0807],[43.8372,13.9959,1236.2421],[43.8331,14.0023,1350.0852],[43.8245,14.0052,1223.0425],[43.8221,14.0115,1170.462],[43.8036,14.0228,807.8212],[43.7957,14.0251,841.2354],[43.7909,14.0307,730.5137],[43.7902,14.0384,691.6471],[43.7762,14.0337,739.1598],[43.7734,14.039,813.7482],[43.7863,14.0463,673.2197],[43.7883,14.0444,683.0085],[43.7954,14.0483,732.5951],[43.8081,14.0587,729.5762],[43.8028,14.0645,703.7185],[43.7745,14.0685,667.6277],[43.777,14.0572,644.771],[43.7733,14.0499,719.7607],[43.7687,14.0481,701.231],[43.7537,14.0503,628.5629],[43.7449,14.0429,594.4178],[43.736,14.0309,629.9149],[43.7317,14.0209,674.2961],[43.7246,13.9909,701.0323],[43.7231,13.9807,736.077],[43.7257,13.9741,744.1818],[43.7227,13.9708,644.6349],[43.7153,13.9676,631.2817],[43.7125,13.959,649.4777],[43.7088,13.9558,635.2369],[43.7051,13.9567,644.4601],[43.7042,13.9594,641.0315],[43.705,13.9775,597.173],[43.7038,13.9808,596.1937],[43.6886,14.0037,558.9679],[43.6788,14.0055,560.2578],[43.6697,14.0039,588.021],[43.6608,13.9986,561.9329],[43.6525,13.9804,419.4443],[43.6517,13.9677,410.2281],[43.6709,13.9425,542.2317],[43.6825,13.9339,664.5302],[43.7062,13.9295,784.1445],[43.709,13.9263,827.5877],[43.7081,13.92,799.9075],[43.6966,13.9086,1056.4235],[43.6887,13.9104,695.3058],[43.6859,13.9149,719.2897],[43.6775,13.9185,516.2129],[43.6605,13.9209,477.1857],[43.6548,13.9144,431.5217]]]]}}