{"type":"Feature","properties":{"GID_2":"YEM.12.25_1","GID_0":"YEM","country":"Yemen","GID_1":"YEM.12_1","province":"Hadramawt","NL_NAME_1":"حضرموت","county":"Shibam","VARNAME_2":"NA","NL_NAME_2":"شبام","TYPE_2":"Muderiah","ENGTYPE_2":"District","CC_2":"1908","HASC_2":"NA","name":"Shibam.county"},
"geometry":{"type": "MultiPolygon","coordinates": [[[[48.5692,16.1772,1073.3257],[48.5731,16.1323,1053.1438],[48.5779,16.0154,981.2681],[48.5763,15.9407,903.0045],[48.5853,15.923,672.2651],[48.5933,15.8971,728.6317],[48.5949,15.8837,989.03],[48.5894,15.8664,968.7117],[48.5651,15.8493,954.0433],[48.5446,15.6921,985.8911],[48.5226,15.6124,1010.4226],[48.5328,15.5989,995.0075],[48.6317,15.5429,1017.2438],[48.6411,15.5698,1004.3735],[48.6638,15.612,984.773],[48.7062,15.6691,993.8458],[48.7517,15.6909,996.4104],[48.7728,15.707,986.1855],[48.7825,15.7235,987.6223],[48.7843,15.7375,965.8868],[48.746,15.7722,981.3809],[48.728,15.794,941.7228],[48.721,15.878,961.5202],[48.6943,15.9165,662.8332],[48.6933,15.9283,654.9902],[48.7031,15.9386,650.7707],[48.7082,15.9526,826.4129],[48.7166,16.0375,999.4326],[48.7183,16.1049,1034.8875],[48.7105,16.1664,958.7446],[48.6886,16.1977,1037.4158],[48.6604,16.1876,994.1276],[48.5692,16.1772,1073.3257]]]]}}