{"type":"Feature","properties":{"GID_2":"YEM.20.13_1","GID_0":"YEM","country":"Yemen","GID_1":"YEM.20_1","province":"Shabwah","NL_NAME_1":"شبوة","county":"MerkhahAlUlya","VARNAME_2":"NA","NL_NAME_2":"مرخهالعليا","TYPE_2":"Muderiah","ENGTYPE_2":"District","CC_2":"2108","HASC_2":"NA","name":"Merkhah_Al_Ulya.county"},
"geometry":{"type": "MultiPolygon","coordinates": [[[[45.9805,14.341,1552.8065],[46.0158,14.3771,1550.2244],[46.0556,14.4415,1357.3984],[46.0768,14.5025,1260.9658],[46.0934,14.5411,1161.6034],[46.0929,14.5613,1126.6135],[46.0798,14.6217,1216.4827],[46.0286,14.6352,1202.5908],[45.9985,14.6455,1553.3904],[45.9682,14.6434,1343.4418],[45.9007,14.6324,1300.0217],[45.8378,14.6133,1266.88],[45.8111,14.5909,1349.3278],[45.7664,14.5924,1763.5302],[45.8441,14.4254,1940.2086],[45.8474,14.3834,1717.0916],[45.8473,14.3597,1717.298],[45.8446,14.3238,1875.8101],[45.874,14.3335,1799.4142],[45.9251,14.3424,1752.8192],[45.9785,14.3422,1575.5399],[45.9805,14.341,1552.8065]]]]}}