{"type":"Feature","properties":{"GID_2":"YEM.12.23_1","GID_0":"YEM","country":"Yemen","GID_1":"YEM.12_1","province":"Hadramawt","NL_NAME_1":"حضرموت","county":"Sah","VARNAME_2":"NA","NL_NAME_2":"ساه","TYPE_2":"Muderiah","ENGTYPE_2":"District","CC_2":"1909","HASC_2":"NA","name":"Sah.county"},
"geometry":{"type": "MultiPolygon","coordinates": [[[[49.129,15.6619,941.7421],[49.0476,15.7118,912.22],[48.9776,15.7746,679.3324],[48.931,15.8121,909.1089],[48.8805,15.8486,907.9541],[48.8346,15.8181,981.6423],[48.7962,15.7845,966.5629],[48.7843,15.7375,965.8868],[48.7825,15.7235,987.6223],[48.7728,15.707,986.1855],[48.7517,15.6909,996.4104],[48.7062,15.6691,993.8458],[48.6638,15.612,984.773],[48.6411,15.5698,1004.3735],[48.6317,15.5429,1017.2438],[48.6487,15.5144,1044.926],[48.6932,15.3257,1072.8928],[48.7377,15.2596,998.8763],[48.7573,15.2198,1126.125],[48.8709,15.2626,1079.0347],[48.9127,15.292,1039.6873],[48.9853,15.314,1034.0352],[49.0374,15.3398,1068.1697],[49.0858,15.3556,1032.212],[49.1208,15.385,1014.1578],[49.1421,15.4213,995.9727],[49.1482,15.4441,957.8954],[49.1581,15.4668,961.0693],[49.1592,15.5217,937.1876],[49.1532,15.5722,892.8369],[49.1398,15.6057,984.6715],[49.129,15.6619,941.7421]]]]}}