{"type":"Feature","properties":{"GID_2":"YEM.10.13_1","GID_0":"YEM","country":"Yemen","GID_1":"YEM.10_1","province":"Amran","NL_NAME_1":"عمران","county":"JabalIyalYazid","VARNAME_2":"NA","NL_NAME_2":"جبلعياليزيد","TYPE_2":"Muderiah","ENGTYPE_2":"District","CC_2":"2912","HASC_2":"NA","name":"Jabal_Iyal_Yazid.county"},
"geometry":{"type": "MultiPolygon","coordinates": [[[[43.9908,15.7245,2205.0181],[44.0114,15.737,2201.9604],[44.0255,15.7343,2210.3042],[44.0368,15.7569,2200.7876],[44.0326,15.7626,2195.282],[44.0325,15.7714,2198.9285],[44.05,15.7778,2210.1951],[44.0334,15.795,2185.9338],[44.0212,15.8037,2251.0212],[44.0091,15.8076,2450.6484],[43.9553,15.8083,2451.4585],[43.9452,15.8122,2234.5327],[43.9401,15.82,2216.7627],[43.9298,15.8524,2481.6516],[43.9291,15.8735,2592.0649],[43.912,15.8821,2602.5027],[43.9093,15.8957,2605.2266],[43.8949,15.894,2523.2769],[43.8629,15.8983,2053.0981],[43.8612,15.8979,2057.9954],[43.8592,15.8922,1866.6775],[43.8526,15.887,1960.4237],[43.8455,15.8869,1944.0745],[43.8393,15.8917,1738.1775],[43.8248,15.9182,1832.4738],[43.7916,15.8827,1217.8878],[43.803,15.8664,1304.0847],[43.8142,15.8439,1540.428],[43.8103,15.8311,1445.9624],[43.8113,15.8213,1572.3927],[43.8155,15.8096,1789.1538],[43.8288,15.789,2315.3096],[43.8471,15.7695,2665.1838],[43.8451,15.7587,2629.0044],[43.8401,15.7538,2669.9456],[43.8259,15.7537,2462.6018],[43.8097,15.7585,2045.6172],[43.7955,15.7584,2090.9165],[43.7945,15.7555,2096.8674],[43.7612,15.7386,2061.2566],[43.7602,15.7298,2284.5093],[43.7643,15.7239,2618.4817],[43.7816,15.7132,2449.4424],[43.7887,15.7005,2779.4441],[43.7888,15.6897,2862.3247],[43.7939,15.678,2863.5166],[43.796,15.6652,3077.8943],[43.8012,15.6535,3095.5684],[43.8134,15.6329,2918.1924],[43.8266,15.6311,3069.5879],[43.8469,15.6253,2624.6655],[43.8651,15.6263,2706.9756],[43.8762,15.6352,2332.1318],[43.8894,15.658,2269.2617],[43.8861,15.6627,2286.457],[43.887,15.6678,2264.635],[43.8904,15.6706,2259.123],[43.9044,15.6648,2251.6055],[43.9105,15.6648,2248.3772],[43.9165,15.6786,2291.5522],[43.9306,15.7032,2393.1841],[43.9406,15.718,2224.5012],[43.9487,15.7259,2216.6311],[43.9578,15.7279,2212.3665],[43.9679,15.7279,2208.8254],[43.973,15.725,2208.0962],[43.9908,15.7245,2205.0181]]]]}}