{"type":"Feature","properties":{"GID_2":"YEM.14.20_1","GID_0":"YEM","country":"Yemen","GID_1":"YEM.14_1","province":"Ibb","NL_NAME_1":"إب","county":"Yarim","VARNAME_2":"NA","NL_NAME_2":"يريم","TYPE_2":"Muderiah","ENGTYPE_2":"District","CC_2":"1102","HASC_2":"NA","name":"Yarim.county"},
"geometry":{"type": "MultiPolygon","coordinates": [[[[44.1946,14.4593,1674.5839],[44.1892,14.415,2039.3307],[44.1866,14.4049,2115.8557],[44.1815,14.3973,1869.9617],[44.1789,14.3897,1813.5175],[44.1861,14.3664,2225.5176],[44.1775,14.357,2392.6309],[44.161,14.3341,1619.9182],[44.161,14.3278,1809.8708],[44.1702,14.317,1800.4059],[44.1714,14.3083,1702.2769],[44.1585,14.2962,1630.0813],[44.1448,14.2986,1446.2471],[44.1476,14.2934,1591.1201],[44.1612,14.281,1466.8105],[44.1767,14.2811,1501.7501],[44.1819,14.2874,1689.0587],[44.1935,14.294,1625.2181],[44.2247,14.3067,1760.1089],[44.2285,14.3109,1780.1136],[44.2303,14.3235,2008.9904],[44.2266,14.3333,2170.825],[44.2333,14.3473,2515.9211],[44.243899999999996,14.347,2330.9688],[44.2516,14.3546,2379.0093],[44.2647,14.3437,2391.1709],[44.2719,14.3281,2706.8687],[44.2742,14.3109,2738.9875],[44.2699,14.2934,2675.5295],[44.2617,14.2824,2698.5974],[44.2583,14.2698,2404.3687],[44.2645,14.2602,2279.6111],[44.265,14.2308,2383.1792],[44.2663,14.2207,2433.1287],[44.2698,14.2144,2309.4087],[44.2699,14.1992,2480.6746],[44.2618,14.1934,2415.6013],[44.2514,14.1734,2451.9102],[44.2416,14.1653,2119.2866],[44.2416,14.1632,2149.1011],[44.2366,14.1589,2046.366],[44.2223,14.1513,1844.7816],[44.2223,14.1491,1813.8767],[44.2295,14.1476,2050.5967],[44.2399,14.153,2264.6436],[44.2443,14.153,2418.9043],[44.2539,14.149,2875.822],[44.258,14.1511,2832.0376],[44.2671,14.1505,2735.804],[44.2885,14.1364,2675.3582],[44.2973,14.1359,2785.3669],[44.31,14.1311,2712.6453],[44.3342,14.1307,2661.1646],[44.3568,14.1194,2438.1611],[44.3646,14.1184,2339.7598],[44.3662,14.1195,2332.4824],[44.3662,14.1232,2288.4678],[44.3557,14.1275,2395.3401],[44.357,14.1287,2395.3401],[44.3562,14.1298,2324.894],[44.3526,14.1298,2369.1897],[44.3469,14.1355,2526.832],[44.3513,14.1436,2418.2986],[44.3513,14.1463,2463.1602],[44.3446,14.1544,2547.4897],[44.3407,14.1823,2547.0969],[44.3578,14.2125,2547.0037],[44.3712,14.2072,2558.9358],[44.3764,14.2021,2566.0186],[44.3816,14.2021,2571.3838],[44.3867,14.2097,2580.4346],[44.3958,14.2173,2599.7593],[44.3925,14.2287,2731.6572],[44.4022,14.2451,2686.7527],[44.4255,14.2528,2834.1816],[44.4436,14.2528,2566.4248],[44.4552,14.2579,2520.2656],[44.4553,14.268,2568.2981],[44.4695,14.268,2607.3428],[44.472,14.2756,2505.9978],[44.4733,14.2946,2432.9578],[44.4785,14.2971,2444.4868],[44.4642,14.316,2495.0498],[44.4499,14.3286,2495.375],[44.4447,14.3412,2595.3027],[44.4356,14.3488,2548.1372],[44.4174,14.3538,2552.9761],[44.3915,14.3562,2539.1736],[44.3695,14.3562,2451.7097],[44.3656,14.3638,2404.678],[44.35,14.3763,2571.8901],[44.3267,14.3813,2495.8853],[44.3163,14.3775,2228.8179],[44.2956,14.3749,2493.2703],[44.2839,14.3875,2096.9194],[44.2727,14.3957,1959.8597],[44.2789,14.4046,1943.0527],[44.2721,14.4136,1874.1879],[44.2536,14.4133,2011.5261],[44.2359,14.4435,1777.208],[44.2182,14.4462,1854.3384],[44.2045,14.4577,1739.2544],[44.1946,14.4593,1674.5839]]]]}}