{"type":"Feature","properties":{"GID_2":"YEM.21.14_1","GID_0":"YEM","country":"Yemen","GID_1":"YEM.21_1","province":"Ta`izz","NL_NAME_1":"تعز","county":"JabalHabashy","VARNAME_2":"NA","NL_NAME_2":"جبلحبشي","TYPE_2":"Muderiah","ENGTYPE_2":"District","CC_2":"1509","HASC_2":"NA","name":"Jabal_Habashy.county"},
"geometry":{"type": "MultiPolygon","coordinates": [[[[43.9739,13.4749,1317.5331],[43.9762,13.4787,1274.4022],[43.9754,13.4852,1374.2397],[43.9638,13.4882,1385.416],[43.9613,13.4925,1362.7606],[43.9571,13.4955,1329.618],[43.9538,13.5006,1318.8988],[43.9428,13.533,1230.5125],[43.9385,13.5352,1234.1218],[43.9406,13.5387,1231.1716],[43.9391,13.5426,1250.7625],[43.939,13.5546,1135.1134],[43.938,13.5622,1116.811],[43.9349,13.568,1108.5449],[43.8937,13.5678,1241.2911],[43.8859,13.5754,1155.6901],[43.874,13.5676,1153.9706],[43.8616,13.5671,1121.2346],[43.8575,13.564,1119.7161],[43.8459,13.561,1248.7487],[43.8384,13.561,1212.5576],[43.8275,13.5576,1099.996],[43.8208,13.5519,1223.2798],[43.8183,13.5445,1078.803],[43.8184,13.5297,1050.7236],[43.8092,13.5247,918.3798],[43.805,13.5206,795.5574],[43.7891,13.5214,771.5643],[43.7858,13.5172,815.3282],[43.79,13.5099,834.2026],[43.795,13.5058,857.6431],[43.8001,13.4968,915.8035],[43.8102,13.4862,818.7201],[43.8144,13.4846,887.8387],[43.8103,13.4763,878.3098],[43.8137,13.4723,1056.748],[43.8195,13.4698,1087.7383],[43.8221,13.4649,1126.8429],[43.8171,13.4624,999.3267],[43.8137,13.4575,1043.0828],[43.8146,13.4493,891.5624],[43.8214,13.437,935.837],[43.8272,13.437,956.6664],[43.8289,13.4346,927.9301],[43.8382,13.4141,917.3392],[43.8224,13.4017,828.8821],[43.8166,13.3902,741.6156],[43.8183,13.3829,733.9088],[43.8242,13.3796,729.8815],[43.8259,13.3739,774.4341],[43.8196,13.3597,739.0582],[43.8452,13.3592,744.3318],[43.8661,13.3675,823.3097],[43.8703,13.3577,828.5687],[43.8846,13.3577,975.2911],[43.8955,13.366,955.091],[43.8996,13.3758,910.3284],[43.8996,13.3849,892.0571],[43.9163,13.394,930.896],[43.928,13.4047,973.4234],[43.9397,13.4105,1043.854],[43.9521,13.4343,1066.7736],[43.9655,13.4434,1106.1301],[43.9671,13.4639,1385.5487],[43.9739,13.4749,1317.5331]]]]}}