{"type":"Feature","properties":{"GID_2":"YEM.14.4_1","GID_0":"YEM","country":"Yemen","GID_1":"YEM.14_1","province":"Ibb","NL_NAME_1":"إب","county":"AlQafr","VARNAME_2":"NA","NL_NAME_2":"القفر","TYPE_2":"Muderiah","ENGTYPE_2":"District","CC_2":"1101","HASC_2":"NA","name":"Al_Qafr.county"},
"geometry":{"type": "MultiPolygon","coordinates": [[[[43.7893,14.1933,806.1594],[43.787,14.1833,773.469],[43.7857,14.1622,755.2367],[43.8007,14.1601,705.2266],[43.8183,14.1623,788.4232],[43.832,14.1667,861.7994],[43.8268,14.1823,751.5516],[43.8299,14.1862,763.2632],[43.8257,14.2001,872.2654],[43.8257,14.2062,862.1307],[43.83,14.2201,956.9643],[43.8386,14.2337,1066.3113],[43.8473,14.2435,1101.9656],[43.8444,14.2506,1109.2563],[43.8305,14.2559,1394.5194],[43.8197,14.2573,1443.7937],[43.8175,14.2549,1484.7859],[43.8187,14.2487,1282.874],[43.8239,14.2469,1303.8263],[43.8246,14.2519,1139.9812],[43.8269,14.2513,1193.9192],[43.8248,14.2381,1062.2631],[43.8199,14.2341,1138.7805],[43.8042,14.2286,1084.1899],[43.7893,14.1933,806.1594]]],
[[[44.051,14.4481,1421.2839],[44.0483,14.447,1396.4957],[44.043,14.438,1368.9148],[44.0325,14.4342,1354.2606],[44.0317,14.4272,1316.3757],[44.0188,14.4138,1254.3599],[44.0199,14.4097,1253.5625],[44.0187,14.4031,1217.8915],[44.0139,14.3968,1237.0247],[44.0101,14.3945,1252.7371],[44.0043,14.3937,1268.1294],[43.9982,14.3878,1298.376],[43.9962,14.3817,1272.3541],[43.9929,14.38,1248.2219],[43.9869,14.3814,1233.1455],[43.9762,14.3788,1366.9319],[43.9708,14.3726,1296.3818],[43.9681,14.3659,1199.5702],[43.9693,14.3633,1193.6483],[43.9682,14.3554,1193.5187],[43.9694,14.3449,1153.0062],[43.9642,14.3442,1177.7433],[43.9586,14.3518,1195.0375],[43.9555,14.36,1194.8657],[43.946,14.3608,1275.6265],[43.9397,14.3593,1283.7208],[43.9322,14.3548,1545.1589],[43.929,14.3463,1382.6992],[43.9193,14.3481,1423.0483],[43.9144,14.3472,1453.0411],[43.9107,14.342,1713.6062],[43.9159,14.3283,1458.7854],[43.9223,14.3183,1409.6821],[43.9316,14.2837,1931.2788],[43.9293,14.269,1794.502],[43.922,14.2488,1356.4548],[43.9133,14.2349,1498.8516],[43.9047,14.2266,1492.5459],[43.9242,14.2054,899.768],[43.9266,14.2086,876.0123],[43.9599,14.2083,944.6957],[43.9672,14.2043,995.9608],[43.9695,14.1994,1074.3168],[43.982,14.2015,1131.719],[43.994,14.206,1072.6646],[43.994,14.2098,1059.6877],[43.9965,14.2132,1042.4],[43.9945,14.2203,989.3511],[43.9975,14.2214,1012.1814],[44.0035,14.215,1092.7062],[44.0098,14.2133,1123.2549],[44.0125,14.2171,1142.7292],[44.0179,14.2174,1205.1155],[44.0231,14.2156,1169.1398],[44.0284,14.2174,1227.5137],[44.0313,14.2236,1227.408],[44.0313,14.2315,1273.8864],[44.0346,14.2377,1150.1519],[44.0405,14.2381,1088.7046],[44.0473,14.2292,1077.6466],[44.0616,14.2231,1175.9807],[44.0815,14.2241,1200.5303],[44.0806,14.1869,1356.2198],[44.0942,14.188,1355.418],[44.1024,14.1928,1314.6775],[44.1275,14.1925,1369.5398],[44.137,14.1896,1349.9426],[44.1495,14.194,1361.6536],[44.152,14.1962,1371.004],[44.1485,14.2037,1362.9292],[44.1484,14.2074,1398.8654],[44.1514,14.2112,1395.3055],[44.1584,14.215,1429.5063],[44.16,14.2188,1390.292],[44.1889,14.2268,1523.0588],[44.2045,14.2399,1589.2147],[44.2115,14.2394,1600.8539],[44.2216,14.2299,1709.9768],[44.2371,14.2269,1758.7998],[44.247,14.2207,1907.2024],[44.2489,14.2172,1914.9701],[44.2505,14.2172,1914.9701],[44.2498,14.2157,1882.881],[44.2601,14.2127,2214.9302],[44.2698,14.205,2375.8247],[44.2698,14.2144,2309.4087],[44.2663,14.2207,2433.1287],[44.265,14.2308,2383.1792],[44.2645,14.2602,2279.6111],[44.2583,14.2698,2404.3687],[44.2617,14.2824,2698.5974],[44.2699,14.2934,2675.5295],[44.2742,14.3109,2738.9875],[44.2719,14.3281,2706.8687],[44.2647,14.3437,2391.1709],[44.2516,14.3546,2379.0093],[44.243899999999996,14.347,2330.9688],[44.2333,14.3473,2515.9211],[44.2266,14.3333,2170.825],[44.2303,14.3235,2008.9904],[44.2285,14.3109,1780.1136],[44.2247,14.3067,1760.1089],[44.1935,14.294,1625.2181],[44.1819,14.2874,1689.0587],[44.1767,14.2811,1501.7501],[44.1612,14.281,1466.8105],[44.1476,14.2934,1591.1201],[44.1448,14.2986,1446.2471],[44.1585,14.2962,1630.0813],[44.1714,14.3083,1702.2769],[44.1702,14.317,1800.4059],[44.161,14.3278,1809.8708],[44.161,14.3341,1619.9182],[44.1775,14.357,2392.6309],[44.1861,14.3664,2225.5176],[44.1793,14.3886,1894.4392],[44.1568,14.3829,1851.1144],[44.1519,14.3776,1763.0798],[44.1523,14.3732,1668.0386],[44.1449,14.3715,1498.6692],[44.1383,14.3739,1527.1116],[44.1308,14.3738,1562.2734],[44.1254,14.3706,1493.2225],[44.1128,14.3679,1445.3384],[44.1038,14.3688,1391.5934],[44.0951,14.3641,1308.46],[44.0931,14.3643,1303.7604],[44.094,14.3669,1306.4658],[44.0915,14.3681,1333.3497],[44.088,14.364,1335.1692],[44.086,14.3642,1333.1484],[44.0876,14.3704,1340.8857],[44.0856,14.3738,1316.2849],[44.0755,14.3773,1286.8339],[44.08,14.3976,1342.6394],[44.0782,14.4113,1279.5543],[44.0805,14.43,1396.3877],[44.0772,14.4442,1785.0032],[44.0768,14.4577,1601.0502],[44.0741,14.4647,1477.304],[44.0693,14.4656,1597.3882],[44.0672,14.463,1533.5284],[44.0666,14.458,1470.7476],[44.063,14.4545,1436.9924],[44.0573,14.453,1526.8118],[44.051,14.4481,1421.2839]]]]}}