{"type":"Feature","properties":{"GID_2":"YEM.3.10_1","GID_0":"YEM","country":"Yemen","GID_1":"YEM.3_1","province":"AlBayda'","NL_NAME_1":"البيضاء","county":"AtTaffah","VARNAME_2":"NA","NL_NAME_2":"الطفة","TYPE_2":"Muderiah","ENGTYPE_2":"District","CC_2":"1407","HASC_2":"NA","name":"At_Taffah.county"},
"geometry":{"type": "MultiPolygon","coordinates": [[[[45.574,14.2292,1877.4576],[45.5703,14.2463,1640.3079],[45.5663,14.2548,1641.2578],[45.567,14.2645,1625.2542],[45.5737,14.2788,1634.1722],[45.5771,14.2938,1578.8896],[45.5712,14.3198,1581.0276],[45.5638,14.3263,1473.7617],[45.5592,14.3348,1485.9536],[45.5592,14.3426,1556.7281],[45.5646,14.3446,1490.3047],[45.5766,14.3406,1534.1077],[45.5806,14.3452,1484.5735],[45.576,14.3686,1434.0854],[45.5814,14.392,1472.8293],[45.5767,14.4076,1439.3657],[45.5665,14.4315,1469.9242],[45.5483,14.4149,1525.0287],[45.5294,14.4034,1487.8557],[45.4887,14.3878,1895.6001],[45.4705,14.3539,1751.5662],[45.4359,14.3314,1954.1566],[45.4347,14.3227,1902.6165],[45.4259,14.3101,1911.0128],[45.3881,14.2758,1981.627],[45.3781,14.2597,2032.2651],[45.3634,14.2528,2066.0498],[45.3549,14.2551,2057.0745],[45.3475,14.2465,2022.1809],[45.3269,14.2408,1987.209],[45.3189,14.2364,2038.1748],[45.2922,14.2409,1964.9647],[45.2819,14.2466,1979.0754],[45.2714,14.1936,1921.0226],[45.2008,14.193,1856.3748],[45.1783,14.1723,1819.9124],[45.173,14.1625,1770.1458],[45.1673,14.1319,1767.6334],[45.1618,14.124,1747.2042],[45.1595,14.1163,1679.4435],[45.16,14.1078,1659.2238],[45.1582,14.101,1666.2817],[45.1512,14.0844,1728.8658],[45.1394,14.0737,1577.5992],[45.1349,14.0639,1376.6139],[45.1425,14.0584,1364.7107],[45.1425,14.055,1447.83],[45.1477,14.0529,1453.5225],[45.149,14.0409,1393.2715],[45.156,14.0362,1459.6545],[45.1525,14.0247,1349.7738],[45.1564,14.0085,1278.6633],[45.1509,13.9883,1500.5189],[45.1529,13.9838,1427.653],[45.1508,13.9808,1228.3546],[45.1559,13.977,1345.1349],[45.1634,13.9817,1256.9304],[45.1734,13.9804,1493.6201],[45.1804,13.9779,1659.8115],[45.1843,13.973,1337.012],[45.2028,13.9727,1520.4182],[45.2198,13.9651,2019.2562],[45.2266,13.9651,1507.536],[45.2343,13.9682,1523.0696],[45.261,14.0025,1551.3691],[45.3297,14.0458,1901.2712],[45.3505,14.0559,1961.5631],[45.3535,14.0559,1946.9661],[45.366,14.0812,1936.8613],[45.3765,14.0914,1969.1154],[45.3966,14.09,1967.9717],[45.4258,14.1444,1988.2886],[45.4585,14.1849,1954.4681],[45.4733,14.1952,1875.6514],[45.4824,14.2042,1956.2885],[45.5068,14.2332,1855.8511],[45.5721,14.2313,1849.1672],[45.574,14.2292,1877.4576]]]]}}