{"type":"Feature","properties":{"GID_2":"YEM.12.28_1","GID_0":"YEM","country":"Yemen","GID_1":"YEM.12_1","province":"Hadramawt","NL_NAME_1":"حضرموت","county":"WadiAlAyn","VARNAME_2":"NA","NL_NAME_2":"واديالعينوحوره","TYPE_2":"Muderiah","ENGTYPE_2":"District","CC_2":"1919","HASC_2":"NA","name":"Wadi_Al_Ayn.county"},
"geometry":{"type": "MultiPolygon","coordinates": [[[[47.868899999999996,15.712,715.4579],[47.9303,15.6647,910.438],[47.9475,15.5822,1182.8414],[48.0146,15.6187,1154.8368],[48.0415,15.6443,1143.3762],[48.0779,15.6519,1123.1155],[48.1099,15.6686,742.0056],[48.1342,15.6783,772.5461],[48.1421,15.6743,1029.9736],[48.1803,15.6932,1061.6505],[48.2082,15.6967,1050.4644],[48.2426,15.6711,724.5944],[48.2561,15.6439,1039.9751],[48.2558,15.6223,1057.0939],[48.2638,15.6006,889.9231],[48.2944,15.5947,980.0406],[48.3158,15.5946,755.6541],[48.3323,15.5789,861.8923],[48.3524,15.5315,1041.304],[48.3688,15.5029,896.6953],[48.38,15.4726,1018.4042],[48.3812,15.4274,1062.3301],[48.4392,15.3573,1140.4116],[48.4923,15.2825,1149.157],[48.5261,15.2229,1233.9685],[48.5582,15.1803,1227.5232],[48.6247,15.0757,1377.7927],[48.6259,15.0777,1352.0613],[48.7128,15.0784,1276.8561],[48.7424,15.104,1312.3763],[48.7639,15.143,1273.9906],[48.765,15.2042,1183.5522],[48.7377,15.2596,998.8763],[48.6932,15.3257,1072.8928],[48.6487,15.5144,1044.926],[48.6317,15.5429,1017.2438],[48.5328,15.5989,995.0075],[48.5226,15.6124,1010.4226],[48.4469,15.6202,981.3075],[48.4041,15.638,1005.2966],[48.3813,15.6552,1010.1605],[48.3632,15.6724,1006.3758],[48.3388,15.7143,1010.9058],[48.3226,15.7523,710.3798],[48.3149,15.7622,1013.6013],[48.3029,15.7623,708.4813],[48.2995,15.7674,706.9307],[48.2983,15.7775,703.1252],[48.2865,15.7812,702.3473],[48.2285,15.8146,697.7382],[48.1516,15.8251,689.9653],[48.1262,15.7986,689.4054],[48.0984,15.7859,689.3678],[48.0464,15.7874,695.6775],[48.0029,15.7706,696.894],[47.9324,15.7385,707.8856],[47.868899999999996,15.712,715.4579]]]]}}