{"type":"Feature","properties":{"GID_2":"YEM.6.7_1","GID_0":"YEM","country":"Yemen","GID_1":"YEM.6_1","province":"AlJawf","NL_NAME_1":"الجوف","county":"AlMaton","VARNAME_2":"NA","NL_NAME_2":"المتون","TYPE_2":"Muderiah","ENGTYPE_2":"District","CC_2":"1606","HASC_2":"NA","name":"Al_Maton.county"},
"geometry":{"type": "MultiPolygon","coordinates": [[[[44.7797,16.3079,1669.5258],[44.6008,16.3883,1718.825],[44.5472,16.2974,1194.5862],[44.5425,16.287,1183.9006],[44.5353,16.2824,1182.606],[44.5318,16.272,1177.7174],[44.5187,16.2639,1181.6614],[44.5104,16.2397,1170.9377],[44.4981,16.1883,1168.566],[44.5951,16.1903,1149.5344],[44.6982,16.1861,1128.724],[44.7797,16.3079,1669.5258]]]]}}