{"type":"Feature","properties":{"GID_2":"YEM.5.10_1","GID_0":"YEM","country":"Yemen","GID_1":"YEM.5_1","province":"AlHudaydah","NL_NAME_1":"الحديده","county":"AlMighlaf","VARNAME_2":"NA","NL_NAME_2":"المغلاف","TYPE_2":"Muderiah","ENGTYPE_2":"District","CC_2":"1808","HASC_2":"NA","name":"Al_Mighlaf.county"},
"geometry":{"type": "MultiPolygon","coordinates": [[[[43.2731,15.2933,219.1951],[43.2583,15.3013,178.7296],[43.2512,15.3231,176.7332],[43.245,15.3268,178.2941],[43.2417,15.3393,184.0224],[43.244,15.3521,177.7159],[43.2407,15.3578,170.9578],[43.2284,15.3624,147.968],[43.1845,15.3667,106.955],[43.1582,15.3659,96.758],[43.1454,15.3674,89.3066],[43.1262,15.3639,83.9473],[43.0956,15.3665,74.4947],[43.0941,15.3587,74.9029],[43.0987,15.3378,79.2101],[43.104,15.3312,81.3713],[43.1186,15.3048,92.6968],[43.1215,15.2898,95.0738],[43.1312,15.2811,100.698],[43.1419,15.277,106.0268],[43.1468,15.2718,111.1867],[43.1449,15.2601,114.4291],[43.1651,15.258,126.8358],[43.163,15.2548,121.8129],[43.1769,15.2549,129.2819],[43.2394,15.2627,158.5593],[43.2681,15.291,208.5343],[43.2731,15.2933,219.1951]]]]}}