{"type":"Feature","properties":{"GID_2":"YEM.9.4_1","GID_0":"YEM","country":"Yemen","GID_1":"YEM.9_1","province":"AmanatAlAsimah","NL_NAME_1":"أمانةالعاصمة","county":"AtTahrir","VARNAME_2":"NA","NL_NAME_2":"التحرير","TYPE_2":"Muderiah","ENGTYPE_2":"District","CC_2":"1307","HASC_2":"NA","name":"At_Tahrir.county"},
"geometry":{"type": "MultiPolygon","coordinates": [[[[44.2064,15.3486,2253.1211],[44.2073,15.3597,2251.0898],[44.1914,15.3635,2256.4209],[44.193,15.3554,2260.7812],[44.1922,15.3523,2261.2515],[44.1886,15.352,2265.9099],[44.1902,15.3445,2268.5991],[44.1987,15.3454,2259.845],[44.2064,15.3486,2253.1211]]]]}}