{"type":"Feature","properties":{"GID_2":"YEM.13.20_1","GID_0":"YEM","country":"Yemen","GID_1":"YEM.13_1","province":"Hajjah","NL_NAME_1":"حجه","county":"KuhlanAffar","VARNAME_2":"NA","NL_NAME_2":"كحلانعفار","TYPE_2":"Muderiah","ENGTYPE_2":"District","CC_2":"1718","HASC_2":"NA","name":"Kuhlan_Affar.county"},
"geometry":{"type": "MultiPolygon","coordinates": [[[[43.7511,15.7426,1785.9871],[43.7454,15.7439,1720.2463],[43.7314,15.754,1564.6937],[43.7109,15.7536,1692.7441],[43.7171,15.768,1581.8031],[43.7181,15.7795,1433.6906],[43.7144,15.7889,1333.4219],[43.7106,15.793,1382.3575],[43.712,15.7979,1357.0399],[43.7071,15.8066,1326.8606],[43.7069,15.8111,1264.5795],[43.7083,15.8167,1215.8888],[43.7126,15.8176,1233.5933],[43.715,15.8168,1226.8002],[43.718,15.8128,1248.6089],[43.7177,15.8106,1232.3972],[43.721,15.8117,1264.1453],[43.7273,15.8375,1275.7297],[43.7295,15.8404,1206.7391],[43.7206,15.8565,1248.7554],[43.7128,15.8576,1389.3032],[43.7026,15.8428,1180.4038],[43.6973,15.8406,1138.7407],[43.697,15.852,1081.0344],[43.6957,15.8527,1069.2957],[43.6931,15.8534,1111.6755],[43.6855,15.8511,1257.136],[43.6794,15.8463,1198.475],[43.6748,15.8448,1232.4446],[43.6733,15.8466,1244.9042],[43.6672,15.8477,1516.6927],[43.6619,15.8429,1123.141],[43.6586,15.8303,1151.2732],[43.6519,15.8168,1410.9268],[43.6399,15.8007,1305.0503],[43.6475,15.7859,1223.9473],[43.6545,15.7822,1326.0459],[43.6582,15.7758,1226.2391],[43.6531,15.7671,1444.3806],[43.6509,15.7578,1211.2798],[43.6524,15.7444,1497.8975],[43.6563,15.7399,1491.8723],[43.6618,15.7376,1476.8816],[43.6714,15.7289,1434.0405],[43.6783,15.725,1360.4434],[43.6867,15.7269,1526.8336],[43.6928,15.7253,1603.1689],[43.6953,15.7224,1626.191],[43.6961,15.719,1511.9606],[43.6941,15.715,1491.2712],[43.686,15.7113,1874.5327],[43.6846,15.7048,1375.5459],[43.6965,15.6956,1669.4274],[43.7024,15.6883,1726.3369],[43.6945,15.6712,1624.319],[43.6863,15.6639,1397.8021],[43.6904,15.6582,1773.3619],[43.7002,15.6607,1494.4521],[43.709,15.6558,1807.139],[43.7206,15.6531,1882.0381],[43.7254,15.6566,2137.8264],[43.7352,15.6577,2248.946],[43.7341,15.6627,2361.3218],[43.7286,15.6696,2171.4312],[43.7274,15.6817,2142.092],[43.7287,15.6928,2069.9919],[43.7266,15.6945,2194.1465],[43.7267,15.702,2368.8884],[43.729,15.7075,2546.7495],[43.7373,15.7186,2161.3401],[43.7531,15.73,2009.9318],[43.754,15.7341,1975.9285],[43.7511,15.7426,1785.9871]]]]}}