{"type":"Feature","properties":{"GID_2":"YEM.19.2_1","GID_0":"YEM","country":"Yemen","GID_1":"YEM.19_1","province":"San`a'","NL_NAME_1":"صنعاء","county":"AlHaymahAlKharijiyah","VARNAME_2":"NA","NL_NAME_2":"الحيمةالخارجية","TYPE_2":"Muderiah","ENGTYPE_2":"District","CC_2":"2309","HASC_2":"NA","name":"Al_Haymah_Al_Kharijiyah.county"},
"geometry":{"type": "MultiPolygon","coordinates": [[[[43.9692,14.9321,1182.2015],[43.9708,14.9338,1193.5753],[43.9701,14.941,1248.1332],[43.9486,14.9532,1373.6868],[43.9466,14.9598,1210.9773],[43.9514,14.9797,1339.3215],[43.9542,15.0034,1331.4899],[43.9483,15.0232,1356.4453],[43.9501,15.0573,1473.0682],[43.952,15.0649,1550.3755],[43.9568,15.0696,1738.4182],[43.9685,15.0668,1618.4047],[43.9724,15.0697,1603.3342],[43.9753,15.0792,1660.6696],[43.9708,15.0874,1761.6182],[43.9723,15.0943,1804.9148],[43.9752,15.1,1784.5516],[43.9819,15.1076,1721.9779],[43.978,15.1189,1757.0349],[43.9692,15.1264,2127.9443],[43.9642,15.1334,2458.9592],[43.9623,15.1425,2621.6812],[43.9668,15.1532,2330.5232],[43.9741,15.1596,2476.2231],[43.9746,15.1657,2573.0376],[43.9724,15.1667,2549.4636],[43.9686,15.1646,2519.6392],[43.9675,15.1696,2591.9438],[43.9704,15.1804,2776.7332],[43.9774,15.1923,2835.8962],[43.9777,15.2042,2858.5005],[43.9657,15.2112,2839.7678],[43.9581,15.2138,2851.5806],[43.9403,15.213,2915.3193],[43.9231,15.1934,2128.3142],[43.8974,15.1733,1759.7656],[43.8649,15.1597,1371.6716],[43.8486,15.158,1372.4915],[43.8396,15.1619,1343.6548],[43.8339,15.1682,1214.4082],[43.841,15.1775,1463.4663],[43.8472,15.1787,1448.4336],[43.8529,15.1822,1508.2086],[43.8537,15.1854,1503.709],[43.8495,15.1935,1312.2118],[43.8332,15.1998,1258.616],[43.8297,15.195,1309.6122],[43.8221,15.195,1226.8936],[43.8204,15.2044,1185.0552],[43.8148,15.1991,1215.2802],[43.8077,15.2002,1195.3005],[43.8034,15.1912,1156.8035],[43.7952,15.186,1373.4904],[43.7922,15.1688,1537.7089],[43.801,15.1487,1284.8289],[43.7971,15.1278,1367.5107],[43.8004,15.1204,1317.9216],[43.7936,15.1092,1352.6167],[43.7911,15.0979,1456.5577],[43.7946,15.0793,1462.5771],[43.7986,15.0743,1487.3101],[43.8054,15.0708,1463.9138],[43.8126,15.0694,1492.3818],[43.8186,15.0744,1470.5914],[43.8293,15.07,1441.9485],[43.8294,15.0596,1509.8364],[43.8249,15.036,1571.4473],[43.825,15.0197,1964.6561],[43.822,15.0093,2104.8418],[43.8144,15.0063,1785.6174],[43.791,15.0069,1583.0016],[43.7795,15.0017,1451.1902],[43.7689,14.9913,1388.1262],[43.7613,14.9809,1525.4957],[43.7553,14.9794,1724.7295],[43.7447,14.9734,1164.4594],[43.7417,14.9572,1354.1276],[43.7418,14.9439,1289.0421],[43.7449,14.9335,1137.0435],[43.7301,14.8699,870.6248],[43.718,14.8595,779.886],[43.718,14.855,729.6627],[43.7226,14.8462,799.0224],[43.7348,14.8462,884.7078],[43.7547,14.8397,862.5012],[43.7594,14.8547,1003.9938],[43.7791,14.8595,1604.6321],[43.8042,14.8611,1016.2325],[43.8175,14.8604,1019.1223],[43.8495,14.8543,1020.6239],[43.8608,14.8485,1089.1587],[43.8684,14.8482,1047.9463],[43.8732,14.8544,1051.2809],[43.8856,14.8611,1081.6022],[43.8989,14.8631,1129.4103],[43.9052,14.8831,1079.4644],[43.9147,14.89,1138.0007],[43.9131,14.8981,1090.8225],[43.9172,14.8999,1127.3779],[43.9153,14.9022,1113.0457],[43.9203,14.9061,1105.5803],[43.922,14.9046,1118.8687],[43.9241,14.9054,1141.2825],[43.925,14.9081,1125.5669],[43.9267,14.9063,1125.4873],[43.9308,14.909,1118.157],[43.9467,14.9093,1162.1179],[43.9521,14.9125,1153.2627],[43.9692,14.9321,1182.2015]]]]}}