{"type":"Feature","properties":{"GID_2":"YEM.10.1_1","GID_0":"YEM","country":"Yemen","GID_1":"YEM.10_1","province":"Amran","NL_NAME_1":"عمران","county":"AlAshah","VARNAME_2":"NA","NL_NAME_2":"العشـــــه","TYPE_2":"Muderiah","ENGTYPE_2":"District","CC_2":"2903","HASC_2":"NA","name":"Al_Ashah.county"},
"geometry":{"type": "MultiPolygon","coordinates": [[[[43.7773,16.1118,1501.5931],[43.7773,16.1084,1542.3528],[43.7801,16.1044,1632.1427],[43.7832,16.1037,1676.116],[43.7868,16.1078,1643.061],[43.7917,16.1237,1405.6653],[43.7941,16.1274,1344.01],[43.799,16.129,1188.0385],[43.8059,16.1281,1133.6598],[43.808,16.1256,1095.924],[43.806,16.1088,1186.6147],[43.8096,16.0915,1160.6357],[43.8209,16.0949,1307.271],[43.8369,16.1131,1222.2042],[43.8528,16.126,1572.7263],[43.8579,16.1596,1285.7546],[43.8658,16.1932,1260.322],[43.8682,16.2371,1392.0911],[43.8814,16.263,1356.413],[43.8866,16.294,1366.9314],[43.888,16.317,1903.03],[43.8913,16.3315,2088.4043],[43.898,16.3415,1705.8302],[43.9076,16.3509,1962.4993],[43.9368,16.3872,1961.3862],[43.9419,16.4336,2326.2078],[43.8855,16.4746,2073.8884],[43.8694,16.4926,1998.8964],[43.8292,16.5053,1654.7825],[43.7566,16.5565,1446.1306],[43.7299,16.5563,1421.3209],[43.7086,16.5433,1372.6494],[43.6878,16.519,1399.7534],[43.6531,16.4976,1302.7297],[43.6375,16.4819,1286.605],[43.6328,16.4734,1272.0659],[43.6329,16.4611,1294.7239],[43.6399,16.4498,1370.0078],[43.6568,16.4404,1677.3337],[43.6906,16.4296,1523.1824],[43.7335,16.4118,1518.6086],[43.7713,16.3806,1324.0886],[43.7745,16.3604,1299.7773],[43.7852,16.3172,1261.3704],[43.7849,16.3089,1276.7531],[43.7808,16.3005,1256.5715],[43.7838,16.2933,1238.0693],[43.7959,16.2961,1243.0602],[43.8018,16.2934,1243.7328],[43.8019,16.2826,1235.3632],[43.836,16.255,1196.0129],[43.8402,16.246,1179.5205],[43.8372,16.238,1173.3625],[43.8276,16.2322,1163.5853],[43.8175,16.2317,1173.4806],[43.8015,16.2183,1304.2552],[43.8016,16.2006,1163.1005],[43.8068,16.1907,1143.3879],[43.8059,16.184,1137.4614],[43.8041,16.1819,1137.8119],[43.7924,16.1804,1166.1615],[43.791,16.1755,1160.0153],[43.792,16.1641,1121.7098],[43.7947,16.1582,1118.6379],[43.8022,16.1551,1113.0471],[43.8049,16.1507,1113.8456],[43.7889,16.1276,1374.6244],[43.7831,16.1159,1513.7915],[43.7773,16.1118,1501.5931]]]]}}