{"type":"Feature","properties":{"GID_2":"YEM.5.8_1","GID_0":"YEM","country":"Yemen","GID_1":"YEM.5_1","province":"AlHudaydah","NL_NAME_1":"الحديده","county":"AlMansuriyah","VARNAME_2":"NA","NL_NAME_2":"المنصورية","TYPE_2":"Muderiah","ENGTYPE_2":"District","CC_2":"1816","HASC_2":"NA","name":"Al_Mansuriyah.county"},
"geometry":{"type": "MultiPolygon","coordinates": [[[[43.2836,14.6483,92.4291],[43.3145,14.643,90.0493],[43.321,14.6398,87.2693],[43.3483,14.6468,101.4628],[43.3702,14.647,116.0648],[43.3827,14.6553,130.1828],[43.3917,14.6496,132.7282],[43.3971,14.6429,141.0709],[43.4043,14.639,150.2873],[43.4163,14.636,165.9076],[43.422,14.637,176.4621],[43.4358,14.646,185.5769],[43.4607,14.6517,221.6057],[43.4765,14.6523,300.1209],[43.4694,14.6905,294.4004],[43.4744,14.7012,301.4901],[43.4703,14.7061,288.5608],[43.4726,14.7147,282.3996],[43.4708,14.7175,278.4746],[43.4632,14.7203,275.1476],[43.4531,14.7357,256.8212],[43.4472,14.7413,243.5637],[43.4413,14.7442,235.5227],[43.4355,14.7447,227.5896],[43.4273,14.7429,207.764],[43.4214,14.7395,196.4084],[43.4128,14.7211,189.9243],[43.3981,14.717,170.9767],[43.326,14.7268,137.3038],[43.3036,14.7329,120.2492],[43.2779,14.7219,106.8303],[43.2645,14.7201,102.5047],[43.2604,14.7172,103.3026],[43.2598,14.7115,104.9803],[43.2789,14.6723,112.2845],[43.2831,14.6569,96.9804],[43.2836,14.6483,92.4291]]]]}}