{"type":"Feature","properties":{"GID_2":"YEM.12.1_1","GID_0":"YEM","country":"Yemen","GID_1":"YEM.12_1","province":"Hadramawt","NL_NAME_1":"حضرموت","county":"AdDis","VARNAME_2":"NA","NL_NAME_2":"الديس","TYPE_2":"Muderiah","ENGTYPE_2":"District","CC_2":"1914","HASC_2":"NA","name":"Ad_Dis.county"},
"geometry":{"type": "MultiPolygon","coordinates": [[[[50.2422,14.8976,1.2706],[50.203,14.9457,37.8699],[50.1762,14.973,81.5896],[50.1567,15.0168,128.1162],[50.1505,15.0436,187.5715],[50.1205,15.0809,378.8921],[50.0698,15.112,616.8042],[50.066,15.1686,1328.0858],[50.0109,15.2265,1329.2816],[49.9354,15.2876,1529.965],[49.8851,15.3308,1472.326],[49.8525,15.3807,1320.8806],[49.8391,15.3772,1404.8915],[49.7954,15.3585,1403.6002],[49.8427,15.2294,1578.7881],[49.8352,15.1747,1258.3794],[49.8221,15.1536,960.3425],[49.8087,15.1143,734.6718],[49.8081,15.0869,470.3],[49.8432,15.0434,415.1503],[49.8442,15.019,382.882],[49.8391,14.9308,111.0182],[49.81,14.8933,152.2406],[49.7892,14.8754,124.3546],[49.7871,14.8495,65.4557],[49.8042,14.8446,90.6884],[49.8247,14.8488,91.5053],[49.8418,14.8453,38.3408],[49.8507,14.8137,0.0],[49.8988,14.8374,3.4413],[49.9162,14.8426,0.0],[49.9343,14.8504,0.0],[49.9415,14.8507,2.9028],[49.9515,14.846,0.3446],[49.9562,14.8479,2.1747],[49.9618,14.8462,0.2595],[49.9668,14.8488,3.7113],[49.9854,14.8529,2.1006],[49.9896,14.8515,0.0],[50.0024,14.8529,5.6282],[50.0112,14.8504,3.4662],[50.019,14.8393,30.728],[50.0185,14.8374,0.0],[50.0235,14.834,31.4073],[50.0226,14.8282,0.0],[50.0257,14.8246,0.0],[50.0213,14.8215,1.9242],[50.0215,14.8193,3.7819],[50.0235,14.8193,3.5677],[50.0251,14.8218,1.5712],[50.0374,14.8224,0.0],[50.046,14.8268,0.0],[50.0571,14.8276,0.0],[50.0876,14.8421,4.0561],[50.1085,14.8499,0.0],[50.1207,14.8485,0.0],[50.1246,14.8457,3.0698],[50.1285,14.8465,0.0],[50.1287,14.8485,4.4853],[50.1365,14.8485,0.0],[50.1396,14.8454,0.0],[50.1488,14.8413,0.0],[50.1524,14.8424,13.2728],[50.1626,14.8415,0.0],[50.1688,14.8443,22.4563],[50.179,14.8451,0.0],[50.1826,14.8507,12.0317],[50.181,14.8526,48.6993],[50.1807,14.8585,0.5271],[50.1882,14.8657,1.3316],[50.2422,14.8976,1.2706]]]]}}