{"type":"Feature","properties":{"GID_2":"YEM.19.1_1","GID_0":"YEM","country":"Yemen","GID_1":"YEM.19_1","province":"San`a'","NL_NAME_1":"صنعاء","county":"AlHaymahAdDakhiliyah","VARNAME_2":"NA","NL_NAME_2":"الحيمةالداخلية","TYPE_2":"Muderiah","ENGTYPE_2":"District","CC_2":"2308","HASC_2":"NA","name":"Al_Haymah_Ad_Dakhiliyah.county"},
"geometry":{"type": "MultiPolygon","coordinates": [[[[43.7074,15.2847,1116.918],[43.7127,15.2754,926.2175],[43.7115,15.2624,972.5306],[43.7197,15.2515,923.9688],[43.7217,15.2516,890.0219],[43.7235,15.242,923.9945],[43.7228,15.2371,910.3961],[43.7257,15.2306,905.9671],[43.7297,15.2312,910.4611],[43.7358,15.2255,924.1279],[43.7397,15.2268,942.5831],[43.7467,15.2175,1048.7295],[43.7488,15.2044,1061.354],[43.7752,15.1813,1275.3894],[43.7857,15.1814,1486.2927],[43.7994,15.188,1183.405],[43.8034,15.1912,1156.8035],[43.8077,15.2002,1195.3005],[43.8148,15.1991,1215.2802],[43.8204,15.2044,1185.0552],[43.8221,15.195,1226.8936],[43.8297,15.195,1309.6122],[43.8332,15.1998,1258.616],[43.8495,15.1935,1312.2118],[43.8537,15.1854,1503.709],[43.8529,15.1822,1508.2086],[43.8472,15.1787,1448.4336],[43.841,15.1775,1463.4663],[43.8339,15.1682,1214.4082],[43.8396,15.1619,1343.6548],[43.8486,15.158,1372.4915],[43.8649,15.1597,1371.6716],[43.8974,15.1733,1759.7656],[43.9231,15.1934,2128.3142],[43.9403,15.213,2915.3193],[43.9581,15.2138,2851.5806],[43.9618,15.2126,2920.6855],[43.9696,15.2242,2988.8579],[43.9712,15.2392,3133.9661],[43.9613,15.2463,3147.8804],[43.9499,15.2581,3004.7156],[43.9491,15.2629,3190.4673],[43.9538,15.2985,3317.6892],[43.9633,15.342,2964.9136],[43.9608,15.3523,2820.4438],[43.9493,15.3743,2781.739],[43.9395,15.3783,2731.2686],[43.9281,15.3727,2757.7334],[43.9168,15.3631,2698.832],[43.9029,15.3606,2679.2271],[43.8851,15.3635,2302.1414],[43.8757,15.3703,1965.9567],[43.87,15.3864,1868.37],[43.8661,15.3811,1918.0438],[43.8511,15.3751,1773.738],[43.8204,15.3704,1702.9755],[43.7965,15.3541,1362.4888],[43.7888,15.3422,1451.0208],[43.7699,15.3315,1093.7852],[43.7532,15.3159,1388.3076],[43.7074,15.2847,1116.918]]]]}}