{"type":"Feature","properties":{"GID_2":"YEM.6.10_1","GID_0":"YEM","country":"Yemen","GID_1":"YEM.6_1","province":"AlJawf","NL_NAME_1":"الجوف","county":"KhabbwaashSha'af","VARNAME_2":"NA","NL_NAME_2":"خبوالشعف","TYPE_2":"Muderiah","ENGTYPE_2":"District","CC_2":"1601","HASC_2":"NA","name":"Khabbwaash_Sha'af.county"},
"geometry":{"type": "MultiPolygon","coordinates": [[[[44.8886,17.4333,1092.3297],[44.8879,17.0051,1227.2158],[44.8963,16.997,1222.668],[44.8963,16.989,1223.0441],[44.8768,16.9723,1247.6418],[44.8584,16.9446,1368.3716],[44.8304,16.9327,1313.553],[44.7377,16.9278,1560.8232],[44.6885,16.8868,1722.9955],[44.6371,16.8069,1748.4934],[44.6452,16.7928,1713.0363],[44.647,16.7516,1765.7638],[44.6678,16.6442,1746.8964],[44.6794,16.6205,1790.5571],[44.6916,16.576,1761.0729],[44.695,16.555,1807.1759],[44.6909,16.5332,1898.8884],[44.6845,16.5229,1914.2344],[44.6288,16.4789,2017.8544],[44.5706,16.466,1971.3934],[44.5998,16.3882,1701.524],[44.7797,16.3079,1669.5258],[44.8215,16.2874,1501.8337],[44.874,16.2667,1203.5201],[44.9527,16.2253,1368.953],[45.1254,16.1629,1207.2006],[45.2054,16.0932,1083.0487],[45.2413,15.9887,1023.9951],[45.2346,15.7677,1047.0583],[45.4642,15.7615,993.4916],[45.5278,15.7915,986.265],[45.5557,15.8296,983.6352],[45.5867,15.8773,974.5969],[45.6295,15.9229,983.1577],[45.7105,15.9726,1091.3499],[45.8221,16.0118,1008.472],[46.8108,16.1619,883.7923],[46.9971,16.3699,972.6913],[47.0,16.95,851.1688],[46.75,17.2833,790.3716],[46.3667,17.2333,838.3473],[46.1,17.25,822.7863],[45.4,17.3333,992.9552],[45.2167,17.4333,998.7183],[44.8886,17.4333,1092.3297]]]]}}