{"type":"Feature","properties":{"GID_2":"YEM.12.9_1","GID_0":"YEM","country":"Yemen","GID_1":"YEM.12_1","province":"Hadramawt","NL_NAME_1":"حضرموت","county":"ArRaydahWaQusayar","VARNAME_2":"NA","NL_NAME_2":"الريدهوقصيعر","TYPE_2":"Muderiah","ENGTYPE_2":"District","CC_2":"1913","HASC_2":"NA","name":"Ar_Raydah_Wa_Qusayar.county"},
"geometry":{"type": "MultiPolygon","coordinates": [[[[50.2468,15.4688,1142.6569],[50.2071,15.4742,1014.7841],[50.1671,15.47,1099.2842],[50.1323,15.4589,1202.1904],[50.0899,15.4487,1154.5566],[50.0452,15.443,1116.6368],[50.0186,15.4099,1194.1632],[49.9771,15.3975,1171.2173],[49.9656,15.3899,1486.4406],[49.9632,15.3944,1234.7389],[49.8979,15.3926,1502.5907],[49.8525,15.3807,1320.8806],[49.8851,15.3308,1472.326],[49.9354,15.2876,1529.965],[50.0109,15.2265,1329.2816],[50.066,15.1686,1328.0858],[50.0698,15.112,616.8042],[50.1205,15.0809,378.8921],[50.1505,15.0436,187.5715],[50.1567,15.0168,128.1162],[50.1762,14.973,81.5896],[50.203,14.9457,37.8699],[50.2422,14.8976,1.2706],[50.2549,14.9043,2.0069],[50.261,14.9096,3.1644],[50.2699,14.911,0.0],[50.2799,14.9168,3.2249],[50.3085,14.926,2.5526],[50.3182,14.9274,2.325],[50.3187,14.9235,0.0],[50.324,14.9224,1.3768],[50.3265,14.9179,0.0],[50.329,14.9176,0.0],[50.3315,14.9265,2.8617],[50.3387,14.9301,0.0],[50.3393,14.9368,4.8032],[50.3518,14.9487,2.5318],[50.3835,14.9724,1.0822],[50.4085,14.9879,0.8828],[50.4212,14.9937,0.0],[50.4249,14.9976,3.0661],[50.4315,14.9988,0.8837],[50.4743,15.0232,0.5628],[50.4957,15.0271,0.838],[50.5507,15.0443,2.9119],[50.5615,15.0446,0.0],[50.586,15.051,1.6844],[50.619,15.0571,3.3375],[50.6637,15.0624,1.1148],[50.7035,15.0721,2.029],[50.7101,15.0724,2.8422],[50.721,15.0699,0.0],[50.7736,15.0832,2.0821],[50.7724,15.0915,3.6678],[50.7496,15.1424,43.6911],[50.7273,15.2029,234.6886],[50.7144,15.2332,848.0778],[50.691,15.2571,884.5409],[50.6619,15.3211,563.9669],[50.6384,15.3417,616.498],[50.6213,15.3421,686.7068],[50.5901,15.3329,829.1979],[50.5704,15.3667,900.506],[50.5395,15.3718,936.0571],[50.3378,15.4485,1078.0667],[50.2468,15.4688,1142.6569]]]]}}