{"type":"Feature","properties":{"GID_2":"YEM.5.12_1","GID_0":"YEM","country":"Yemen","GID_1":"YEM.5_1","province":"AlHudaydah","NL_NAME_1":"الحديده","county":"AlMunirah","VARNAME_2":"NA","NL_NAME_2":"المنيرة","TYPE_2":"Muderiah","ENGTYPE_2":"District","CC_2":"1805","HASC_2":"NA","name":"Al_Munirah.county"},
"geometry":{"type": "MultiPolygon","coordinates": [[[[43.0308,15.5296,62.985],[43.0323,15.5472,66.7612],[43.0243,15.5538,62.1119],[43.0162,15.5522,59.5936],[42.94,15.505,34.3303],[42.8974,15.4808,23.4854],[42.8226,15.4281,10.278],[42.7738,15.4209,0.1972],[42.771,15.4253,0.8908],[42.7691,15.4244,0.7075],[42.766,15.4185,0.0],[42.7696,15.4143,0.1957],[42.7699,15.4068,0.0],[42.7779,15.3954,0.5147],[42.7813,15.3876,0.0],[42.7818,15.3765,0.0],[42.7796,15.3754,0.0],[42.7793,15.3729,0.0],[42.7765,15.3729,0.0],[42.7765,15.3671,0.0],[42.779,15.3671,0.0],[42.7807,15.3612,0.0],[42.786,15.361,0.0],[42.7832,15.366,0.0],[42.7865,15.3671,0.0],[42.7876,15.3629,0.0],[42.7918,15.3624,0.0],[42.7951,15.3565,0.0],[42.7912,15.3449,0.0],[42.7918,15.331,0.0],[42.7901,15.3285,0.0],[42.7901,15.3229,0.0],[42.7868,15.3168,0.0],[42.774,15.3062,0.0],[42.7804,15.306,0.0],[42.7837,15.309,0.0],[42.7863,15.309,0.0],[42.7868,15.306,0.0],[42.7954,15.3038,0.0],[42.7974,15.2971,0.0],[42.8015,15.2913,0.0],[42.8099,15.2863,0.0],[42.8063,15.2712,0.8673],[42.7918,15.2565,0.0],[42.7863,15.249,0.4541],[42.7865,15.2465,1.3068],[42.7821,15.2446,0.0],[42.7818,15.2404,0.0],[42.7832,15.2385,0.0],[42.7813,15.2349,0.1665],[42.7799,15.2354,0.1665],[42.7801,15.2376,0.0],[42.7746,15.2351,0.0],[42.7732,15.2304,0.0],[42.7762,15.2249,1.4549],[42.7726,15.2288,0.0],[42.7718,15.234,0.0],[42.7703,15.2319,0.0],[42.7794,15.2189,1.6333],[42.7826,15.2106,1.746],[42.7815,15.2089,1.0823],[42.7818,15.1885,1.1027],[42.7971,15.1826,1.3776],[42.8015,15.1801,0.9359],[42.8024,15.1779,0.6479],[42.8271,15.1663,4.0913],[42.8368,15.1607,1.902],[42.8457,15.1532,9.4319],[42.8682,15.1641,15.586],[42.8749,15.1779,16.297],[42.8825,15.1829,19.0367],[42.9004,15.1926,27.1857],[42.9264,15.2028,30.8173],[42.9263,15.2113,27.3131],[42.9212,15.2143,25.8754],[42.912,15.2157,23.4898],[42.9008,15.221,21.7021],[42.8909,15.2379,21.8353],[42.8909,15.2464,20.8471],[42.8987,15.2575,23.2771],[42.923,15.2777,30.542],[42.9356,15.3124,36.4746],[42.9547,15.3351,40.537],[42.9614,15.3538,39.558],[42.9731,15.3576,41.4244],[42.9838,15.3566,43.1041],[42.9933,15.3578,45.344],[42.9806,15.374,45.5953],[42.9841,15.3899,51.4907],[42.9909,15.3998,48.0235],[43.0034,15.4265,51.699],[43.0024,15.4316,51.8962],[43.0072,15.4379,50.2279],[43.0107,15.4389,55.0844],[43.0237,15.4391,55.051],[43.0291,15.437,50.5663],[43.0303,15.4292,52.4445],[43.0287,15.422,58.4937],[43.0223,15.4172,55.4101],[43.0143,15.3924,56.2402],[43.0122,15.3768,52.2248],[43.0076,15.3662,50.0353],[43.0116,15.3678,52.9086],[43.0219,15.3683,56.9581],[43.0266,15.384,57.1564],[43.0259,15.4014,57.726],[43.028,15.4077,58.2135],[43.0324,15.4102,62.435],[43.0377,15.4098,60.9182],[43.0421,15.4216,57.9374],[43.042,15.4299,61.4408],[43.0295,15.4537,59.3074],[43.0278,15.4614,52.4965],[43.0288,15.4671,59.3377],[43.0256,15.4683,58.3234],[43.0211,15.4616,52.4294],[43.0192,15.4624,56.4486],[43.017,15.4717,60.7799],[43.0173,15.4812,56.9134],[43.0223,15.4991,60.0006],[43.0284,15.5128,63.5928],[43.0308,15.5296,62.985]]]]}}