{"type":"Feature","properties":{"GID_2":"YEM.16.3_1","GID_0":"YEM","country":"Yemen","GID_1":"YEM.16_1","province":"Ma'rib","NL_NAME_1":"مأرب","county":"Bidbadah","VARNAME_2":"NA","NL_NAME_2":"بدبده","TYPE_2":"Muderiah","ENGTYPE_2":"District","CC_2":"2605","HASC_2":"NA","name":"Bidbadah.county"},
"geometry":{"type": "MultiPolygon","coordinates": [[[[44.806,15.4154,1860.4103],[44.7789,15.4625,1673.8174],[44.7552,15.4753,1808.0239],[44.7163,15.4709,1771.2817],[44.6885,15.4476,1995.5763],[44.6889,15.4092,2224.9058],[44.6938,15.388,2211.054],[44.691,15.3493,2264.1721],[44.7016,15.3298,2199.634],[44.71,15.3263,2278.1133],[44.7335,15.3223,2326.168],[44.7656,15.3209,1849.2207],[44.7802,15.323,1778.4253],[44.7908,15.3281,1780.7205],[44.7977,15.3359,1729.4825],[44.8009,15.3433,1747.8877],[44.8053,15.3679,1765.6719],[44.806,15.4154,1860.4103]]]]}}