{"type":"Feature","properties":{"GID_2":"YEM.20.11_1","GID_0":"YEM","country":"Yemen","GID_1":"YEM.20_1","province":"Shabwah","NL_NAME_1":"شبوة","county":"Jardan","VARNAME_2":"NA","NL_NAME_2":"جردان","TYPE_2":"Muderiah","ENGTYPE_2":"District","CC_2":"2103","HASC_2":"NA","name":"Jardan.county"},
"geometry":{"type": "MultiPolygon","coordinates": [[[[46.306,15.6062,880.1259],[46.1635,15.5102,924.5065],[46.303,15.2497,917.5828],[46.3876,15.1358,879.8266],[46.4429,15.0149,911.8275],[46.526,14.8798,939.4147],[46.7077,14.7488,1005.4299],[46.8113,14.7384,1067.4329],[46.8738,14.7416,1135.9586],[47.0565,14.7372,1341.7634],[47.1046,14.7324,1345.4905],[47.1635,14.7357,1216.4919],[47.2146,14.7467,1427.1992],[47.3041,14.7963,1428.4562],[47.2354,14.861,1459.8162],[47.2084,14.9071,1477.3792],[47.1889,14.9188,1349.9558],[47.1339,14.9193,1500.7601],[47.1262,14.9346,1452.8563],[47.1382,14.9536,1198.6177],[47.1228,14.9919,1485.7017],[47.0336,15.1111,1010.1431],[46.9947,15.1535,948.0297],[46.9241,15.1732,883.394],[46.8892,15.2087,857.0323],[46.8394,15.3613,803.6362],[46.8133,15.4521,816.684],[46.7699,15.6476,825.8115],[46.306,15.6062,880.1259]]]]}}