{"type":"Feature","properties":{"GID_2":"YEM.5.15_1","GID_0":"YEM","country":"Yemen","GID_1":"YEM.5_1","province":"AlHudaydah","NL_NAME_1":"الحديده","county":"AsSalif","VARNAME_2":"NA","NL_NAME_2":"الصليف","TYPE_2":"Muderiah","ENGTYPE_2":"District","CC_2":"1804","HASC_2":"NA","name":"As_Salif.county"},
"geometry":{"type": "MultiPolygon","coordinates": [[[[42.1418,15.0707,0.0],[42.1401,15.071,0.0],[42.1407,15.0682,21.4435],[42.1376,15.0646,0.0],[42.1387,15.0624,0.0],[42.1454,15.0657,2.7285],[42.1454,15.0699,3.2841],[42.1418,15.0696,0.0],[42.1418,15.0707,0.0]]],
[[[42.1074,15.111,0.0],[42.1043,15.1115,0.0],[42.104,15.1087,0.0],[42.1054,15.1104,0.0],[42.1071,15.1079,0.0],[42.1074,15.111,0.0]]],
[[[42.109,15.1249,0.0],[42.1063,15.1254,0.0],[42.1032,15.1221,2.6467],[42.0979,15.1229,0.0],[42.0968,15.1218,0.0],[42.1029,15.1176,4.4369],[42.1015,15.1149,0.0],[42.1068,15.1157,0.0],[42.1115,15.1204,0.0],[42.109,15.1249,0.0]]],
[[[42.0974,15.1251,0.0],[42.0979,15.1265,0.0],[42.0962,15.1268,0.0],[42.0943,15.1246,0.0],[42.0962,15.124,0.0],[42.0974,15.1251,0.0]]],
[[[42.1593,15.031,1.251],[42.1554,15.0315,0.6346],[42.1518,15.0282,0.0],[42.1496,15.0204,0.0],[42.1529,15.0151,0.0],[42.1574,15.0168,0.0],[42.1576,15.0099,0.0],[42.1613,15.011,0.0],[42.1635,15.009,0.0],[42.1626,15.0129,16.7927],[42.1651,15.0126,0.0],[42.1671,15.0143,0.0],[42.1679,15.0251,2.3962],[42.1649,15.0293,0.0],[42.1593,15.031,1.251]]],
[[[42.1799,15.0793,0.0],[42.1754,15.0799,0.0],[42.1746,15.0779,11.0203],[42.1721,15.0779,0.0],[42.1699,15.0746,0.0],[42.1699,15.0696,1.3621],[42.166,15.0693,0.0],[42.1632,15.0657,0.0],[42.1601,15.0668,0.4435],[42.1624,15.064,6.7039],[42.1601,15.061,2.1925],[42.161,15.0582,0.0],[42.1626,15.0576,6.5535],[42.1638,15.0518,0.0],[42.1657,15.0518,0.0],[42.1649,15.0493,1.7831],[42.1668,15.0421,1.3595],[42.169,15.0401,0.0],[42.1688,15.0379,0.0],[42.171,15.0376,15.5675],[42.1721,15.0335,0.0],[42.1749,15.0335,0.0],[42.1754,15.0279,0.0],[42.1776,15.0276,0.0],[42.184,15.0301,0.0],[42.1843,15.0326,9.7835],[42.1868,15.0335,0.9214],[42.1885,15.0374,12.3197],[42.1937,15.0404,0.0],[42.1963,15.0465,0.0],[42.1951,15.0521,0.0],[42.1935,15.0515,2.5093],[42.1915,15.056,0.0],[42.1932,15.0621,0.0],[42.1907,15.0624,5.59],[42.1935,15.0682,0.0],[42.1899,15.0726,0.0],[42.1879,15.0726,6.4209],[42.1862,15.0774,0.0],[42.1799,15.0793,0.0]]],
[[[42.1576,15.0893,1.1973],[42.1563,15.0901,1.1973],[42.1482,15.0851,4.6988],[42.1465,15.086,1.8079],[42.1454,15.0835,0.4692],[42.1465,15.0787,0.0],[42.1512,15.0782,0.0],[42.1574,15.0807,3.2988],[42.1593,15.0851,12.1772],[42.1576,15.0893,1.1973]]],
[[[42.5715,15.1799,0.0],[42.5671,15.1776,0.0],[42.5668,15.1751,0.3908],[42.5693,15.1721,0.5446],[42.5738,15.174,0.0],[42.5715,15.1799,0.0]]],
[[[42.1165,15.1338,12.4798],[42.1126,15.1326,10.8961],[42.1121,15.1301,3.6015],[42.1165,15.1296,17.4745],[42.1165,15.1338,12.4798]]],
[[[42.1054,15.1507,0.0],[42.1037,15.1513,2.1145],[42.1015,15.149,0.0],[42.1046,15.1385,0.0],[42.1087,15.1418,0.0],[42.1079,15.1476,10.7905],[42.1054,15.1507,0.0]]],
[[[42.1143,15.1768,8.5902],[42.1087,15.176,20.5001],[42.1079,15.1735,0.0],[42.1124,15.1701,0.0],[42.1176,15.1693,4.8315],[42.119,15.171,0.0],[42.1143,15.1768,8.5902]]],
[[[42.7794,15.2189,1.6333],[42.7724,15.2272,0.0],[42.7703,15.2319,0.0],[42.7718,15.234,0.0],[42.7713,15.2368,0.0],[42.7668,15.2371,0.0],[42.7649,15.2399,0.2227],[42.766,15.2421,0.0],[42.7646,15.2451,0.0],[42.7663,15.2474,0.0],[42.764,15.2515,0.0],[42.7676,15.2563,0.0],[42.7663,15.2607,0.2108],[42.7682,15.2665,0.0],[42.7668,15.2668,1.229],[42.7668,15.2687,0.7868],[42.7621,15.2712,0.5434],[42.7601,15.2768,0.0],[42.7576,15.2774,0.0],[42.7557,15.2774,0.0],[42.7482,15.2707,0.0],[42.7457,15.279,0.0],[42.7326,15.2732,1.2224],[42.726,15.2804,0.7289],[42.7268,15.2851,0.0],[42.7293,15.2874,0.0],[42.7282,15.2901,0.0],[42.729,15.2951,0.9905],[42.7246,15.2965,0.5332],[42.7243,15.2996,0.0],[42.7193,15.3015,0.8175],[42.719,15.3115,0.0],[42.716,15.3124,0.0],[42.716,15.309,0.9487],[42.7132,15.3107,0.0],[42.7062,15.3113,0.0],[42.6999,15.309,0.0],[42.6971,15.3051,0.0],[42.6921,15.3049,0.0],[42.6921,15.301,0.1689],[42.6896,15.2988,0.0],[42.6893,15.2951,1.067],[42.6874,15.2957,0.0342],[42.6896,15.3007,0.0],[42.6899,15.3151,0.0],[42.6921,15.3157,0.0],[42.6949,15.3226,0.0],[42.6957,15.3382,0.0],[42.6965,15.3399,0.0],[42.6979,15.3385,0.0],[42.699,15.3393,0.0],[42.701,15.3465,0.0],[42.7038,15.3476,0.0],[42.7054,15.3515,0.0],[42.7049,15.3618,3.826],[42.7007,15.3657,0.0],[42.6932,15.3629,0.0],[42.6896,15.3563,0.0],[42.6882,15.3488,0.0],[42.6885,15.3449,0.0],[42.6904,15.3432,0.0],[42.6888,15.3399,0.0],[42.6896,15.331,0.2411],[42.6846,15.3282,0.0],[42.6807,15.3199,2.2794],[42.6685,15.3157,0.0],[42.6704,15.3138,3.6086],[42.6699,15.3104,0.0],[42.6671,15.3076,0.0],[42.6665,15.2999,0.0],[42.6674,15.299,0.0],[42.6674,15.301,0.5744],[42.6696,15.3001,0.0],[42.6729,15.2937,0.0],[42.681,15.2865,0.0],[42.6882,15.2743,0.0],[42.6882,15.2704,0.0],[42.6838,15.261,0.2499],[42.6785,15.2574,0.0],[42.6785,15.2549,0.0],[42.6804,15.2532,1.047],[42.679,15.2454,12.981],[42.674,15.2437,0.9741],[42.6718,15.2379,1.0791],[42.6682,15.2374,0.0],[42.6676,15.2346,2.8138],[42.6518,15.2329,1.3634],[42.6399,15.2338,0.0],[42.6296,15.2363,0.3668],[42.6257,15.2443,0.0],[42.6118,15.2532,0.7066],[42.6071,15.254,0.0],[42.6068,15.2521,0.2733],[42.6051,15.2529,0.0],[42.601,15.2485,0.0],[42.5999,15.2463,0.0],[42.6007,15.2365,3.0549],[42.5979,15.2374,0.0],[42.5965,15.2338,0.0],[42.5985,15.2246,0.0],[42.6071,15.216,0.0],[42.609,15.2174,3.6181],[42.6162,15.2104,0.0],[42.6171,15.2085,8.3402],[42.6157,15.2068,0.0],[42.6185,15.204,3.315],[42.6207,15.1957,0.0],[42.6232,15.1926,3.6229],[42.6224,15.189,0.0],[42.6301,15.1832,0.0],[42.6399,15.1812,1.1514],[42.6424,15.1785,0.0],[42.644,15.1788,0.0],[42.6443,15.1807,0.0],[42.6496,15.1793,0.0],[42.6596,15.181,0.0],[42.6651,15.1846,0.0],[42.6629,15.1863,0.0],[42.6643,15.1907,0.4159],[42.6685,15.1932,0.0],[42.6651,15.206,0.3408],[42.6712,15.2138,2.5195],[42.6768,15.2165,1.7481],[42.721,15.2079,0.0],[42.7817,15.1887,1.1027],[42.7826,15.2106,1.746],[42.7794,15.2189,1.6333]]],
[[[42.7557,15.2901,0.0],[42.7549,15.2965,0.0],[42.7515,15.2899,0.0],[42.7493,15.2887,0.0],[42.751,15.286,0.0],[42.7482,15.2818,0.0],[42.749,15.2807,0.0],[42.7529,15.2807,0.0],[42.7529,15.2826,0.0],[42.7571,15.2854,0.0],[42.7574,15.2896,0.0],[42.7557,15.2901,0.0]]]]}}