{"type":"Feature","properties":{"GID_2":"YEM.18.13_1","GID_0":"YEM","country":"Yemen","GID_1":"YEM.18_1","province":"Sa`dah","NL_NAME_1":"صعدة","county":"Sahar","VARNAME_2":"NA","NL_NAME_2":"سحار","TYPE_2":"Muderiah","ENGTYPE_2":"District","CC_2":"2211","HASC_2":"NA","name":"Sahar.county"},
"geometry":{"type": "MultiPolygon","coordinates": [[[[43.7672,16.6904,1891.5029],[43.7736,16.7108,1879.4907],[43.7729,16.7467,2013.0596],[43.7779,16.7646,2026.2676],[43.7778,16.775,1928.0034],[43.774,16.7925,2007.0265],[43.7739,16.8005,1999.3666],[43.782,16.8178,1953.4896],[43.7825,16.8225,1954.0413],[43.7756,16.8407,1970.5835],[43.765,16.8504,1949.3502],[43.7625,16.8652,1964.1244],[43.7672,16.8822,1953.7745],[43.7375,16.8944,2068.7407],[43.7477,16.922,1896.5288],[43.7539,16.928,1871.5641],[43.7529,16.9303,1872.4481],[43.7385,16.9302,1880.5232],[43.7384,16.9389,1881.9388],[43.7314,16.9354,1888.6189],[43.7218,16.9339,1888.5968],[43.7064,16.9432,1899.5455],[43.708,16.9496,1898.6821],[43.7174,16.9651,1890.1135],[43.7209,16.9668,1887.7065],[43.7463,16.9685,1881.4362],[43.7582,16.9734,1871.6108],[43.7739,16.9766,1842.2083],[43.7823,16.9821,1856.1746],[43.7904,16.9947,1840.2266],[43.7922,17.0167,1849.3373],[43.7857,17.0341,1821.0356],[43.7919,17.0427,1814.9343],[43.7945,17.0513,1813.6307],[43.784,17.0608,1852.2788],[43.7739,17.0628,1843.4165],[43.7434,17.046,1956.3303],[43.7365,17.0449,1889.9532],[43.7281,17.0499,1915.5664],[43.7219,17.0557,1891.1626],[43.7205,17.0643,1901.1592],[43.7168,17.0658,1918.3856],[43.7051,17.0871,1946.1763],[43.698,17.116,1908.5331],[43.6552,17.0966,1979.584],[43.6307,17.0829,1954.8431],[43.6142,17.0567,1956.0104],[43.6085,17.0445,1965.0441],[43.6102,17.0295,1974.991],[43.6136,17.0231,1974.1757],[43.6237,17.0258,1964.6328],[43.6278,17.0249,1963.1155],[43.6331,17.0288,1956.9662],[43.6393,17.0378,1947.2272],[43.6413,17.0438,1943.576],[43.6371,17.0547,1948.146],[43.6422,17.0627,1939.6362],[43.6516,17.0469,1934.7063],[43.6445,17.0219,1947.9231],[43.6298,17.005,1973.0525],[43.6182,17.0096,2013.3672],[43.6051,16.9751,2095.6384],[43.5935,16.9548,2295.3025],[43.5895,16.9494,2297.9646],[43.5716,16.9398,2275.2656],[43.5869,16.9032,2260.3862],[43.6005,16.8634,2339.2004],[43.5979,16.8076,2092.5291],[43.6012,16.7896,2089.2249],[43.6178,16.7691,1852.7822],[43.6267,16.7554,1732.5818],[43.638,16.7483,1653.9723],[43.6356,16.7398,1606.4305],[43.6406,16.7279,1586.5352],[43.6357,16.7146,1585.2679],[43.6432,16.6857,1523.4299],[43.6622,16.6656,1485.8833],[43.6656,16.6531,1483.7411],[43.6698,16.6536,1465.8301],[43.7144,16.6791,1674.5138],[43.7243,16.6874,1625.4399],[43.7383,16.6912,1771.7872],[43.7672,16.6904,1891.5029]]]]}}