{"type":"Feature","properties":{"GID_2":"YEM.14.5_1","GID_0":"YEM","country":"Yemen","GID_1":"YEM.14_1","province":"Ibb","NL_NAME_1":"إب","county":"AlUdayn","VARNAME_2":"NA","NL_NAME_2":"العدين","TYPE_2":"Muderiah","ENGTYPE_2":"District","CC_2":"1111","HASC_2":"NA","name":"Al_Udayn.county"},
"geometry":{"type": "MultiPolygon","coordinates": [[[[44.027,13.917,1369.1263],[44.0301,13.9247,1329.1716],[44.0335,13.9277,1327.0548],[44.0384,13.9289,1351.2635],[44.0493,13.9267,1403.0245],[44.0532,13.9275,1444.3907],[44.0671,13.9214,1495.3983],[44.0677,13.9197,1528.6384],[44.0718,13.9191,1551.1282],[44.0916,13.9237,1877.9414],[44.0944,13.9272,2007.0961],[44.093,13.93,2089.2563],[44.0781,13.9405,1753.9867],[44.0772,13.943,1712.7137],[44.0818,13.9472,1601.5715],[44.0772,13.9569,1521.5374],[44.0612,13.9629,1491.8115],[44.0593,13.9671,1465.2605],[44.057,13.9684,1456.1726],[44.0567,13.971,1538.7032],[44.0595,13.9725,1576.7068],[44.061,13.9716,1525.1467],[44.0616,13.9731,1574.0737],[44.0598,13.9794,1630.64],[44.0619,13.9816,1700.6012],[44.0581,13.9837,1609.8718],[44.0652,13.9892,1791.731],[44.0533,14.0009,1810.7213],[44.0515,13.9984,1936.4868],[44.0492,13.9982,1828.4056],[44.0469,14.0023,1597.3684],[44.0485,14.0051,1753.0909],[44.0552,14.0071,1798.8398],[44.0539,14.0129,1809.1814],[44.0493,14.011,1682.3148],[44.0497,14.0079,1666.6658],[44.0462,14.0078,1589.6376],[44.0474,14.0056,1656.1578],[44.044,14.0042,1532.1812],[44.0412,14.0066,1562.0229],[44.0416,14.0094,1577.1407],[44.0276,14.0207,1940.646],[44.0252,14.0315,2066.4126],[44.0215,14.0351,2175.9395],[44.0179,14.0353,2008.0964],[44.0069,14.0288,2090.1482],[44.0073,14.0171,1830.7408],[43.9996,14.0063,1498.8495],[43.9851,13.9911,1294.8381],[43.9707,13.999,1523.5586],[43.9615,14.0084,1297.6361],[43.9606,14.0154,1252.5911],[43.958,14.0158,1208.0234],[43.9455,14.0088,1166.3091],[43.9275,13.9927,1001.089],[43.9257,13.9936,1001.089],[43.9257,13.997,1014.3035],[43.9149,13.9993,1008.9058],[43.912,14.0072,970.0934],[43.9094,14.0057,959.2565],[43.9079,14.0085,945.3989],[43.9097,14.0131,970.5746],[43.9066,14.0241,1085.2771],[43.9162,14.0409,1679.9225],[43.9049,14.0595,1349.8695],[43.9122,14.0771,1267.6217],[43.9237,14.0903,1211.0237],[43.935,14.1163,1129.8088],[43.9346,14.122,1103.1176],[43.9318,14.1255,1107.8547],[43.931,14.1345,1110.6343],[43.9251,14.138,1060.729],[43.9144,14.1323,1120.5865],[43.8986,14.1066,1556.6885],[43.8542,14.0644,1127.1337],[43.8389,14.0645,1013.3893],[43.8375,14.0531,791.826],[43.8322,14.0534,783.9508],[43.8267,14.0613,751.1208],[43.8226,14.0606,843.0905],[43.8237,14.0564,728.1468],[43.8189,14.0552,744.9193],[43.8078,14.0588,703.8657],[43.7954,14.0483,732.5951],[43.7883,14.0444,683.0085],[43.7863,14.0463,673.2197],[43.7734,14.039,813.7482],[43.7762,14.0337,739.1598],[43.7902,14.0384,691.6471],[43.7909,14.0307,730.5137],[43.7957,14.0251,841.2354],[43.8036,14.0228,807.8212],[43.8221,14.0115,1170.462],[43.8245,14.0052,1223.0425],[43.8331,14.0023,1350.0852],[43.8372,13.9959,1236.2421],[43.8528,13.9981,1227.0807],[43.8715,13.9929,1414.0807],[43.8902,13.99,1064.5776],[43.9028,13.9917,972.9888],[43.9081,13.9904,1047.5627],[43.9134,13.9849,1109.9434],[43.9138,13.9788,1058.7841],[43.9093,13.9726,1107.8621],[43.8963,13.9737,1055.251],[43.8885,13.9724,1063.3225],[43.8751,13.9679,1102.9443],[43.8723,13.9651,1126.8048],[43.8697,13.9596,1115.9237],[43.8645,13.937,1204.0691],[43.857,13.9246,1328.8424],[43.8557,13.9155,1491.5309],[43.8565,13.9048,1325.2075],[43.8705,13.8799,1742.4962],[43.8653,13.8776,1576.3575],[43.8626,13.8726,1858.2886],[43.8629,13.87,1933.0149],[43.8806,13.854,1553.1499],[43.9018,13.8552,2260.5056],[43.9055,13.8571,2297.4155],[43.9071,13.8663,2368.7417],[43.9097,13.8691,2412.062],[43.915,13.871,2286.2234],[43.9255,13.8696,2058.2874],[43.9297,13.8778,1864.2477],[43.9304,13.8824,1784.0623],[43.9283,13.887,1766.1689],[43.9273,13.898,1671.3749],[43.9322,13.8979,1846.9985],[43.932,13.8995,1894.3204],[43.9342,13.8998,1920.1384],[43.9333,13.9011,1920.1572],[43.9377,13.9009,1933.4546],[43.9431,13.9049,1673.4285],[43.9469,13.9035,1647.0813],[43.9554,13.9059,1496.4233],[43.9567,13.9027,1588.5444],[43.9545,13.9009,1544.9213],[43.9555,13.8984,1659.8015],[43.9592,13.8975,1670.6541],[43.9608,13.9021,1477.4542],[43.9582,13.9072,1473.0863],[43.9644,13.9097,1547.3682],[43.9664,13.9128,1566.1702],[43.9692,13.9125,1655.7567],[43.971,13.9106,1807.9375],[43.9693,13.9075,1665.1309],[43.975,13.8997,1789.2717],[43.9773,13.8997,1991.4401],[43.9874,13.907,1538.3354],[44.0058,13.9079,1429.8733],[44.0086,13.9211,1306.0087],[44.0221,13.9153,1342.3276],[44.027,13.917,1369.1263]]]]}}