{"type":"Feature","properties":{"GID_2":"YEM.16.13_1","GID_0":"YEM","country":"Yemen","GID_1":"YEM.16_1","province":"Ma'rib","NL_NAME_1":"مأرب","county":"Rahabah","VARNAME_2":"NA","NL_NAME_2":"رحبه","TYPE_2":"Muderiah","ENGTYPE_2":"District","CC_2":"2608","HASC_2":"NA","name":"Rahabah.county"},
"geometry":{"type": "MultiPolygon","coordinates": [[[[44.963,14.8064,1670.8544],[44.993,14.8129,1557.8479],[45.031,14.8252,1613.345],[45.0516,14.8206,1616.9912],[45.0542,14.8104,1564.5593],[45.0811,14.8159,1594.0747],[45.0899,14.8226,1620.6758],[45.1084,14.8254,1803.9583],[45.1294,14.8392,1710.537],[45.1501,14.857,1990.387],[45.1775,14.8683,1944.8608],[45.2178,14.8994,1970.7964],[45.2698,14.9365,1556.38],[45.2539,14.9873,1754.8369],[45.1534,14.9874,1686.5942],[45.1534,15.0221,2040.0757],[45.1246,15.0221,1847.1727],[45.1381,15.0358,2039.9609],[45.1381,15.0726,1708.6995],[45.1235,15.0726,2074.1938],[45.1235,15.1074,1738.5211],[45.0682,15.1076,1397.9546],[45.0573,15.0943,1535.0493],[45.0348,15.0764,1425.7959],[44.9737,15.006,1550.2811],[44.951,14.9694,1509.1228],[44.9426,14.9482,1438.9872],[44.9405,14.9297,1653.6908],[44.9299,14.9159,1961.1265],[44.9101,14.8829,1916.1517],[44.9072,14.857,2118.4766],[44.908,14.7945,1810.1196],[44.963,14.8064,1670.8544]]]]}}