{"type":"Feature","properties":{"GID_2":"YEM.2.7_1","GID_0":"YEM","country":"Yemen","GID_1":"YEM.2_1","province":"Abyan","NL_NAME_1":"أبين","county":"Mudiyah","VARNAME_2":"NA","NL_NAME_2":"موديه","TYPE_2":"Muderiah","ENGTYPE_2":"District","CC_2":"1202","HASC_2":"NA","name":"Mudiyah.county"},
"geometry":{"type": "MultiPolygon","coordinates": [[[[46.4348,14.0872,1542.1849],[46.4107,14.0836,1272.7067],[46.3738,14.0743,1121.5836],[46.3379,14.07,1057.3199],[46.3185,14.0638,1270.9368],[46.3046,14.054,1193.0791],[46.2908,14.0595,1066.0724],[46.2847,14.0731,1212.4207],[46.2872,14.0803,1496.7234],[46.235,14.0464,1372.0886],[46.1798,14.0143,1739.9989],[46.149,14.0183,1690.4751],[46.1356,14.011,1743.6799],[46.1286,14.0104,1541.4376],[46.0519,13.9802,1308.3967],[46.0066,13.9363,1070.7886],[46.0045,13.8829,835.6246],[46.0101,13.8645,826.7142],[46.0345,13.857,804.2972],[46.0364,13.8441,801.6713],[46.0297,13.8385,799.384],[46.0382,13.8349,797.9673],[46.0551,13.8312,782.5184],[46.1215,13.8312,739.4881],[46.1651,13.808,750.1063],[46.1743,13.7896,784.615],[46.1752,13.735,809.3135],[46.1735,13.7318,812.2373],[46.2886,13.7358,475.0497],[46.3512,13.7355,430.0825],[46.3761,13.8275,606.0623],[46.3733,13.9813,753.7739],[46.3902,14.0264,1449.1715],[46.4182,14.0606,1308.3364],[46.4348,14.0872,1542.1849]]]]}}