{"type":"Feature","properties":{"GID_2":"YEM.18.5_1","GID_0":"YEM","country":"Yemen","GID_1":"YEM.18_1","province":"Sa`dah","NL_NAME_1":"صعدة","county":"Ghamr","VARNAME_2":"NA","NL_NAME_2":"غمر","TYPE_2":"Muderiah","ENGTYPE_2":"District","CC_2":"2204","HASC_2":"NA","name":"Ghamr.county"},
"geometry":{"type": "MultiPolygon","coordinates": [[[[43.2426,17.0335,1476.0112],[43.2503,17.0137,1317.0161],[43.3069,16.985,1884.3752],[43.313,16.9781,1885.3351],[43.3092,16.9521,2581.0737],[43.3135,16.9223,1351.4104],[43.324,16.8916,911.097],[43.3251,16.8942,923.7717],[43.3519,16.9076,1492.2124],[43.3615,16.9225,2239.759],[43.3655,16.9367,1889.8669],[43.3664,16.9508,1816.0511],[43.364,16.9625,1771.3149],[43.3671,16.9754,1705.3835],[43.3901,16.9757,1785.1187],[43.3839,16.9982,1797.991],[43.3755,17.0061,1606.7993],[43.3659,17.0119,1570.6455],[43.3422,17.0203,1843.8198],[43.3351,17.0245,1746.6134],[43.3288,17.0346,1354.3447],[43.3245,17.0367,1346.96],[43.3208,17.0412,1344.899],[43.3147,17.0544,1478.16],[43.3049,17.0594,1115.0864],[43.2588,17.0608,1121.5032],[43.2282,17.0649,978.1008],[43.2288,17.0589,997.8779],[43.2397,17.0474,1060.9497],[43.2426,17.0335,1476.0112]]],
[[[43.1919,17.018,1238.4708],[43.1917,17.0176,1238.4708],[43.191,17.0161,1259.666],[43.1919,17.018,1238.4708]]],
[[[43.198,17.0139,1238.9133],[43.1925,17.0153,1286.0402],[43.1957,17.0135,1251.4719],[43.198,17.0139,1238.9133]]],
[[[43.2254,17.0114,1191.4348],[43.2278,17.0208,1072.6027],[43.2275,17.0207,1072.6027],[43.2254,17.0114,1191.4348]]],
[[[43.2226,17.0761,681.2884],[43.2165,17.077,726.22],[43.2272,17.0754,733.6674],[43.2226,17.0761,681.2884]]],
[[[43.1958,17.0893,1117.7979],[43.1873,17.0968,1144.8171],[43.2081,17.0783,651.7344],[43.2006,17.085,1005.9799],[43.1958,17.0893,1117.7979]]],
[[[43.1904,17.0248,1151.7123],[43.1921,17.0262,1098.5042],[43.1822,17.0303,893.8281],[43.1904,17.0248,1151.7123]]]]}}