{"type":"Feature","properties":{"GID_2":"YEM.16.7_1","GID_0":"YEM","country":"Yemen","GID_1":"YEM.16_1","province":"Ma'rib","NL_NAME_1":"مأرب","county":"Mahliyah","VARNAME_2":"NA","NL_NAME_2":"ماهليه","TYPE_2":"Muderiah","ENGTYPE_2":"District","CC_2":"2610","HASC_2":"NA","name":"Mahliyah.county"},
"geometry":{"type": "MultiPolygon","coordinates": [[[[45.3148,14.5548,2089.7686],[45.3094,14.5576,2093.0425],[45.3023,14.5565,2078.2378],[45.3039,14.5603,2100.4224],[45.2806,14.569,2069.0957],[45.2764,14.5734,2068.2144],[45.2802,14.5861,2042.875],[45.2814,14.5863,2042.875],[45.2668,14.6077,2012.0034],[45.2652,14.617,1965.0939],[45.2622,14.6956,1827.6552],[45.2626,14.7242,1818.2007],[45.2317,14.7253,1736.2009],[45.1955,14.8032,1754.4604],[45.1689,14.832,2002.3179],[45.1581,14.8603,1992.3496],[45.1501,14.857,1990.387],[45.1294,14.8392,1710.537],[45.1084,14.8254,1803.9583],[45.0899,14.8226,1620.6758],[45.0811,14.8159,1594.0747],[45.0542,14.8104,1564.5593],[45.0547,14.8082,1541.7697],[45.0516,14.799,1517.1875],[45.0531,14.745,1635.0062],[45.0749,14.6053,1852.0858],[45.077,14.6037,1852.0392],[45.082,14.5891,1767.2396],[45.1001,14.5558,1874.3691],[45.1161,14.5324,1835.3376],[45.1869,14.504,1864.9409],[45.1916,14.521,1907.7339],[45.2242,14.5577,2016.6906],[45.2481,14.5603,2147.7405],[45.2569,14.5576,2083.2612],[45.2966,14.5346,2092.1963],[45.3114,14.5328,2117.374],[45.3148,14.5548,2089.7686]]]]}}