{"type":"Feature","properties":{"GID_2":"YEM.8.1_1","GID_0":"YEM","country":"Yemen","GID_1":"YEM.8_1","province":"AlMahwit","NL_NAME_1":"المحويت","county":"AlKhabt","VARNAME_2":"NA","NL_NAME_2":"الخبت","TYPE_2":"Muderiah","ENGTYPE_2":"District","CC_2":"2704","HASC_2":"NA","name":"Al_Khabt.county"},
"geometry":{"type": "MultiPolygon","coordinates": [[[[43.2494,15.4482,205.1239],[43.2602,15.4493,224.626],[43.2608,15.4474,224.8927],[43.2575,15.4352,225.9407],[43.2631,15.4365,290.5688],[43.2697,15.4341,334.4698],[43.3114,15.444,428.393],[43.3276,15.4499,433.2513],[43.3382,15.451599999999999,495.6615],[43.3445,15.4497,520.1367],[43.3455,15.4437,539.3929],[43.3583,15.4246,971.4114],[43.3592,15.4199,1054.2632],[43.366,15.4151,1294.7697],[43.3813,15.412,912.3652],[43.384,15.4452,601.2865],[43.3775,15.4543,646.9471],[43.3716,15.4583,794.0931],[43.3722,15.464,503.7346],[43.3745,15.4665,502.9083],[43.3727,15.4694,489.8423],[43.3744,15.4718,518.9],[43.378,15.4712,499.364],[43.384,15.4746,552.633],[43.407,15.4759,594.286],[43.4114,15.4552,749.3221],[43.425,15.4318,856.3889],[43.432,15.43,960.4979],[43.4511,15.436,845.3267],[43.4503,15.4388,825.0192],[43.4599,15.4438,837.7558],[43.4654,15.4509,868.3824],[43.4641,15.4518,774.752],[43.4633,15.4607,769.8928],[43.4651,15.4733,832.0395],[43.4807,15.4848,699.9733],[43.4767,15.4934,616.8533],[43.477,15.4973,597.9655],[43.4944,15.5026,756.8875],[43.4863,15.508,653.5522],[43.4898,15.5105,675.6572],[43.4878,15.5138,689.7268],[43.4897,15.5291,684.3566],[43.4847,15.533,586.3024],[43.4844,15.5456,534.2367],[43.4719,15.5498,512.6625],[43.4606,15.5514,481.7672],[43.4477,15.5409,762.5458],[43.4376,15.5419,998.8744],[43.4151,15.5386,749.2465],[43.4028,15.5338,741.4724],[43.3824,15.5351,724.447],[43.3204,15.5318,351.2059],[43.3082,15.5216,790.9357],[43.3022,15.5186,634.8904],[43.2966,15.5126,413.926],[43.2766,15.5148,605.79],[43.2428,15.5139,189.438],[43.241,15.5113,188.27],[43.241,15.4658,226.2578],[43.2435,15.4628,212.5578],[43.2504,15.4608,230.4296],[43.251,15.451599999999999,211.1356],[43.2494,15.4482,205.1239]]]]}}