{"type":"Feature","properties":{"GID_2":"YEM.13.21_1","GID_0":"YEM","country":"Yemen","GID_1":"YEM.13_1","province":"Hajjah","NL_NAME_1":"حجه","county":"KuhlanAshSharaf","VARNAME_2":"NA","NL_NAME_2":"كحلانالشرف","TYPE_2":"Muderiah","ENGTYPE_2":"District","CC_2":"1709","HASC_2":"NA","name":"Kuhlan_Ash_Sharaf.county"},
"geometry":{"type": "MultiPolygon","coordinates": [[[[43.4417,15.984,970.7855],[43.4433,15.985,1037.6575],[43.4427,15.9894,1122.3933],[43.446,15.9958,1469.3148],[43.4559,16.0006,1575.7871],[43.4582,16.0002,1740.2219],[43.4696,15.9902,1789.7572],[43.4994,15.9907,1281.0784],[43.5271,15.9796,1084.1423],[43.5457,15.9774,1088.4791],[43.5451,15.986,1119.4695],[43.5355,15.9969,1308.3867],[43.5249,16.0009,1368.3038],[43.5145,15.9994,1393.3827],[43.5102,16.0024,1572.6638],[43.5055,16.0207,1338.6709],[43.4958,16.0359,1360.6172],[43.4917,16.0345,1486.3582],[43.4894,16.0357,1407.2352],[43.4874,16.046,1395.729],[43.4912,16.0529,1574.6587],[43.4964,16.0558,1583.6437],[43.4971,16.0589,1623.6926],[43.4956,16.0637,1542.2988],[43.4899,16.0678,1584.09],[43.4689,16.0687,1282.0897],[43.4555,16.0665,1475.1331],[43.4439,16.0623,1459.2739],[43.4475,16.0466,1539.2273],[43.446,16.0419,1228.3491],[43.442,16.0386,1148.9985],[43.4331,16.037,972.6287],[43.431,16.0229,821.9312],[43.4268,16.0135,731.0468],[43.4268,16.0085,749.5294],[43.4302,16.0036,786.5707],[43.43,15.9862,797.2419],[43.4316,15.9842,833.4188],[43.4417,15.984,970.7855]]]]}}