{"type":"Feature","properties":{"GID_2":"YEM.5.17_1","GID_0":"YEM","country":"Yemen","GID_1":"YEM.5_1","province":"AlHudaydah","NL_NAME_1":"الحديده","county":"AtTuhayat","VARNAME_2":"NA","NL_NAME_2":"التحيتا","TYPE_2":"Muderiah","ENGTYPE_2":"District","CC_2":"1826","HASC_2":"NA","name":"At_Tuhayat.county"},
"geometry":{"type": "MultiPolygon","coordinates": [[[[42.8174,13.861,1.3329],[42.8176,13.8621,0.0],[42.8163,13.8618,0.0],[42.8143,13.8571,0.0],[42.8146,13.8532,0.0],[42.8163,13.8557,5.812],[42.8174,13.861,1.3329]]],
[[[42.8226,13.881,2.6218],[42.8229,13.8821,0.4661],[42.8171,13.8707,1.494],[42.819,13.8668,0.7522],[42.8185,13.864,0.0],[42.8196,13.8643,0.0],[42.8201,13.8674,0.0],[42.8226,13.8693,2.6463],[42.8213,13.8757,0.6392],[42.8226,13.881,2.6218]]],
[[[42.8129,13.8813,0.0],[42.811,13.8818,0.3625],[42.8104,13.881,0.3625],[42.8118,13.8796,0.0],[42.8129,13.8813,0.0]]],
[[[42.8168,13.8888,0.9552],[42.8163,13.8865,0.0],[42.8182,13.8912,0.0],[42.8179,13.8912,0.0],[42.8168,13.8888,0.9552]]],
[[[42.809,13.8779,17.4778],[42.8065,13.8785,19.7631],[42.806,13.8768,11.2503],[42.8013,13.8754,2.1001],[42.7949,13.8774,0.1859],[42.7868,13.8682,32.7935],[42.7796,13.8635,10.0434],[42.7726,13.8513,0.0],[42.7762,13.8465,37.6008],[42.7749,13.8437,0.0],[42.776,13.839,0.0],[42.7793,13.8415,2.6234],[42.7807,13.8401,0.0],[42.7824,13.8413,1.3958],[42.7826,13.8399,0.0],[42.7868,13.846,4.371],[42.7899,13.8443,0.0],[42.7946,13.8463,0.0],[42.7971,13.8526,8.8295],[42.8007,13.854,0.0],[42.801,13.8588,20.6057],[42.8035,13.8599,0.0],[42.8035,13.8629,6.5636],[42.806,13.8651,1.2281],[42.806,13.8693,26.634],[42.8104,13.8749,0.0],[42.811,13.8768,0.0],[42.809,13.8779,17.4778]]],
[[[42.7132,13.8793,0.0],[42.7151,13.8796,0.0],[42.7154,13.8807,0.8499],[42.7135,13.8799,0.0],[42.7132,13.8793,0.0]]],
[[[42.714,13.886,8.2843],[42.7099,13.8849,0.0],[42.7096,13.8813,0.0],[42.711,13.8849,0.0],[42.7154,13.8832,0.0],[42.7157,13.8851,0.0],[42.714,13.886,8.2843]]],
[[[42.7157,13.9407,0.0],[42.7163,13.9429,0.0],[42.714,13.9396,0.0],[42.7146,13.9393,0.0],[42.7157,13.9407,0.0]]],
[[[42.7193,13.9576,0.0],[42.716,13.9585,2.8944],[42.7143,13.9565,17.6012],[42.7149,13.9524,41.2915],[42.711,13.9468,0.0],[42.7115,13.9418,0.0],[42.7126,13.9446,13.3656],[42.7157,13.9443,0.0],[42.7154,13.9499,4.6105],[42.719,13.9532,0.0],[42.7193,13.9576,0.0]]],
[[[42.6968,13.9593,22.4167],[42.6937,13.9596,1.4955],[42.6937,13.9563,0.0],[42.6965,13.9571,0.0],[42.6976,13.954,0.0],[42.6963,13.9535,0.0],[42.6976,13.9529,0.0],[42.699,13.9549,0.0],[42.6968,13.9593,22.4167]]],
[[[42.7629,14.0721,0.0],[42.7585,14.0715,0.0],[42.7571,14.0676,0.0],[42.754,14.0696,0.3337],[42.7487,14.0682,2.0411],[42.7443,14.0649,0.0],[42.7443,14.0615,1.1891],[42.7396,14.0593,0.0],[42.7349,14.0593,0.0],[42.7321,14.0626,0.0],[42.7324,14.0601,0.0],[42.7262,14.0565,0.4668],[42.7218,14.0504,0.2438],[42.7171,14.0485,0.2021],[42.7157,14.046,1.2467],[42.7118,14.046,0.0],[42.7057,14.0418,0.0],[42.7035,14.0376,0.0],[42.7035,14.0338,0.0],[42.7021,14.0318,0.0],[42.701,14.0329,0.0],[42.6996,14.0288,0.0],[42.704,14.0296,0.0],[42.7076,14.0413,0.0],[42.7118,14.0426,0.3629],[42.7121,14.0413,0.0],[42.7076,14.0326,0.7674],[42.706,14.0324,0.0],[42.7043,14.0265,0.0],[42.6993,14.0249,0.0],[42.6996,14.0282,0.0],[42.696,14.0293,0.0],[42.6932,14.0265,0.0],[42.6926,14.0221,0.0],[42.6899,14.0176,0.0],[42.6796,14.0104,5.7766],[42.6757,14.0043,0.0],[42.6862,14.0026,0.566],[42.6876,13.9985,0.0],[42.6862,13.9976,0.0],[42.6871,13.9921,0.3161],[42.6854,13.9904,0.0],[42.6857,13.9874,0.0],[42.6871,13.9868,0.0],[42.6899,13.9893,1.1453],[42.6915,13.9879,0.4104],[42.6951,13.9888,4.2892],[42.7121,13.9796,1.8369],[42.7149,13.9746,7.2024],[42.7129,13.9707,0.0],[42.7135,13.9632,0.0],[42.7168,13.9596,0.0],[42.7176,13.9632,14.8038],[42.7243,13.9643,1.6657],[42.726,13.9626,17.0963],[42.7249,13.9576,1.6357],[42.7282,13.9571,10.5319],[42.7279,13.9532,0.0],[42.736,13.9535,0.0],[42.7385,13.951,1.3865],[42.7399,13.9526,9.8641],[42.7429,13.9518,0.0],[42.7457,13.9538,4.791],[42.7479,13.9526,0.0],[42.7546,13.9535,0.6769],[42.7601,13.951,0.2749],[42.7618,13.9463,1.4846],[42.7532,13.9393,4.2679],[42.7518,13.9351,32.7243],[42.7485,13.9324,0.0],[42.7465,13.9224,0.0],[42.7487,13.9218,28.1729],[42.7487,13.9187,8.8419],[42.7463,13.9113,0.0],[42.7504,13.9071,4.4001],[42.756,13.9107,6.1679],[42.754,13.9151,2.3665],[42.7518,13.9157,0.0],[42.7526,13.9176,1.788],[42.759,13.9179,0.0],[42.7588,13.9213,17.5956],[42.7607,13.9232,3.8259],[42.769,13.9249,0.3415],[42.7715,13.9238,0.4731],[42.7718,13.9215,0.5807],[42.7671,13.909,0.0],[42.7701,13.9063,0.4481],[42.7768,13.9051,0.0],[42.779,13.9071,27.3716],[42.7813,13.906,0.0],[42.7832,13.9099,3.0637],[42.7876,13.9135,2.8953],[42.7826,13.9168,0.9886],[42.7793,13.9251,1.3973],[42.7751,13.9257,0.7479],[42.7743,13.9279,2.1385],[42.784,13.9382,0.0],[42.7843,13.9482,0.0],[42.7793,13.9551,3.5656],[42.7818,13.9671,0.0],[42.7796,13.9738,0.2574],[42.7826,13.9771,1.2618],[42.7824,13.981,3.1643],[42.7854,13.9826,1.2989],[42.7904,13.9893,0.3446],[42.7879,13.9963,0.0],[42.7893,14.0029,0.3758],[42.7879,14.0124,2.0591],[42.7896,14.0165,1.5627],[42.7879,14.0204,0.0],[42.7888,14.0221,1.9287],[42.7912,14.0213,0.4564],[42.7949,14.0296,0.0],[42.7882,14.0304,3.8964],[42.7863,14.0371,0.0],[42.7876,14.0401,2.509],[42.7868,14.0438,0.0],[42.7807,14.049,2.5129],[42.7788,14.0529,0.0],[42.7715,14.0551,13.9105],[42.7704,14.0596,3.0044],[42.7671,14.0607,8.7278],[42.7651,14.0635,0.5939],[42.7651,14.0688,0.0],[42.7629,14.0721,0.0]]],
[[[42.7607,14.0876,0.0],[42.7588,14.0882,0.0],[42.7574,14.086,0.0],[42.7582,14.0826,0.0],[42.7599,14.0821,13.5871],[42.7621,14.0832,0.0],[42.7607,14.0876,0.0]]],
[[[42.816,14.079,3.8988],[42.8149,14.0796,3.8988],[42.8129,14.0763,1.3764],[42.8168,14.0751,0.0],[42.8174,14.0782,5.2928],[42.816,14.079,3.8988]]],
[[[42.8213,14.0821,0.0],[42.8185,14.0824,0.0],[42.8179,14.081,0.0],[42.8224,14.076,1.4851],[42.8232,14.0821,0.0],[42.8213,14.0821,0.0]]],
[[[43.2917,14.1638,93.3505],[43.2905,14.1678,94.6398],[43.3037,14.1718,100.1809],[43.3004,14.1741,98.2251],[43.2962,14.1832,92.0571],[43.2958,14.2144,94.2024],[43.265,14.2193,76.8614],[43.1204,14.2616,25.3888],[43.1135,14.2781,24.4887],[43.051,14.2634,0.0],[43.0568,14.251,0.0],[43.0668,14.2382,2.3477],[43.0707,14.2301,0.6902],[43.0765,14.2026,4.4808],[43.0754,14.196,0.4295],[43.0765,14.1815,2.0288],[43.0785,14.174,0.1037],[43.0876,14.1554,0.0],[43.0896,14.1421,0.0],[43.0885,14.1251,0.0],[43.0921,14.1149,0.0],[43.1085,14.0882,0.0],[43.1063,14.0746,0.1081],[43.0974,14.0635,0.1215],[43.1071,14.0599,1.6098],[43.1132,14.0557,1.7238],[43.1221,14.0426,1.3811],[43.1237,14.0326,0.7293],[43.1271,14.0268,0.0],[43.1454,14.009,3.3724],[43.1468,14.0057,2.9788],[43.1457,13.9865,0.2028],[43.1543,13.9765,1.8101],[43.1576,13.9699,0.457],[43.1599,13.9535,0.0],[43.1693,13.9482,0.6089],[43.1707,13.9446,3.5131],[43.1899,13.9335,2.3732],[43.201,13.9179,0.5735],[43.1988,13.9132,0.3544],[43.2004,13.911,2.6511],[43.2001,13.9057,1.3767],[43.2179,13.8974,5.4861],[43.2411,13.9009,27.1744],[43.2864,13.9033,51.475],[43.2759,14.125,73.7843],[43.2804,14.1353,78.4866],[43.2899,14.1422,87.4282],[43.2898,14.154,94.0714],[43.2917,14.1638,93.3505]]]]}}