{"type":"Feature","properties":{"GID_2":"YEM.19.10_1","GID_0":"YEM","country":"Yemen","GID_1":"YEM.19_1","province":"San`a'","NL_NAME_1":"صنعاء","county":"Hamdan","VARNAME_2":"NA","NL_NAME_2":"همدان","TYPE_2":"Muderiah","ENGTYPE_2":"District","CC_2":"2301","HASC_2":"NA","name":"Hamdan.county"},
"geometry":{"type": "MultiPolygon","coordinates": [[[[43.9144,15.4983,2541.3953],[43.9308,15.4912,2544.3616],[43.9443,15.4884,2579.2256],[43.9564,15.4797,2635.4993],[43.9624,15.4696,2577.6865],[43.9625,15.4521,2658.2458],[43.9551,15.4318,2673.6431],[43.9551,15.4237,2760.0933],[43.9585,15.4209,2734.7446],[43.9927,15.4147,2733.0828],[44.0204,15.4007,2717.1875],[44.053,15.3976,2614.4053],[44.0611,15.3898,2631.7185],[44.0483,15.3613,2642.8535],[44.0532,15.3487,2670.8523],[44.0728,15.3441,2570.0796],[44.0858,15.3457,2525.7026],[44.1039,15.3611,2504.3093],[44.126,15.3597,2700.0063],[44.1436,15.3517,2611.5942],[44.1388,15.3644,2663.2437],[44.1399,15.3774,2540.6504],[44.1457,15.3957,2334.437],[44.155,15.3999,2308.9114],[44.1658,15.4005,2304.5293],[44.1659,15.4112,2307.3311],[44.1424,15.4344,2361.5869],[44.1322,15.4382,2245.7104],[44.1292,15.4413,2243.9529],[44.1211,15.454,2352.687],[44.1208,15.4626,2283.0879],[44.1303,15.4684,2326.2073],[44.1598,15.4754,2229.063],[44.1649,15.4833,2211.1675],[44.1828,15.485,2187.6245],[44.1904,15.4964,2190.2305],[44.1887,15.501,2246.71],[44.1908,15.5052,2190.9734],[44.1974,15.5057,2177.0022],[44.2023,15.5008,2176.6226],[44.2055,15.5071,2171.4888],[44.2055,15.5108,2172.7729],[44.1995,15.5133,2173.8916],[44.1999,15.5361,2169.637],[44.2007,15.5412,2168.3853],[44.207,15.545,2167.7153],[44.2109,15.5535,2179.365],[44.1781,15.5745,2225.3237],[44.1483,15.5716,2282.5325],[44.1287,15.5826,2426.4321],[44.1155,15.6205,2569.0088],[44.1037,15.6439,2666.7964],[44.0949,15.6382,2593.3657],[44.0839,15.6411,2578.2473],[44.0778,15.6277,2555.3777],[44.0624,15.6185,2607.5281],[44.0449,15.5856,2643.9194],[44.0246,15.5731,2639.0537],[43.9998,15.5627,2633.2656],[43.9666,15.5573,2500.8435],[43.9618,15.5609,2496.8755],[43.9561,15.5709,2471.1401],[43.9561,15.5846,2467.7705],[43.9617,15.5965,2409.5479],[43.9616,15.6029,2326.4932],[43.9578,15.6056,2351.8677],[43.9541,15.6056,2366.1353],[43.9381,15.5973,2313.0095],[43.925,15.5854,2416.2258],[43.912,15.5773,2737.8584],[43.9161,15.5648,2619.9185],[43.9172,15.552,2535.4946],[43.9101,15.5422,2566.3032],[43.9005,15.5343,2569.2285],[43.9115,15.5251,2566.6404],[43.909,15.5156,2553.51],[43.9148,15.5021,2542.6072],[43.9144,15.4983,2541.3953]]]]}}