{"type":"Feature","properties":{"GID_2":"YEM.7.1_1","GID_0":"YEM","country":"Yemen","GID_1":"YEM.7_1","province":"AlMahrah","NL_NAME_1":"المهره","county":"AlGhaydah","VARNAME_2":"NA","NL_NAME_2":"الغيظه","TYPE_2":"Muderiah","ENGTYPE_2":"District","CC_2":"2804","HASC_2":"NA","name":"Al_Ghaydah.county"},
"geometry":{"type": "MultiPolygon","coordinates": [[[[52.2073,15.619,36.5886],[52.2101,15.6249,7.486],[52.2143,15.6265,0.0],[52.2212,15.6332,9.4977],[52.2254,15.6346,5.1262],[52.2243,15.6407,3.0413],[52.2171,15.6507,1.0602],[52.2171,15.6585,0.2806],[52.2157,15.6626,0.0],[52.2126,15.6646,77.5161],[52.2115,15.6763,265.1887],[52.2082,15.6824,113.2527],[52.2079,15.689,131.313],[52.2049,15.6943,81.1248],[52.206,15.6965,0.0],[52.1963,15.7193,0.0],[52.1968,15.7232,0.0],[52.1946,15.7321,11.6535],[52.1963,15.7354,0.0],[52.194,15.7371,0.0],[52.1937,15.7426,0.0],[52.1912,15.7463,15.6539],[52.194,15.7487,0.0],[52.1918,15.7507,21.9694],[52.1926,15.7529,59.3016],[52.1912,15.7574,54.4876],[52.1882,15.7599,67.5005],[52.1896,15.7738,5.5938],[52.1951,15.7782,0.0],[52.1951,15.7804,0.0],[52.2007,15.7804,0.0],[52.2035,15.7832,74.3801],[52.2024,15.7846,21.3396],[52.1976,15.7846,138.9634],[52.1951,15.789,8.2449],[52.1949,15.7913,0.0],[52.1982,15.7951,0.0],[52.2001,15.8012,0.0],[52.1965,15.8024,0.0],[52.1946,15.811,0.0],[52.1899,15.8171,0.9132],[52.1901,15.8207,2.1905],[52.1924,15.8226,3.6449],[52.1954,15.821,1.1651],[52.1965,15.8218,2.1983],[52.1971,15.8196,0.1751],[52.2007,15.8196,7.1354],[52.2024,15.8176,0.342],[52.2026,15.8188,1.5276],[52.1993,15.8218,15.0375],[52.2001,15.824,0.0],[52.1963,15.8251,5.4045],[52.1954,15.8285,9.1442],[52.1868,15.8407,0.0],[52.1815,15.8435,3.4709],[52.1738,15.844,0.7883],[52.1651,15.8504,15.7232],[52.1601,15.8565,2.2784],[52.1618,15.8713,0.0],[52.1601,15.8732,1.2229],[52.1601,15.8776,1.5038],[52.1626,15.8829,7.0574],[52.1615,15.8888,5.7112],[52.1635,15.8946,0.0],[52.1626,15.8968,6.2332],[52.164,15.8976,7.2737],[52.1637,15.9071,1.8999],[52.1676,15.9104,0.2822],[52.1688,15.9226,1.4806],[52.1718,15.9232,0.0],[52.1674,15.926,0.0],[52.1657,15.9251,3.698],[52.1618,15.9268,1.5623],[52.159,15.9304,0.2719],[52.1593,15.9343,0.0],[52.156,15.9343,3.5472],[52.1546,15.9374,0.0],[52.151,15.939,0.0],[52.1465,15.9676,0.9818],[52.1526,15.9926,0.0],[52.1649,16.0118,0.0],[52.1693,16.0263,0.0],[52.181,16.0499,0.0807],[52.1865,16.0654,1.4139],[52.196,16.0751,0.0],[52.2024,16.0976,2.2887],[52.2046,16.1332,0.5899],[52.2221,16.1646,1.324],[52.2376,16.2024,0.5],[52.2468,16.2101,0.0],[52.2532,16.2182,0.0],[52.2804,16.2565,0.0],[52.2932,16.2687,0.0],[52.3174,16.2982,0.0],[52.3571,16.3424,0.4443],[52.3851,16.3687,0.0],[52.4368,16.4079,0.0],[52.479,16.4326,1.72],[52.5393,16.4579,1.2697],[52.5812,16.4737,0.0],[52.6465,16.4954,0.0],[52.6629,16.4993,0.0],[52.6763,16.5054,0.9042],[52.6951,16.5099,0.0],[52.6979,16.5126,0.3724],[52.7038,16.5146,51.7085],[52.7062,16.5138,0.8472],[52.7135,16.5174,0.0],[52.5953,16.6356,951.4023],[52.5871,16.6375,1061.5444],[52.5751,16.6666,1039.1426],[52.5383,16.8112,1120.7839],[52.5293,16.8706,1007.8771],[52.4397,16.8685,990.1079],[52.2467,16.896,1029.9908],[52.1647,16.9096,975.5511],[52.1297,16.8932,1003.3087],[52.0166,16.8175,963.4055],[51.9229,16.7046,709.2976],[51.8406,16.6177,608.3097],[51.8076,16.6104,581.4107],[51.8083,16.5811,401.5239],[51.7512,16.5325,576.1425],[51.5932,16.3899,483.8418],[51.5426,16.2835,260.6664],[51.5432,16.2814,271.0786],[51.5306,16.2574,306.2604],[51.5027,16.1776,276.8757],[51.4776,16.1221,315.1525],[51.4623,16.07,377.3962],[51.4521,16.041,438.1127],[51.5941,16.011,346.922],[51.6792,15.9887,359.8641],[51.7459,15.955,445.4048],[51.8129,15.9017,536.5361],[51.8752,15.8664,571.9245],[51.9725,15.8479,560.2524],[52.0973,15.7875,651.8942],[52.1722,15.7364,695.5521],[52.2007,15.6459,557.4222],[52.2073,15.619,36.5886]]]]}}