{"type":"Feature","properties":{"GID_2":"YEM.3.2_1","GID_0":"YEM","country":"Yemen","GID_1":"YEM.3_1","province":"AlBayda'","NL_NAME_1":"البيضاء","county":"AlBayda","VARNAME_2":"NA","NL_NAME_2":"البيضاء","TYPE_2":"Muderiah","ENGTYPE_2":"District","CC_2":"1410","HASC_2":"NA","name":"Al_Bayda.county"},
"geometry":{"type": "MultiPolygon","coordinates": [[[[45.56,13.8965,1527.4786],[45.5592,13.8982,1490.4185],[45.5829,13.9073,1703.7058],[45.5934,13.9132,2123.3608],[45.6166,13.9497,2133.2549],[45.6232,13.9556,2164.9553],[45.6321,13.968,2138.4216],[45.6393,13.9819,2095.5645],[45.6488,13.9909,2074.0669],[45.6316,14.0387,2084.0596],[45.6305,14.0603,2047.0985],[45.6133,14.1418,1859.7183],[45.6018,14.1792,1742.1232],[45.603,14.203,1726.7559],[45.6067,14.2102,1758.2914],[45.5721,14.2313,1849.1672],[45.5068,14.2332,1855.8511],[45.4733,14.1952,1875.6514],[45.5153,14.1263,1982.5557],[45.5318,14.1038,1883.7977],[45.5312,14.0876,1921.3621],[45.4908,14.031,2026.1167],[45.4795,14.027,2019.9995],[45.4745,14.027,2019.1691],[45.4889,13.9838,2041.23],[45.4902,13.976,2080.4492],[45.489,13.9694,2049.2935],[45.4812,13.9555,2099.4216],[45.4597,13.9293,2175.3535],[45.4476,13.8922,2055.7246],[45.468,13.8894,1960.5717],[45.518,13.9051,1354.2539],[45.56,13.8965,1527.4786]],
[[45.5887,13.9955,2038.328],[45.5886,13.9743,2073.7971],[45.536,13.9745,2010.7855],[45.5288,13.9784,2027.3613],[45.5244,13.9939,1970.4177],[45.5523,13.9954,2001.4977],[45.5887,13.9955,2038.328]]]]}}