{"type":"Feature","properties":{"GID_2":"YEM.20.1_1","GID_0":"YEM","country":"Yemen","GID_1":"YEM.20_1","province":"Shabwah","NL_NAME_1":"شبوة","county":"Ain","VARNAME_2":"NA","NL_NAME_2":"عين","TYPE_2":"Muderiah","ENGTYPE_2":"District","CC_2":"2106","HASC_2":"NA","name":"Ain.county"},
"geometry":{"type": "MultiPolygon","coordinates": [[[[45.5828,14.7107,1927.5533],[45.6417,14.8363,1988.23],[45.6785,14.9319,1942.3604],[45.7039,14.9878,1365.7871],[45.7263,15.0567,1107.6074],[45.6936,15.1899,1051.9834],[45.5999,15.1078,1087.7302],[45.5781,15.0805,1098.2087],[45.5352,14.9984,1126.1167],[45.5231,14.9793,1136.572],[45.5186,14.9691,1137.0723],[45.5117,14.9449,1148.5033],[45.5069,14.9379,1150.6959],[45.5065,14.9304,1150.7292],[45.5158,14.9091,1160.079],[45.5157,14.8953,1167.2605],[45.5124,14.8926,1182.7344],[45.51,14.8932,1179.5294],[45.5035,14.886,1176.1818],[45.4933,14.8499,1383.5626],[45.482,14.7938,1880.7192],[45.4746,14.7468,1765.285],[45.4759,14.7385,1376.5896],[45.48,14.7312,1451.8126],[45.4892,14.7247,1358.2864],[45.5009,14.7186,1670.2222],[45.5147,14.714,1899.7565],[45.5828,14.7107,1927.5533]]]]}}