{"type":"Feature","properties":{"GID_2":"YEM.13.29_1","GID_0":"YEM","country":"Yemen","GID_1":"YEM.13_1","province":"Hajjah","NL_NAME_1":"حجه","county":"Sharas","VARNAME_2":"NA","NL_NAME_2":"شرس","TYPE_2":"Muderiah","ENGTYPE_2":"District","CC_2":"1719","HASC_2":"NA","name":"Sharas.county"},
"geometry":{"type": "MultiPolygon","coordinates": [[[[43.6863,15.6639,1397.8021],[43.6945,15.6712,1624.319],[43.7024,15.6883,1726.3369],[43.6965,15.6956,1669.4274],[43.6846,15.7048,1375.5459],[43.686,15.7113,1874.5327],[43.6941,15.715,1491.2712],[43.6961,15.719,1511.9606],[43.6953,15.7224,1626.191],[43.6928,15.7253,1603.1689],[43.6867,15.7269,1526.8336],[43.6783,15.725,1360.4434],[43.6714,15.7289,1434.0405],[43.6618,15.7376,1476.8816],[43.6563,15.7399,1491.8723],[43.6524,15.7444,1497.8975],[43.6509,15.7578,1211.2798],[43.6531,15.7671,1444.3806],[43.6582,15.7758,1226.2391],[43.6545,15.7822,1326.0459],[43.6475,15.7859,1223.9473],[43.6399,15.8007,1305.0503],[43.6069,15.7898,1201.1541],[43.6153,15.7784,1335.8269],[43.616,15.775,1408.1963],[43.618899999999996,15.7199,1563.3075],[43.6223,15.7194,1456.1282],[43.6293,15.7118,1605.5504],[43.6295,15.7059,1433.7413],[43.6273,15.7006,1571.7424],[43.6279,15.691,1299.083],[43.6315,15.6869,1383.6421],[43.634,15.6863,1462.9663],[43.6457,15.6922,1552.9802],[43.6532,15.6905,1418.6458],[43.6501,15.679,1504.3328],[43.6463,15.6757,1547.2126],[43.6455,15.6688,1742.8339],[43.6542,15.6643,1346.0414],[43.6558,15.6566,1491.0553],[43.6683,15.6642,1332.5592],[43.6756,15.6656,1387.9492],[43.6863,15.6639,1397.8021]]]]}}