{"type":"Feature","properties":{"GID_2":"YEM.13.10_1","GID_0":"YEM","country":"Yemen","GID_1":"YEM.13_1","province":"Hajjah","NL_NAME_1":"حجه","county":"Aslem","VARNAME_2":"NA","NL_NAME_2":"اسلم","TYPE_2":"Muderiah","ENGTYPE_2":"District","CC_2":"1712","HASC_2":"NA","name":"Aslem.county"},
"geometry":{"type": "MultiPolygon","coordinates": [[[[43.2873,15.9575,292.1699],[43.294,15.9564,308.2046],[43.3196,15.941,344.8386],[43.328,15.9387,348.5455],[43.3371,15.932,376.4919],[43.3472,15.9346,407.4388],[43.3444,15.9437,396.456],[43.3458,15.9526,394.8633],[43.3441,15.9592,373.0923],[43.3411,15.9636,356.1379],[43.3486,15.9882,395.91],[43.3657,15.9975,430.3394],[43.3673,16.0055,429.6215],[43.3498,16.0285,394.8105],[43.3458,16.0474,433.3644],[43.3525,16.0631,502.9849],[43.3633,16.0743,521.401],[43.3674,16.082,675.3737],[43.3644,16.0837,615.4794],[43.3524,16.085,501.2595],[43.3459,16.0884,529.0957],[43.3417,16.0966,730.4721],[43.3398,16.1051,596.1079],[43.3354,16.1096,552.5565],[43.3268,16.1141,466.0849],[43.2936,16.1428,405.201],[43.2822,16.1748,362.1479],[43.2501,16.1862,250.6973],[43.2405,16.1879,256.2831],[43.2204,16.1873,186.2877],[43.2275,16.1668,228.3755],[43.2226,16.0545,336.2319],[43.2266,16.0464,213.7501],[43.233,16.0403,204.9099],[43.2518,16.0328,236.2681],[43.2588,16.0262,278.0931],[43.2623,16.0158,255.1562],[43.2825,15.9915,286.6887],[43.2883,15.9724,279.9354],[43.2873,15.9575,292.1699]]]]}}