{"type":"Feature","properties":{"GID_2":"YEM.20.6_1","GID_0":"YEM","country":"Yemen","GID_1":"YEM.20_1","province":"Shabwah","NL_NAME_1":"شبوة","county":"Ataq","VARNAME_2":"NA","NL_NAME_2":"عتق","TYPE_2":"Muderiah","ENGTYPE_2":"District","CC_2":"2113","HASC_2":"NA","name":"Ataq.county"},
"geometry":{"type": "MultiPolygon","coordinates": [[[[46.9551,14.739,1562.6838],[46.8738,14.7416,1135.9586],[46.8113,14.7384,1067.4329],[46.7077,14.7488,1005.4299],[46.6925,14.7595,995.5445],[46.6922,14.7565,996.6777],[46.6884,14.7509,998.1099],[46.658,14.6195,1057.4601],[46.6514,14.5165,1151.507],[46.6745,14.4591,1376.6011],[46.6858,14.4075,1266.0382],[46.6955,14.3915,1246.4597],[46.7045,14.4035,1246.7762],[46.7248,14.4067,1250.3314],[46.7646,14.4165,1292.5554],[46.8177,14.4116,1276.9952],[46.8599,14.3958,1540.2494],[46.902,14.3839,1370.4689],[46.9222,14.3739,1303.0406],[46.9306,14.3672,1344.8228],[46.9442,14.3704,1330.7864],[46.9543,14.3752,1325.8871],[46.9763,14.38,1210.7939],[46.9933,14.3831,1316.4702],[47.0124,14.3826,1560.2672],[47.0032,14.4394,1468.5332],[46.9862,14.5082,1585.1194],[46.981,14.5941,1543.4069],[46.9699,14.6628,1525.7454],[46.9551,14.739,1562.6838]]]]}}