{"type":"Feature","properties":{"GID_2":"YEM.11.9_1","GID_0":"YEM","country":"Yemen","GID_1":"YEM.11_1","province":"Dhamar","NL_NAME_1":"ذمار","county":"Mayfa'atAnss","VARNAME_2":"NA","NL_NAME_2":"ميفعةعنس","TYPE_2":"Muderiah","ENGTYPE_2":"District","CC_2":"2009","HASC_2":"NA","name":"Mayfa'at_Anss.county"},
"geometry":{"type": "MultiPolygon","coordinates": [[[[44.742,14.4804,2311.1951],[44.7319,14.513,2457.1631],[44.7124,14.5545,2617.9243],[44.7062,14.5749,2804.7117],[44.7062,14.5968,2619.5459],[44.7084,14.6136,2506.4255],[44.7192,14.6434,2396.0005],[44.6412,14.6597,2430.6367],[44.6362,14.664,2383.9287],[44.6246,14.667,2334.9614],[44.6137,14.6669,2311.9819],[44.6044,14.6616,2341.9246],[44.5965,14.6386,2551.6958],[44.5804,14.6314,2585.5354],[44.556399999999996,14.626,2899.9434],[44.5246,14.6154,2501.5374],[44.5006,14.6018,2433.127],[44.4867,14.5874,2450.2097],[44.4793,14.5697,2451.9355],[44.4891,14.5383,2449.0337],[44.5105,14.4877,2467.4663],[44.5114,14.4672,2459.8477],[44.531,14.4049,2656.7502],[44.5453,14.4022,2702.7053],[44.5719,14.408,2517.9883],[44.5988,14.4172,2386.8879],[44.6111,14.4168,2378.6389],[44.6254,14.3646,2713.9541],[44.6304,14.3655,2743.8474],[44.665,14.3635,2677.1494],[44.6696,14.3664,2715.782],[44.6779,14.377,2418.7463],[44.6844,14.3887,2333.5723],[44.7007,14.4478,2393.2837],[44.7001,14.4573,2370.3281],[44.7141,14.4692,2353.1726],[44.7306,14.4775,2341.562],[44.742,14.4804,2311.1951]]]]}}