{"type":"Feature","properties":{"GID_2":"YEM.11.1_1","GID_0":"YEM","country":"Yemen","GID_1":"YEM.11_1","province":"Dhamar","NL_NAME_1":"ذمار","county":"AlHada","VARNAME_2":"NA","NL_NAME_2":"الحداء","TYPE_2":"Muderiah","ENGTYPE_2":"District","CC_2":"2001","HASC_2":"NA","name":"Al_Hada.county"},
"geometry":{"type": "MultiPolygon","coordinates": [[[[44.8365,14.7473,1888.5419],[44.815,14.7833,1977.5547999999999],[44.7951,14.813,1937.925],[44.7645,14.8362,1830.6564],[44.7505,14.8577,1957.3845],[44.7143,14.8622,1905.1202],[44.7058,14.9301,1899.6699],[44.7022,15.0093,2035.1422],[44.6809,15.0181,2186.0986],[44.6324,15.0123,2126.4976],[44.5437,14.9813,2177.7017],[44.5355,14.9709,2232.4424],[44.5115,14.9546,2224.2798],[44.4603,14.9394,2317.7102],[44.4385,14.9348,2382.3105],[44.3915,14.9579,2417.1772],[44.3781,14.9698,2507.9392],[44.3706,14.9822,2515.3723],[44.3667,14.9843,2588.5469],[44.3539,14.9856,2610.6338],[44.3445,14.9713,2561.4578],[44.3493,14.9584,2763.7192],[44.355,14.9506,2482.5352],[44.3506,14.9278,2513.6245],[44.2993,14.9277,2479.8696],[44.3,14.9238,2467.5767],[44.3165,14.8934,2391.623],[44.3272,14.8805,2447.46],[44.3292,14.8759,2516.7896],[44.3322,14.8401,2401.1323],[44.3381,14.8142,2367.5579],[44.3488,14.7992,2381.3057],[44.3574,14.7681,2361.7007],[44.3616,14.7461,2336.8381],[44.35,14.7401,2327.0132],[44.3458,14.736,2322.9895],[44.3602,14.7298,2323.0752],[44.3767,14.72,2304.8118],[44.3965,14.7196,2297.9648],[44.3991,14.7061,2298.3726],[44.4026,14.6983,2300.0845],[44.4103,14.6997,2314.0068],[44.4166,14.6877,2357.9351],[44.4097,14.6703,2330.0771],[44.4098,14.6609,2345.5645],[44.4228,14.649,2345.0122],[44.4464,14.616,2406.1924],[44.4781,14.61,2403.9539],[44.4905,14.6032,2423.5894],[44.496,14.597,2440.1323],[44.5006,14.6018,2433.127],[44.5246,14.6154,2501.5374],[44.556399999999996,14.626,2899.9434],[44.5804,14.6314,2585.5354],[44.5965,14.6386,2551.6958],[44.6044,14.6616,2341.9246],[44.6137,14.6669,2311.9819],[44.6246,14.667,2334.9614],[44.6362,14.664,2383.9287],[44.6412,14.6597,2430.6367],[44.7192,14.6434,2396.0005],[44.7353,14.6704,2322.3992],[44.7465,14.6843,2268.7751],[44.7803,14.7119,2041.3898],[44.8365,14.7473,1888.5419]]]]}}