{"type":"Feature","properties":{"GID_2":"YEM.5.14_1","GID_0":"YEM","country":"Yemen","GID_1":"YEM.5_1","province":"AlHudaydah","NL_NAME_1":"الحديده","county":"Alluheyah","VARNAME_2":"NA","NL_NAME_2":"اللحية","TYPE_2":"Muderiah","ENGTYPE_2":"District","CC_2":"1802","HASC_2":"NA","name":"Alluheyah.county"},
"geometry":{"type": "MultiPolygon","coordinates": [[[[42.5051,15.5054,0.9402],[42.5013,15.5063,0.3842],[42.4932,15.5015,0.2819],[42.4863,15.4999,0.0],[42.4824,15.4949,0.0],[42.4821,15.4921,0.0],[42.4863,15.4851,0.0],[42.4868,15.4876,0.0],[42.4901,15.4896,0.0],[42.4976,15.489,0.0],[42.4987,15.4901,0.0],[42.501,15.4932,0.0],[42.4971,15.4926,0.0],[42.4963,15.4957,0.0],[42.4974,15.4968,0.0],[42.5029,15.4985,0.0],[42.5129,15.4971,2.0875],[42.5143,15.4935,1.0943],[42.5124,15.4887,0.0],[42.5021,15.4893,0.0],[42.4996,15.4818,0.0],[42.5013,15.4782,0.0],[42.5035,15.4774,0.0],[42.5137,15.4765,0.0],[42.5176,15.4804,0.0],[42.5199,15.4854,0.0],[42.5254,15.4882,0.0],[42.5293,15.4946,0.2429],[42.5324,15.496,0.3367],[42.5329,15.4993,0.0],[42.531,15.5015,0.0],[42.5179,15.5001,1.8788],[42.5051,15.5054,0.9402]]],
[[[42.5596,15.5749,0.0],[42.5585,15.5782,0.0],[42.5507,15.5713,0.0],[42.5388,15.569,0.0],[42.534,15.5663,0.0],[42.5349,15.5599,0.0],[42.5376,15.5579,0.0],[42.5393,15.5621,0.0],[42.5418,15.5596,0.0],[42.5454,15.5629,0.0],[42.549,15.5593,0.0],[42.5571,15.5668,0.0],[42.5599,15.5721,0.0],[42.5596,15.5749,0.0]]],
[[[42.5015,15.5926,0.8635],[42.4979,15.5938,0.0],[42.496,15.5913,2.3737],[42.4979,15.5899,0.0],[42.5015,15.5926,0.8635]]],
[[[42.5665,15.7093,0.0],[42.5526,15.7101,0.0],[42.546,15.7076,0.0],[42.5424,15.7088,0.0],[42.5399,15.7038,0.0],[42.5468,15.7021,0.0],[42.5646,15.7018,0.0],[42.566,15.7049,0.0],[42.569,15.7051,0.0],[42.5665,15.7093,0.0]]],
[[[42.6015,15.651,0.3347],[42.5982,15.6518,0.2375],[42.5946,15.6501,2.3291],[42.5874,15.6501,0.0],[42.5846,15.6465,0.4561],[42.5857,15.6421,0.0],[42.5949,15.6365,0.5427],[42.5965,15.6274,0.0],[42.5949,15.6254,0.0],[42.5988,15.6201,0.0],[42.6035,15.6182,0.0],[42.611,15.6199,0.0],[42.616,15.6238,0.0],[42.6135,15.626,0.2381],[42.6165,15.6276,1.0442],[42.6201,15.6263,0.0],[42.624,15.6271,0.0],[42.6257,15.6238,0.0],[42.6288,15.6246,0.0],[42.6299,15.6226,0.0],[42.6363,15.624,0.0],[42.6396,15.6265,0.0],[42.6396,15.6299,0.0],[42.6379,15.629,0.0],[42.6379,15.6313,0.0],[42.6349,15.6304,4.6415],[42.6276,15.6338,0.0],[42.6243,15.6335,1.29],[42.6218,15.6374,0.0],[42.6193,15.6371,0.0],[42.616,15.6399,0.2567],[42.6099,15.6399,0.3093],[42.6065,15.6479,0.4737],[42.6015,15.651,0.3347]]],
[[[43.0318,15.5389,63.6447],[43.0308,15.5296,62.985],[43.0663,15.5337,74.4571],[43.0802,15.5429,78.073],[43.1124,15.5552,87.7531],[43.1653,15.5601,112.3585],[43.1519,15.6121,127.3102],[43.1445,15.6236,124.7193],[43.1288,15.6325,114.3912],[43.1137,15.6334,104.995],[43.0898,15.6302,97.4784],[43.0815,15.6306,96.481],[43.06,15.6461,90.578],[43.0172,15.6628,77.9238],[43.0078,15.6648,75.0093],[42.9957,15.6763,77.3074],[42.9883,15.6903,70.7255],[42.9752,15.6972,62.7702],[42.9581,15.6887,60.4444],[42.9393,15.6975,52.2506],[42.9324,15.7165,50.2357],[42.9176,15.7285,46.0091],[42.911,15.7395,41.985],[42.9116,15.7496,40.4751],[42.891,15.7807,28.1968],[42.8823,15.8192,24.4422],[42.8695,15.8272,20.4732],[42.862,15.8406,16.59],[42.8531,15.8427,13.0259],[42.8092,15.8682,0.0],[42.8079,15.8676,0.0],[42.8004,15.8579,0.0],[42.7912,15.851,0.0],[42.7793,15.8376,0.0],[42.7757,15.8285,0.0],[42.7757,15.826,0.0],[42.7782,15.826,0.1083],[42.7788,15.8221,0.2645],[42.7768,15.8176,0.4445],[42.7713,15.8126,0.5671],[42.7649,15.8099,0.0],[42.7585,15.8107,0.0],[42.7546,15.8132,0.0],[42.7585,15.8093,0.0],[42.7582,15.8051,0.0],[42.7618,15.804,0.5358],[42.7604,15.7932,0.6204],[42.7571,15.789,0.2618],[42.7526,15.7879,0.8118],[42.7513,15.7901,0.0],[42.7363,15.7988,0.0],[42.7465,15.7901,0.1213],[42.7426,15.7838,0.8884],[42.7371,15.7826,0.0],[42.7374,15.781,0.0],[42.7357,15.7807,0.0],[42.7407,15.7782,0.3274],[42.7418,15.7738,0.6398],[42.7415,15.7657,0.6658],[42.7374,15.7588,0.0],[42.7368,15.7549,0.4841],[42.7315,15.7524,0.2549],[42.7287,15.7529,0.0],[42.7282,15.7496,1.0459],[42.7251,15.7496,0.2893],[42.7163,15.7432,1.4651],[42.7157,15.7404,1.4999],[42.7129,15.7379,1.5323],[42.7076,15.7396,0.189],[42.7062,15.7388,0.0],[42.7065,15.7363,0.2633],[42.7046,15.7363,2.1131],[42.7038,15.7396,0.0],[42.701,15.7388,0.0],[42.6974,15.7404,0.0],[42.6974,15.7385,0.0],[42.7004,15.7379,0.2634],[42.7007,15.7324,0.3723],[42.709,15.731,1.6758],[42.7071,15.7301,0.0],[42.7079,15.7271,3.3459],[42.7065,15.7257,0.8436],[42.7026,15.7265,1.1835],[42.696,15.731,0.0],[42.6957,15.7338,0.0],[42.6926,15.7301,0.0],[42.6885,15.7329,0.0],[42.6868,15.7238,0.0],[42.6846,15.7221,0.0],[42.6853,15.7249,0.0],[42.6838,15.724,0.0],[42.6849,15.7254,0.0],[42.6832,15.7274,0.0],[42.6815,15.7196,0.0],[42.676,15.716,0.0],[42.6774,15.7151,0.0],[42.6821,15.7179,0.0],[42.679,15.7024,0.1643],[42.6807,15.6938,0.9481],[42.6765,15.6929,0.0],[42.6754,15.6954,0.0],[42.6743,15.6935,0.0],[42.6763,15.6865,0.0],[42.679,15.684,0.0],[42.6787,15.6818,0.0],[42.684,15.6899,0.0],[42.6871,15.6907,0.0],[42.6896,15.6943,0.0],[42.7032,15.696,0.0],[42.706,15.6932,1.729],[42.7085,15.6818,0.9993],[42.7026,15.6754,0.0],[42.7018,15.6724,0.6576],[42.7001,15.6726,0.0],[42.6988,15.6668,0.409],[42.6971,15.6668,0.0],[42.6979,15.6588,0.4044],[42.6965,15.6557,0.0],[42.6996,15.6496,0.5162],[42.6937,15.6446,0.0],[42.6918,15.6396,0.0],[42.6954,15.6388,0.0],[42.6982,15.6335,0.0],[42.7038,15.6296,0.0],[42.7026,15.6182,0.0],[42.7038,15.6157,0.0],[42.7093,15.6104,0.0],[42.7104,15.6113,0.0],[42.7193,15.6063,0.0],[42.7224,15.6013,0.0],[42.7221,15.5946,0.0],[42.714,15.5882,0.0],[42.7065,15.5671,0.0],[42.6943,15.566,0.0],[42.6963,15.5626,0.0],[42.6963,15.5576,0.0],[42.7096,15.5426,0.0],[42.7157,15.5446,0.0],[42.7193,15.5424,0.0],[42.724,15.5435,0.0],[42.726,15.5399,0.0],[42.731,15.5393,0.0],[42.7426,15.5332,1.7599],[42.7432,15.529,0.1521],[42.7443,15.5296,0.1521],[42.7457,15.5271,0.0],[42.7457,15.5229,0.0],[42.7515,15.5143,0.0],[42.7501,15.5085,0.0],[42.7518,15.5076,0.0],[42.7518,15.5046,0.0],[42.7543,15.5038,0.0],[42.7551,15.4976,0.0],[42.7621,15.4896,0.0],[42.7601,15.4826,0.0],[42.7607,15.4782,0.0],[42.7699,15.4699,0.0],[42.774,15.4632,0.0],[42.7701,15.4551,0.0],[42.7735,15.4421,0.0],[42.7704,15.4407,0.0],[42.7679,15.4324,0.0],[42.759,15.4238,0.0],[42.759,15.4213,0.0],[42.7626,15.4201,0.0],[42.7657,15.4213,0.0],[42.766,15.4188,0.0],[42.771,15.4253,0.8908],[42.7738,15.4209,0.1972],[42.8226,15.4281,10.278],[42.8974,15.4808,23.4854],[42.94,15.505,34.3303],[43.0162,15.5522,59.5936],[43.0243,15.5538,62.1119],[43.0323,15.5472,66.7612],[43.0318,15.5389,63.6447]]],
[[[42.676,15.6821,0.0],[42.6743,15.6874,0.0],[42.6751,15.6785,0.0],[42.6726,15.6785,0.0],[42.6721,15.6768,0.0],[42.6743,15.6768,0.0],[42.6746,15.6732,0.0],[42.6765,15.6729,0.0],[42.6782,15.6779,0.0],[42.676,15.6821,0.0]]],
[[[42.6851,15.7343,0.0],[42.6843,15.736,0.0],[42.6843,15.7274,0.0],[42.6865,15.7313,0.0],[42.6851,15.7343,0.0]]],
[[[42.5193,15.7165,0.4351],[42.5187,15.7193,0.0],[42.5135,15.7179,0.3827],[42.5121,15.7151,0.4777],[42.5157,15.7143,1.0251],[42.5193,15.7165,0.4351]]],
[[[42.5021,15.734,0.0],[42.4971,15.7343,0.0],[42.4929,15.7285,0.0],[42.4918,15.7212,0.0],[42.4932,15.7201,0.0],[42.496,15.7199,0.0],[42.496,15.7212,0.0],[42.4985,15.7221,1.5135],[42.5021,15.7201,0.0],[42.5049,15.7229,0.0],[42.5062,15.729,0.0],[42.5021,15.734,0.0]]],
[[[42.5343,15.8174,0.0],[42.5335,15.8185,0.0],[42.5326,15.8165,0.0],[42.536,15.8146,0.0],[42.5363,15.8154,0.0],[42.5343,15.8174,0.0]]],
[[[42.539,15.8182,0.0],[42.5374,15.8193,0.0],[42.536,15.8179,0.0],[42.5374,15.8176,0.0],[42.539,15.8182,0.0]]],
[[[42.6279,15.7696,0.0],[42.6274,15.7707,0.0],[42.6226,15.7701,0.0],[42.6107,15.7638,0.0],[42.6021,15.7471,0.0],[42.5996,15.7388,0.0],[42.6004,15.7357,0.0],[42.604,15.7357,0.0],[42.604,15.7338,0.0],[42.6071,15.7338,0.0],[42.6201,15.7446,0.0],[42.624,15.7582,0.0],[42.6285,15.7654,0.0],[42.6279,15.7696,0.0]]],
[[[42.5699,15.8601,0.5751],[42.5676,15.861,0.0],[42.5643,15.8588,0.0],[42.5626,15.8529,0.0],[42.5643,15.8521,0.0],[42.5646,15.8535,0.0],[42.5668,15.8526,0.0],[42.5682,15.8538,0.2221],[42.5696,15.8521,0.0],[42.5696,15.8562,0.0],[42.5724,15.8585,0.0],[42.5718,15.8604,0.0],[42.5699,15.8601,0.5751]]],
[[[42.6729,15.8938,0.0],[42.6721,15.8951,0.0],[42.6699,15.8949,0.0],[42.6699,15.894,0.0],[42.6729,15.8938,0.0]]],
[[[42.6001,15.9201,0.2546],[42.6001,15.9221,0.0],[42.5962,15.9232,0.0],[42.5918,15.9196,0.0],[42.5907,15.9165,0.3374],[42.5854,15.9143,0.0],[42.5871,15.9124,0.0],[42.5857,15.909,0.0],[42.5893,15.9063,0.0],[42.5879,15.904,0.0],[42.5887,15.8996,0.0],[42.5863,15.899,0.0],[42.5868,15.8962,0.0],[42.5901,15.8985,0.0],[42.5907,15.9049,0.0],[42.5954,15.9146,0.0],[42.5949,15.9165,0.0],[42.6001,15.9201,0.2546]]],
[[[42.3713,15.5337,7.8539],[42.3662,15.5346,1.1114],[42.3618,15.5324,0.6325],[42.3587,15.5329,0.3358],[42.3585,15.5313,0.8538],[42.3607,15.5276,0.3612],[42.3685,15.5224,2.3227],[42.3685,15.5168,0.0],[42.371,15.5096,0.0],[42.3765,15.5035,4.2055],[42.3782,15.4918,0.6543],[42.3926,15.4774,3.5844],[42.4029,15.4704,0.0],[42.4093,15.4685,0.0],[42.4118,15.4707,0.0],[42.411,15.4757,1.8425],[42.3999,15.484,0.0],[42.3929,15.4871,0.0],[42.3907,15.4907,0.0],[42.3854,15.4926,2.0047],[42.3785,15.5001,1.5228],[42.3785,15.5101,0.0],[42.3743,15.5238,0.4317],[42.3796,15.5268,0.0],[42.3799,15.5301,2.1026],[42.3793,15.5318,0.0],[42.3757,15.5307,0.204],[42.3713,15.5337,7.8539]]],
[[[42.3818,15.5113,0.0],[42.381,15.5129,0.0],[42.3835,15.5057,0.0],[42.3838,15.5063,0.0],[42.3818,15.5113,0.0]]],
[[[42.3846,15.5182,0.0],[42.384,15.5196,0.0],[42.3826,15.5188,0.0],[42.3843,15.5171,0.0],[42.3846,15.5182,0.0]]],
[[[41.8446,15.5574,0.9534],[41.8401,15.5582,4.6174],[41.8299,15.5562,2.5797],[41.8251,15.5538,0.0],[41.8193,15.5476,0.0],[41.8146,15.539,5.909],[41.8149,15.5332,1.8976],[41.8182,15.5265,0.0],[41.824,15.5232,0.0],[41.8276,15.5229,0.0],[41.834,15.5249,0.0],[41.8382,15.5285,0.0],[41.8435,15.529,1.1624],[41.8504,15.5335,0.0],[41.8526,15.5426,1.0375],[41.8518,15.5499,0.0],[41.8499,15.554,0.0],[41.8446,15.5574,0.9534]]],
[[[42.2968,15.714,0.0],[42.2896,15.7138,0.0],[42.2865,15.7113,0.0],[42.2846,15.7051,0.0],[42.2849,15.694,0.0],[42.2829,15.6863,0.0],[42.2907,15.6846,1.2943],[42.2949,15.6682,0.0],[42.3018,15.661,0.0],[42.3076,15.6585,0.0],[42.3082,15.6626,2.9951],[42.2996,15.6935,15.17],[42.2988,15.7129,0.0],[42.2968,15.714,0.0]]],
[[[42.3913,15.7468,0.2442],[42.3868,15.7482,0.809],[42.3804,15.7465,0.7559],[42.3774,15.741,0.0],[42.381,15.7346,1.223],[42.3796,15.7315,0.0],[42.3832,15.729,2.4986],[42.3843,15.7262,0.0],[42.3832,15.7221,0.0],[42.3779,15.7188,0.0],[42.3776,15.716,0.0],[42.3849,15.7001,0.0],[42.3904,15.7018,0.0],[42.3913,15.704,0.0],[42.3949,15.7032,0.0],[42.404,15.7071,2.3524],[42.409,15.7063,0.0],[42.4129,15.7076,1.6714],[42.424,15.7068,0.0],[42.4293,15.7043,1.1162],[42.4501,15.7013,0.6909],[42.4593,15.6979,0.0],[42.4815,15.7004,0.0],[42.4824,15.7054,0.0],[42.4846,15.7049,0.0],[42.4815,15.7085,0.0],[42.484,15.7168,0.0],[42.4754,15.7174,0.0],[42.4671,15.7154,1.3942],[42.459,15.7163,0.741],[42.4535,15.7188,0.0],[42.4515,15.7229,0.0],[42.444,15.7201,1.7591],[42.4393,15.7207,0.0],[42.4338,15.7262,0.0],[42.4251,15.7268,1.716],[42.419,15.7313,0.0],[42.4065,15.7346,3.3546],[42.4029,15.7385,0.0],[42.3946,15.7421,1.3203],[42.3913,15.7468,0.2442]]],
[[[42.4604,15.7704,0.467],[42.4624,15.7774,0.0],[42.4526,15.7732,0.3111],[42.4518,15.764,0.0],[42.4574,15.7665,0.0],[42.4604,15.7704,0.467]]],
[[[42.4463,15.846,0.0],[42.4463,15.8471,0.0],[42.4435,15.8468,0.2647],[42.4396,15.8449,0.0],[42.4393,15.8418,0.0],[42.4426,15.8415,0.0],[42.4463,15.846,0.0]]],
[[[42.4857,15.8615,0.0],[42.4815,15.8615,0.5058],[42.4782,15.8579,0.7331],[42.4782,15.856,0.0],[42.4799,15.8557,0.0],[42.4857,15.8615,0.0]]],
[[[42.2865,15.8726,0.0],[42.2854,15.8743,0.0],[42.2849,15.8713,0.0],[42.2857,15.871,0.0],[42.2865,15.8726,0.0]]]]}}