{"type":"Feature","properties":{"GID_2":"YEM.4.8_1","GID_0":"YEM","country":"Yemen","GID_1":"YEM.4_1","province":"AlDali'","NL_NAME_1":"الضالع","county":"Juban","VARNAME_2":"NA","NL_NAME_2":"جبن","TYPE_2":"Muderiah","ENGTYPE_2":"District","CC_2":"3001","HASC_2":"NA","name":"Juban.county"},
"geometry":{"type": "MultiPolygon","coordinates": [[[[44.8969,14.2296,1961.6733],[44.8651,14.2242,2282.9092],[44.8316,14.2119,2319.7622],[44.8204,14.2062,2458.095],[44.8024,14.2015,2825.1111],[44.7913,14.2041,2684.167],[44.7931,14.194,2900.2207],[44.8032,14.1794,2873.2058],[44.805,14.1528,2924.7227],[44.7983,14.1279,2164.6506],[44.7925,14.1156,2107.9551],[44.7768,14.0973,2160.4734],[44.7709,14.0778,2110.5659],[44.783,14.0285,1896.5208],[44.7914,14.029,2194.7271],[44.7967,14.0264,2199.4192],[44.7976,14.0277,2185.1257],[44.8144,14.0196,2270.3701],[44.8215,13.9901,2028.1361],[44.8164,13.9001,1927.8682],[44.834,13.8998,1903.579],[44.8482,13.9085,1812.9702],[44.8713,13.9137,1519.8],[44.882,13.9137,1595.9185],[44.8873,13.9085,1484.682],[44.8962,13.9085,1756.7452],[44.9069,13.9016,1721.2794],[44.9158,13.8894,1432.809],[44.9193,13.8877,1427.2908],[44.9282,13.8877,1439.3093],[44.9419,13.881,1476.1069],[44.9851,13.8651,1490.3336],[45.0135,13.8686,1338.5128],[45.0249,13.866,1211.386],[45.0435,13.8708,1383.6151],[45.0595,13.883,1114.8778],[45.1022,13.892,1125.4606],[45.1216,13.9019,1037.3662],[45.1273,13.9019,1170.2461],[45.1288,13.903,1274.2382],[45.1248,13.9109,1160.4248],[45.1292,13.9164,1167.2712],[45.1264,13.9204,1103.9133],[45.1276,13.9251,1255.9335],[45.1317,13.9263,1398.1418],[45.1325,13.9442,1266.2743],[45.1353,13.9501,1204.3477],[45.1345,13.9537,1398.0563],[45.1422,13.9624,1225.4111],[45.1386,13.9671,1409.6219],[45.1386,13.9739,1204.3702],[45.141,13.9762,1183.4304],[45.1455,13.9742,1411.4707],[45.1458,13.9769,1376.5333],[45.1481,13.977,1469.6085],[45.1529,13.9838,1427.653],[45.1509,13.9883,1500.5189],[45.1564,14.0085,1278.6633],[45.1525,14.0247,1349.7738],[45.156,14.0362,1459.6545],[45.149,14.0409,1393.2715],[45.1477,14.0529,1453.5225],[45.1425,14.055,1447.83],[45.1425,14.0584,1364.7107],[45.1307,14.0669,1397.7598],[45.1233,14.0814,1745.3967],[45.1176,14.0874,1803.6064],[45.1049,14.0908,1765.6493],[45.0923,14.09,1472.4907],[45.0663,14.0936,1480.7352],[45.0574,14.0972,1481.0819],[45.0613,14.1045,1667.6426],[45.06,14.1134,1651.0327],[45.0683,14.1202,1726.0093],[45.0648,14.1424,1584.4427],[45.06,14.1471,1689.8683],[45.0565,14.1581,1732.9553],[45.0508,14.1671,1772.1519],[45.0159,14.1871,1591.5854],[45.0065,14.197,1639.4003],[44.9962,14.2192,1791.4526],[44.9704,14.2307,1748.6528],[44.9482,14.2348,1871.9021],[44.8969,14.2296,1961.6733]]]]}}