{"type":"Feature","properties":{"GID_2":"YEM.19.5_1","GID_0":"YEM","country":"Yemen","GID_1":"YEM.19_1","province":"San`a'","NL_NAME_1":"صنعاء","county":"Attyal","VARNAME_2":"NA","NL_NAME_2":"الطيال","TYPE_2":"Muderiah","ENGTYPE_2":"District","CC_2":"2313","HASC_2":"NA","name":"Attyal.county"},
"geometry":{"type": "MultiPolygon","coordinates": [[[[44.6313,15.0506,2066.4114],[44.635,15.0427,1985.8562],[44.6436,15.0649,2091.8904],[44.6484,15.0838,1992.3065],[44.6614,15.0965,1949.3518],[44.6646,15.1233,2094.9829],[44.6613,15.1534,2064.1484],[44.6548,15.1737,2097.1929],[44.5778,15.1586,2110.9485],[44.5963,15.1422,2057.1304],[44.6142,15.1122,2123.761],[44.6175,15.0838,2083.9333],[44.6313,15.0506,2066.4114]]],
[[[44.6886,15.443,2157.3733],[44.6885,15.4476,1995.5763],[44.6147,15.4105,2266.5037],[44.5932,15.4059,2340.1904],[44.5622,15.4058,2633.3894],[44.5312,15.4196,2463.7776],[44.5144,15.4427,2570.5569],[44.5216,15.4713,2460.4229],[44.5147,15.4713,2425.2046],[44.4986,15.4807,2393.2449],[44.4963,15.4791,2390.4385],[44.4941,15.4668,2447.533],[44.4792,15.4635,2442.3384],[44.4671,15.4634,2647.3184],[44.4454,15.4573,2432.1074],[44.4293,15.45,2633.3242],[44.4179,15.4427,2631.522],[44.4008,15.4104,2720.0376],[44.3917,15.3848,2546.8682],[44.3835,15.3757,2519.1558],[44.3901,15.3636,2559.9521],[44.4096,15.3637,2681.9978],[44.4334,15.3773,2608.499],[44.4432,15.38,2623.832],[44.4516,15.3719,2626.1858],[44.4502,15.3543,2658.8916],[44.4363,15.3366,2610.6658],[44.431399999999996,15.327,2597.3113],[44.5148,15.311,2547.8384],[44.5562,15.3068,2623.8159],[44.5848,15.2965,2365.2983],[44.5913,15.2963,2332.5471],[44.5927,15.3112,2286.3081],[44.6057,15.3334,2396.418],[44.6056,15.3413,2461.29],[44.6089,15.351,2531.0933],[44.6439,15.3461,2387.8794],[44.6724,15.335,2336.2922],[44.6732,15.3399,2237.6277],[44.6773,15.3398,2262.9814],[44.6773,15.3493,2257.4089],[44.691,15.3493,2264.1721],[44.6938,15.388,2211.054],[44.6889,15.4092,2224.9058],[44.6886,15.443,2157.3733]]]]}}