{"type":"Feature","properties":{"GID_2":"YEM.11.3_1","GID_0":"YEM","country":"Yemen","GID_1":"YEM.11_1","province":"Dhamar","NL_NAME_1":"ذمار","county":"Anss","VARNAME_2":"NA","NL_NAME_2":"عنس","TYPE_2":"Muderiah","ENGTYPE_2":"District","CC_2":"2010","HASC_2":"NA","name":"Anss.county"},
"geometry":{"type": "MultiPolygon","coordinates": [[[[44.6254,14.3646,2713.9541],[44.6111,14.4168,2378.6389],[44.5988,14.4172,2386.8879],[44.5719,14.408,2517.9883],[44.5453,14.4022,2702.7053],[44.531,14.4049,2656.7502],[44.5114,14.4672,2459.8477],[44.5105,14.4877,2467.4663],[44.4891,14.5383,2449.0337],[44.4793,14.5697,2451.9355],[44.4461,14.5621,2412.9255],[44.4381,14.5406,2405.7661],[44.4037,14.5153,2458.3142],[44.3541,14.5173,2449.9524],[44.3148,14.5419,2444.8867],[44.3143,14.5407,2445.0125],[44.2983,14.5385,2449.9487],[44.2904,14.5421,2428.8984],[44.2846,14.5426,2449.1562],[44.2774,14.5423,2324.3445],[44.2667,14.5387,2258.572],[44.258,14.5407,2283.0747],[44.2551,14.5466,2296.5784],[44.2531,14.5698,2200.4165],[44.2483,14.5747,2272.1475],[44.2279,14.5729,2321.5151],[44.2134,14.5743,2011.5486],[44.1979,14.5931,2120.7249],[44.1935,14.5973,2093.2983],[44.1872,14.5996,2004.6592],[44.1806,14.5993,2113.3726],[44.1757,14.5963,2426.7461],[44.1557,14.5785,2112.0439],[44.1579,14.5727,2038.4618],[44.1523,14.5617,2145.3018],[44.1574,14.5605,2198.3862],[44.1618,14.5619,2182.8672],[44.1647,14.5652,2261.792],[44.17,14.5666,2221.0615],[44.1797,14.5549,2316.8438],[44.1807,14.5389,2278.3491],[44.1722,14.5117,2214.5469],[44.1749,14.497,1864.8049],[44.1732,14.4909,1866.1993],[44.1915,14.4895,1832.79],[44.1988,14.4797,1867.1287],[44.1993,14.475,1839.2556],[44.1946,14.4593,1674.5839],[44.2045,14.4577,1739.2544],[44.2182,14.4462,1854.3384],[44.2359,14.4435,1777.208],[44.2536,14.4133,2011.5261],[44.2721,14.4136,1874.1879],[44.2789,14.4046,1943.0527],[44.2727,14.3957,1959.8597],[44.2839,14.3875,2096.9194],[44.2956,14.3749,2493.2703],[44.3163,14.3775,2228.8179],[44.3267,14.3813,2495.8853],[44.35,14.3763,2571.8901],[44.3656,14.3638,2404.678],[44.3695,14.3562,2451.7097],[44.3915,14.3562,2539.1736],[44.4174,14.3538,2552.9761],[44.4356,14.3488,2548.1372],[44.4447,14.3412,2595.3027],[44.4499,14.3286,2495.375],[44.4642,14.316,2495.0498],[44.4787,14.2965,2430.7524],[44.4974,14.3005,2376.189],[44.5032,14.2992,2413.8057],[44.511,14.3005,2387.4312],[44.5401,14.2961,2287.8787],[44.5483,14.2917,2239.0537],[44.5456,14.2793,2388.2156],[44.5422,14.278,2437.8149],[44.5679,14.2694,2214.6748],[44.5856,14.2936,2271.0488],[44.5976,14.2939,2398.8506],[44.5967,14.3008,2467.6602],[44.5861,14.3286,2452.5322],[44.6119,14.3565,2729.7114],[44.6127,14.3622,2749.9148],[44.6254,14.3646,2713.9541]]]]}}