{"type":"Feature","properties":{"GID_2":"YEM.12.8_1","GID_0":"YEM","country":"Yemen","GID_1":"YEM.12_1","province":"Hadramawt","NL_NAME_1":"حضرموت","county":"Amd","VARNAME_2":"NA","NL_NAME_2":"عمد","TYPE_2":"Muderiah","ENGTYPE_2":"District","CC_2":"1921","HASC_2":"NA","name":"Amd.county"},
"geometry":{"type": "MultiPolygon","coordinates": [[[[47.9896,15.1934,1339.942],[47.9914,15.2134,1310.5869],[48.0047,15.2464,1260.0344],[48.0322,15.2737,1271.7773],[48.0783,15.309,1239.2728],[48.1144,15.3403,1227.2767],[48.132,15.3747,1206.7693],[48.1429,15.404,1209.3059],[48.1285,15.43,1202.9606],[48.0906,15.4707,1180.0242],[48.0722,15.4792,1159.8447],[48.0607,15.4725,817.261],[48.0435,15.4672,1139.0769],[48.0208,15.4716,1153.9323],[48.013,15.477,1165.199],[47.9925,15.4823,1174.2253],[47.9792,15.4875,1148.9021],[47.9417,15.5258,1194.9904],[47.9256,15.548,932.8975],[47.9175,15.5339,1214.5974],[47.8739,15.4778,1196.5643],[47.8353,15.4194,1080.5522],[47.7478,15.3629,1247.3568],[47.7232,15.3231,1329.8096],[47.7143,15.2946,1334.9626],[47.74,15.2826,1360.6906],[47.752,15.2692,1360.3804],[47.7658,15.2499,1322.5383],[47.7845,15.1898,1345.0826],[47.8041,15.1605,1327.2467],[47.8253,15.1491,1372.0676],[47.8524,15.1513,1361.5864],[47.8855,15.1774,1357.6078],[47.9426,15.1891,1002.9813],[47.9896,15.1934,1339.942]]]]}}