{"type":"Feature","properties":{"GID_2":"YEM.12.2_1","GID_0":"YEM","country":"Yemen","GID_1":"YEM.12_1","province":"Hadramawt","NL_NAME_1":"حضرموت","county":"AdhDhlia'ah","VARNAME_2":"NA","NL_NAME_2":"الضليعه","TYPE_2":"Muderiah","ENGTYPE_2":"District","CC_2":"1922","HASC_2":"NA","name":"Adh_Dhlia'ah.county"},
"geometry":{"type": "MultiPolygon","coordinates": [[[[47.9896,15.1934,1339.942],[47.9426,15.1891,1002.9813],[47.8855,15.1774,1357.6078],[47.8524,15.1513,1361.5864],[47.8253,15.1491,1372.0676],[47.8041,15.1605,1327.2467],[47.7845,15.1898,1345.0826],[47.7658,15.2499,1322.5383],[47.752,15.2692,1360.3804],[47.74,15.2826,1360.6906],[47.7143,15.2946,1334.9626],[47.6931,15.2734,1356.6179],[47.6854,15.2621,1381.198],[47.6537,15.2322,1411.312],[47.6318,15.214,1421.318],[47.6114,15.2116,1418.3698],[47.6088,15.2154,1398.7673],[47.5921,15.1894,1437.2151],[47.5796,15.1658,1431.6304],[47.5631,15.1514,1491.1226],[47.5589,15.1383,1479.9639],[47.5696,15.1276,1476.936],[47.5872,15.1261,1488.3992],[47.6075,15.1153,1483.9159],[47.6196,15.1033,1486.1387],[47.6492,15.0871,1478.4275],[47.6612,15.0698,1478.2144],[47.6651,15.0527,1465.4141],[47.6466,14.9856,1411.0458],[47.621,14.9548,1400.9913],[47.7066,14.889099999999999,1429.4454],[47.7561,14.8594,1330.2179],[47.7827,14.8533,1300.5986],[47.8529,14.8108,1242.0442],[47.986,14.7562,1170.181],[48.0942,14.7333,1184.4],[48.0947,14.77,1245.5173],[48.1084,14.7904,1519.7782],[48.1549,14.8122,1703.4907],[48.1801,14.8194,1659.0352],[48.2015,14.8359,1631.3271],[48.2192,14.8656,1619.5559],[48.2264,14.8834,1567.71],[48.2355,14.9482,1470.3756],[48.2076,15.0016,1440.1526],[48.1768,15.0352,1382.1638],[48.137,15.0413,1461.1652],[48.1329,15.0538,1451.5023],[48.132,15.087,1378.1835],[48.1278,15.094,1368.9468],[48.1365,15.1008,1373.1927],[48.128,15.1078,1373.8269],[48.0998,15.1234,1406.9795],[48.0884,15.1235,1378.0736],[48.084,15.1125,1392.9437],[48.0752,15.0988,1413.0272],[48.0682,15.1058,1421.9584],[48.0656,15.1252,1393.1877],[48.0549,15.1696,1355.9076],[48.0366,15.1865,1330.8807],[47.9896,15.1934,1339.942]]]]}}