{"type":"Feature","properties":{"GID_2":"YEM.4.5_1","GID_0":"YEM","country":"Yemen","GID_1":"YEM.4_1","province":"AlDali'","NL_NAME_1":"الضالع","county":"AshShu'ayb","VARNAME_2":"NA","NL_NAME_2":"الشعيب","TYPE_2":"Muderiah","ENGTYPE_2":"District","CC_2":"3004","HASC_2":"NA","name":"Ash_Shu'ayb.county"},
"geometry":{"type": "MultiPolygon","coordinates": [[[[44.9416,13.7556,1434.8879],[45.0062,13.795,1667.7944],[45.0583,13.8338,1699.4723],[45.1041,13.8645,1138.4636],[45.1053,13.8701,1128.5076],[45.111,13.8736,1178.0551],[45.113,13.8796,1265.6709],[45.1122,13.8875,1029.3953],[45.1175,13.8895,1150.955],[45.1195,13.8962,1107.7571],[45.1273,13.9019,1170.2461],[45.1216,13.9019,1037.3662],[45.1022,13.892,1125.4606],[45.0595,13.883,1114.8778],[45.0435,13.8708,1383.6151],[45.0249,13.866,1211.386],[45.0135,13.8686,1338.5128],[44.9851,13.8651,1490.3336],[44.9419,13.881,1476.1069],[44.9282,13.8877,1439.3093],[44.9193,13.8877,1427.2908],[44.9158,13.8894,1432.809],[44.9069,13.9016,1721.2794],[44.8962,13.9085,1756.7452],[44.8873,13.9085,1484.682],[44.882,13.9137,1595.9185],[44.8713,13.9137,1519.8],[44.8482,13.9085,1812.9702],[44.834,13.8998,1903.579],[44.8164,13.9001,1927.8682],[44.8171,13.8901,1861.2085],[44.809,13.863,2098.1089],[44.8035,13.8516,2065.127],[44.8058,13.8398,1799.2197],[44.8162,13.832,1892.1025],[44.8276,13.8122,1661.1145],[44.8435,13.7968,1797.5333],[44.9051,13.7783,1831.364],[44.93,13.7644,1474.9574],[44.9416,13.7556,1434.8879]]]]}}