{"type":"Feature","properties":{"GID_2":"YEM.9.9_1","GID_0":"YEM","country":"Yemen","GID_1":"YEM.9_1","province":"AmanatAlAsimah","NL_NAME_1":"أمانةالعاصمة","county":"OldCity","VARNAME_2":"NA","NL_NAME_2":"صنعاءالقديمة","TYPE_2":"Muderiah","ENGTYPE_2":"District","CC_2":"1301","HASC_2":"NA","name":"Old_City.county"},
"geometry":{"type": "MultiPolygon","coordinates": [[[[44.2104,15.3498,2251.9482],[44.2224,15.3532,2285.1802],[44.223,15.3555,2277.1877],[44.2192,15.3616,2254.9766],[44.215,15.3597,2254.8625],[44.2075,15.3605,2249.9587],[44.2064,15.3486,2253.1211],[44.2104,15.3498,2251.9482]]]]}}