{"type":"Feature","properties":{"GID_2":"YEM.21.21_1","GID_0":"YEM","country":"Yemen","GID_1":"YEM.21_1","province":"Ta`izz","NL_NAME_1":"تعز","county":"Sama","VARNAME_2":"NA","NL_NAME_2":"سامع","TYPE_2":"Muderiah","ENGTYPE_2":"District","CC_2":"1523","HASC_2":"NA","name":"Sama.county"},
"geometry":{"type": "MultiPolygon","coordinates": [[[[44.0967,13.3663,1883.1765],[44.1119,13.3618,2180.1162],[44.1178,13.3575,2054.7869],[44.1201,13.3511,1802.1741],[44.1309,13.3499,1740.0319],[44.1394,13.3516,1689.605],[44.1537,13.3479,1643.5476],[44.1546,13.3497,1642.3204],[44.1652,13.3553,1512.4409],[44.1664,13.3577,1650.4006],[44.1664,13.381,1253.6205],[44.1694,13.3871,1222.6748],[44.1754,13.3915,1238.1447],[44.1768,13.3994,1190.5151],[44.1647,13.4035,1245.259],[44.1463,13.4067,1552.7648],[44.142,13.4043,1440.6467],[44.1317,13.4135,1687.7485],[44.1293,13.414,1726.2291],[44.1261,13.4116,1584.0717],[44.1052,13.4074,1791.5953],[44.0998,13.4094,1724.0642],[44.0861,13.4072,1685.5005],[44.0826,13.4124,1825.5502],[44.0712,13.4137,2021.1057],[44.056399999999996,13.412,1905.0249],[44.0581,13.4055,1859.8044],[44.0628,13.3997,1770.0095],[44.079,13.3819,1782.2443],[44.0967,13.3663,1883.1765]]]]}}