{"type":"Feature","properties":{"GID_2":"YEM.11.2_1","GID_0":"YEM","country":"Yemen","GID_1":"YEM.11_1","province":"Dhamar","NL_NAME_1":"ذمار","county":"AlManar","VARNAME_2":"NA","NL_NAME_2":"المنار","TYPE_2":"Muderiah","ENGTYPE_2":"District","CC_2":"2012","HASC_2":"NA","name":"Al_Manar.county"},
"geometry":{"type": "MultiPolygon","coordinates": [[[[44.2483,14.5747,2272.1475],[44.262,14.5955,2190.6362],[44.2608,14.605,2200.2139],[44.2521,14.6239,1962.673],[44.2578,14.6461,2435.2283],[44.2616,14.655,2291.7075],[44.2294,14.6755,2069.9128],[44.2185,14.6869,2212.2583],[44.2243,14.6909,2102.7988],[44.2271,14.6955,1990.6157],[44.2268,14.7026,1915.1956],[44.2163,14.7048,2077.98],[44.2063,14.6992,2028.8677],[44.2028,14.6901,1874.8729],[44.192,14.6866,1886.5568],[44.1806,14.6803,1812.9106],[44.1664,14.6813,1975.0688],[44.1583,14.6802,1848.7559],[44.1558,14.678,1954.5481],[44.1497,14.6878,2270.8584],[44.1375,14.699,1844.4449],[44.141,14.7039,1838.7866],[44.1441,14.7153,1984.4104],[44.125,14.7116,2219.9028],[44.1201,14.7158,2290.0073],[44.1195,14.7276,2358.2827],[44.1307,14.7376,2172.9719],[44.1254,14.7478,2025.8284],[44.1159,14.7498,2025.1187],[44.1009,14.744,1768.2911],[44.0905,14.7092,1649.6729],[44.09,14.7003,1663.3353],[44.0809,14.7003,1579.2179],[44.0719,14.6977,1570.1414],[44.0678,14.6947,1544.9098],[44.0621,14.6947,1537.7745],[44.056399999999996,14.6919,1550.376],[44.0547,14.689,1627.3872],[44.0496,14.6763,1600.4258],[44.0503,14.6658,1480.1353],[44.055,14.6536,1611.1196],[44.0577,14.6519,1721.6116],[44.0578,14.6407,1426.3759],[44.0452,14.6408,1428.8777],[44.0361,14.6446,1373.632],[44.0264,14.6435,1385.5989],[44.023,14.6401,1354.0634],[44.022,14.6362,1346.0999],[44.0105,14.6334,1334.8435],[43.9975,14.6129,1508.646],[43.9862,14.5995,1485.8789],[43.9708,14.5961,1295.5974],[43.9708,14.5839,1272.4567],[43.972,14.5822,1261.9427],[43.9806,14.584,1277.7839],[43.9885,14.584,1325.4905],[43.996,14.5818,1351.8867],[44.0045,14.5829,1342.1415],[44.0085,14.5746,1422.3159],[44.0136,14.5719,1421.5449],[44.0199,14.5708,1453.9924],[44.0279,14.5675,1408.2609],[44.0308,14.5648,1423.7361],[44.0353,14.5648,1442.5634],[44.0523,14.5574,1556.105],[44.0547,14.5598,1501.8417],[44.0592,14.5592,1503.697],[44.0613,14.563,1504.356],[44.0657,14.5639,1588.8101],[44.0702,14.5592,1541.0215],[44.0738,14.5624,1687.5718],[44.0792,14.5636,1815.9026],[44.0837,14.5561,1604.0302],[44.0893,14.5564,1646.235],[44.0917,14.5605,1626.2659],[44.095,14.5564,1742.8938],[44.0995,14.5602,1677.8394],[44.1043,14.5592,1671.9939],[44.1301,14.5607,2000.6622],[44.1359,14.5565,1998.8466],[44.1495,14.5601,2143.8857],[44.1523,14.5617,2145.3018],[44.1579,14.5727,2038.4618],[44.1557,14.5785,2112.0439],[44.1636,14.5868,2094.2991],[44.1806,14.5993,2113.3726],[44.1872,14.5996,2004.6592],[44.1935,14.5973,2093.2983],[44.2134,14.5743,2011.5486],[44.2279,14.5729,2321.5151],[44.2483,14.5747,2272.1475]]]]}}