{"type":"Feature","properties":{"GID_2":"YEM.12.10_1","GID_0":"YEM","country":"Yemen","GID_1":"YEM.12_1","province":"Hadramawt","NL_NAME_1":"حضرموت","county":"AsSawm","VARNAME_2":"NA","NL_NAME_2":"السوم","TYPE_2":"Muderiah","ENGTYPE_2":"District","CC_2":"1912","HASC_2":"NA","name":"As_Sawm.county"},
"geometry":{"type": "MultiPolygon","coordinates": [[[[50.1674,16.1994,653.7416],[50.1771,16.236,679.1041],[50.2176,16.335,769.1012],[50.2333,16.4046,990.8798],[50.2381,16.4544,958.2874],[50.2702,16.4936,937.2761],[50.2675,16.5203,1031.4167],[50.2438,16.5376,1027.9789],[50.2447,16.5709,1029.677],[50.2559,16.6039,1015.886],[50.2569,16.6372,1011.039],[50.2328,16.6412,1065.7019],[50.136,16.6436,1087.765],[49.9597,16.6412,1012.0577],[49.8939,16.6395,1027.5381],[49.8106,16.6281,1026.0161],[49.7478,16.6062,1054.1815],[49.515,16.558,1042.0742],[49.3895,16.514,963.7066],[49.1395,16.4691,976.1761],[49.1071,16.4646,992.1308],[49.0822,16.4667,970.0867],[49.067,16.4701,946.5466],[49.0722,16.4095,972.0287],[49.0858,16.3681,957.5778],[49.0983,16.3516,949.4955],[49.1099,16.3289,897.051],[49.1702,16.2583,908.3174],[49.2236,16.2009,811.1924],[49.2381,16.1397,738.1352],[49.2351,16.1325,717.3069],[49.2674,16.0644,774.1001],[49.2881,16.0004,702.9403],[49.271,15.9597,829.0422],[49.2452,15.9213,910.8099],[49.2533,15.8939,854.7195],[49.2517,15.8182,911.5397],[49.4017,15.8216,734.8998],[49.4614,15.8156,780.3749],[49.5024,15.7889,787.0161],[49.5296,15.7433,842.7833],[49.5511,15.5851,1106.467],[49.5492,15.5541,1119.866],[49.5944,15.4991,1133.5068],[49.6106,15.4554,1198.8378],[49.6507,15.4045,1342.483],[49.6845,15.3771,1363.9077],[49.7391,15.3593,1411.0947],[49.7739,15.3524,1391.4761],[49.7871,15.355,1431.1609],[49.8391,15.3772,1404.8915],[49.8979,15.3926,1502.5907],[49.9632,15.3944,1234.7389],[49.9656,15.3899,1486.4406],[49.9771,15.3975,1171.2173],[50.0186,15.4099,1194.1632],[50.0452,15.443,1116.6368],[50.0899,15.4487,1154.5566],[50.1323,15.4589,1202.1904],[50.1671,15.47,1099.2842],[50.2071,15.4742,1014.7841],[50.2468,15.4688,1142.6569],[50.2573,15.5169,673.3645],[50.2657,15.5694,645.3886],[50.2606,15.5883,661.9804],[50.2362,15.5914,623.6126],[50.2192,15.5985,633.9187],[50.1679,15.6097,637.0031],[50.1433,15.623,754.2435],[50.1287,15.6517,769.9434],[50.1322,15.6972,793.3898],[50.1439,15.7502,567.7133],[50.1448,15.7869,534.8111],[50.1498,15.8468,468.6501],[50.1688,15.9196,591.1141],[50.1983,15.9922,580.1476],[50.223,16.0149,536.6743],[50.2517,16.0576,574.6061],[50.2556,16.0775,579.3193],[50.2254,16.1082,623.8138],[50.1915,16.129,665.6604],[50.1579,16.1632,629.3641],[50.1674,16.1994,653.7416]]]]}}