{"type":"Feature","properties":{"GID_2":"YEM.6.9_1","GID_0":"YEM","country":"Yemen","GID_1":"YEM.6_1","province":"AlJawf","NL_NAME_1":"الجوف","county":"BartAlAnan","VARNAME_2":"NA","NL_NAME_2":"برطالعنان","TYPE_2":"Muderiah","ENGTYPE_2":"District","CC_2":"1610","HASC_2":"NA","name":"Bart_Al_Anan.county"},
"geometry":{"type": "MultiPolygon","coordinates": [[[[44.3133,16.6494,1713.0619],[44.3419,16.6853,2128.0889],[44.3463,16.7112,2121.1929],[44.3574,16.7328,2085.647],[44.3708,16.7501,2082.1306],[44.382,16.7588,2078.6392],[44.3837,16.7573,2073.6836],[44.3889,16.7587,2055.9216],[44.3893,16.755,2057.7063],[44.3923,16.7536,2060.8982],[44.4114,16.7604,2044.995],[44.4258,16.7611,2038.2205],[44.4442,16.7647,2032.5898],[44.4849,16.7828,1981.2765],[44.5117,16.798,1927.4773],[44.5386,16.8024,1918.1147],[44.5923,16.8068,1804.2332],[44.6371,16.8069,1748.4934],[44.6885,16.8868,1722.9955],[44.7377,16.9278,1560.8232],[44.8304,16.9327,1313.553],[44.8584,16.9446,1368.3716],[44.8768,16.9723,1247.6418],[44.8963,16.989,1223.0441],[44.8963,16.997,1222.668],[44.8879,17.0051,1227.2158],[44.8879,17.0639,1256.8765],[44.6411,17.0636,1587.8604],[44.5842,17.0557,1592.3976],[44.5066,17.0374,1531.2509],[44.4417,16.9984,1783.2786],[44.3701,16.9443,1619.7617],[44.3031,16.8837,1646.0941],[44.2496,16.8296,1686.1813],[44.1826,16.7775,2233.8789],[44.1469,16.7386,2349.4211],[44.1463,16.7356,2340.6855],[44.1413,16.7326,2257.3799],[44.2076,16.6892,1934.2839],[44.2547,16.6699,2055.1289],[44.3133,16.6494,1713.0619]]]]}}