{"type":"Feature","properties":{"GID_1":"YEM.9_1","GID_0":"YEM","country":"Yemen","province":"AmanatAlAsimah","VARNAME_1":"NA","NL_NAME_1":"أمانةالعاصمة","TYPE_1":"Muhafazah","ENGTYPE_1":"Governorate","CC_1":"13","HASC_1":"NA","ISO_1":"NA","name":"Amanat_Al_Asimah.province"},
"geometry":{"type": "MultiPolygon","coordinates": [[[[44.2386,15.3936,2253.8027],[44.2309,15.4045,2250.5303],[44.2347,15.4212,2230.3757],[44.231,15.4321,2217.854],[44.2773,15.4715,2201.0388],[44.2822,15.4793,2201.8616],[44.2777,15.5008,2190.957],[44.2829,15.513,2185.6929],[44.2895,15.521,2182.8896],[44.2932,15.5188,2183.7969],[44.2925,15.5116,2189.55],[44.2977,15.5124,2188.1533],[44.3028,15.5231,2184.4602],[44.3339,15.5204,2266.0239],[44.3398,15.5297,2205.4485],[44.3361,15.5376,2189.4897],[44.3419,15.5505,2204.1499],[44.3479,15.5505,2200.8232],[44.3552,15.557,2190.5466],[44.3634,15.5571,2186.1265],[44.3649,15.5506,2198.6465],[44.3612,15.5398,2343.3979],[44.3635,15.5348,2302.7087],[44.3827,15.5356,2445.3091],[44.3923,15.5414,2558.7314],[44.3997,15.5507,2667.2798],[44.3997,15.5579,2732.2563],[44.393,15.565,2480.0286],[44.3774,15.575,2188.4617],[44.3509,15.5994,2072.197],[44.3191,15.6117,2080.6646],[44.3061,15.6117,2076.2246],[44.285,15.6037,2196.5349],[44.2791,15.5998,2200.6301],[44.2765,15.5936,2147.8965],[44.2634,15.5812,2143.7119],[44.2616,15.5782,2145.3125],[44.2625,15.5714,2147.5933],[44.2603,15.5702,2148.4521],[44.2359,15.5714,2167.9302],[44.2333,15.5692,2163.6228],[44.2342,15.5595,2161.1184],[44.233,15.5583,2161.6772],[44.2232,15.5577,2166.4885],[44.2109,15.5535,2179.365],[44.207,15.545,2167.7153],[44.2007,15.5412,2168.3853],[44.1995,15.5133,2173.8916],[44.2055,15.5108,2172.7729],[44.2055,15.5071,2171.4888],[44.2023,15.5008,2176.6226],[44.1974,15.5057,2177.0022],[44.1908,15.5052,2190.9734],[44.1887,15.501,2246.71],[44.1904,15.4964,2190.2305],[44.1828,15.485,2187.6245],[44.1649,15.4833,2211.1675],[44.1598,15.4754,2229.063],[44.1303,15.4684,2326.2073],[44.1208,15.4626,2283.0879],[44.1211,15.454,2352.687],[44.1292,15.4413,2243.9529],[44.1322,15.4382,2245.7104],[44.1424,15.4344,2361.5869],[44.1659,15.4112,2307.3311],[44.1658,15.4005,2304.5293],[44.155,15.3999,2308.9114],[44.1457,15.3957,2334.437],[44.1399,15.3774,2540.6504],[44.1388,15.3644,2663.2437],[44.1436,15.3517,2611.5942],[44.1599,15.3394,2362.5288],[44.1818,15.3257,2292.7795],[44.1764,15.292,2350.7954],[44.2089,15.2948,2452.626],[44.2221,15.2931,2284.1436],[44.2396,15.2951,2290.6523],[44.2329,15.3129,2287.1838],[44.2389,15.3147,2296.2822],[44.2429,15.3139,2303.7576],[44.2632,15.3263,2344.9382],[44.2619,15.3464,2450.3584],[44.2571,15.3609,2467.615],[44.2434,15.3639,2329.5747],[44.2421,15.3765,2278.9937],[44.2433,15.3792,2267.7009],[44.2386,15.3936,2253.8027]]]]}}