{"type":"Feature","properties":{"ISO3166-1-Alpha-3":"YEM","country":"Yemen","fill":"#F0F","id":"3498","name":"Amanat Al Asimah"},
"geometry":{"type": "Polygon","coordinates": [[[44.36843,15.53336,2419.6711],[44.38429,15.53408,2521.9756],[44.39294,15.54057,2603.6099],[44.39942,15.54922,2668.5042],[44.39798,15.55714,2720.7112],[44.39077,15.56651,2390.9172],[44.37276,15.57804,2184.3828],[44.36123,15.59102,2189.6729],[44.35258,15.59894,2072.9966],[44.336,15.60615,2059.4697],[44.31943,15.61192,2080.6646],[44.30645,15.6112,2073.7095],[44.29204,15.60615,2261.1641],[44.28267,15.60111,2179.4551],[44.27042,15.58813,2144.4973],[44.26177,15.576599999999999,2146.0098],[44.25745,15.57084,2146.4883],[44.24376,15.57084,2148.9902],[44.23511,15.56723,2164.0933],[44.2279,15.55859,2163.4146],[44.20988,15.5521,2179.365],[44.20124,15.54129,2168.3853],[44.19907,15.51607,2173.1216],[44.2034,15.50958,2174.7388],[44.20124,15.50526,2176.9106],[44.19115,15.50382,2185.2544],[44.18754,15.49517,2178.8054],[44.17962,15.48508,2187.822],[44.16737,15.48292,2204.4792],[44.16088,15.47571,2228.5562],[44.15079,15.47283,2249.1597],[44.13277,15.4685,2283.6204],[44.12196,15.4649,2262.3052],[44.1198,15.45697,2275.7676],[44.12557,15.44544,2245.8101],[44.13349,15.43823,2264.2485],[44.14142,15.43463,2358.7671],[44.15079,15.42814,2343.6792],[44.1652,15.41229,2314.4531],[44.16592,15.40148,2304.5293],[44.1616,15.39932,2298.0537],[44.15079,15.39716,2320.6123],[44.14358,15.38923,2381.751],[44.13854,15.36905,2670.9688],[44.14214,15.35175,2611.5942],[44.15944,15.34094,2365.8872],[44.17673,15.32869,2407.7446],[44.18106,15.32004,2320.6304],[44.17673,15.29842,2336.1519],[44.18106,15.29338,2327.2041],[44.20844,15.29338,2469.1353],[44.22862,15.29338,2282.5762],[44.23655,15.29482,2288.542],[44.23799,15.29914,2286.8376],[44.23583,15.30851,2284.1885],[44.23943,15.31428,2296.2822],[44.2488,15.31572,2320.479],[44.25817,15.32077,2324.0229],[44.26177,15.32941,2366.7969],[44.26177,15.34815,2500.6001],[44.25673,15.36184,2491.3455],[44.25024,15.35968,2581.0151],[44.24376,15.36473,2329.5747],[44.24304,15.37626,2280.4763],[44.24087,15.38707,2255.8472],[44.23367,15.39932,2284.3511],[44.23223,15.40869,2244.0696],[44.23439,15.4195,2232.6023],[44.23295,15.42887,2219.7588],[44.23799,15.43823,2213.874],[44.25168,15.45049,2221.5713],[44.26826,15.46202,2205.9185],[44.27835,15.47066,2202.7405],[44.28123,15.48003,2200.4482],[44.27979,15.48796,2200.0947],[44.27691,15.50237,2188.3433],[44.28267,15.51246,2185.6929],[44.2906,15.52111,2182.7671],[44.29637,15.51246,2188.1533],[44.30285,15.52183,2186.0625],[44.31294,15.52183,2191.2981],[44.33312,15.51967,2266.0239],[44.33744,15.52616,2209.8223],[44.33744,15.53697,2193.8674],[44.34105,15.54633,2188.7646],[44.34753,15.55138,2200.8232],[44.3533,15.55642,2185.5288],[44.35906,15.55642,2190.6685],[44.36483,15.55354,2195.2329],[44.36195,15.54633,2301.207],[44.3605,15.53769,2285.7104],[44.36843,15.53336,2419.6711]]]}}