{"type":"Feature","properties":{"GID_2":"YEM.15.11_1","GID_0":"YEM","country":"Yemen","GID_1":"YEM.15_1","province":"Lahij","NL_NAME_1":"لحج","county":"Radfan","VARNAME_2":"NA","NL_NAME_2":"ردفان","TYPE_2":"Muderiah","ENGTYPE_2":"District","CC_2":"2507","HASC_2":"NA","name":"Radfan.county"},
"geometry":{"type": "MultiPolygon","coordinates": [[[[45.2793,13.4137,358.626],[45.2575,13.4181,491.5445],[45.246,13.4322,669.5381],[45.2288,13.4477,417.6325],[45.1823,13.4771,478.8252],[45.1581,13.4713,526.077],[45.1334,13.4713,1090.9819],[45.111,13.4736,1100.9199],[45.091,13.499,1374.2407],[45.0769,13.5105,1341.0692],[45.0578,13.5198,1541.6846],[45.052,13.5096,1010.8354],[45.0394,13.5006,1548.9565],[45.0325,13.4984,1362.1696],[45.0233,13.4984,1273.6521],[45.0095,13.504,1509.4738],[45.0003,13.5186,1324.5065],[44.9903,13.5206,1024.5377],[44.9859,13.5232,1213.4189],[44.984,13.5338,943.0573],[44.9795,13.5357,1070.3839],[44.9648,13.5344,1373.1534],[44.9624,13.5434,1278.6913],[44.9555,13.5546,984.6049],[44.9221,13.5647,837.8655],[44.9141,13.5726,798.2175],[44.9095,13.5749,841.2639],[44.8807,13.5737,718.942],[44.8606,13.5844,935.8089],[44.8438,13.5872,846.2704],[44.8188,13.5842,934.6416],[44.8039,13.5871,962.592],[44.7773,13.5984,1281.8793],[44.7607,13.608,1245.199],[44.7545,13.6014,1168.8221],[44.7459,13.588,1254.9454],[44.7354,13.5793,1093.6149],[44.7197,13.5747,1139.4915],[44.7007,13.5732,1552.1409],[44.7108,13.5507,1262.2971],[44.7214,13.5357,1181.8665],[44.7626,13.5286,852.023],[44.7772,13.5239,871.2432],[44.8014,13.5073,782.884],[44.8038,13.5026,655.7806],[44.8281,13.4884,593.515],[44.8499,13.4837,573.9785],[44.8911,13.4837,809.5162],[44.9032,13.4813,1027.9922],[44.9129,13.4766,984.784],[44.9299,13.4458,923.7497],[44.9396,13.4315,1211.5144],[44.9662,13.4244,1323.316],[44.9977,13.4386,1740.673],[45.0171,13.4386,1093.5541],[45.0219,13.4315,1134.1777],[45.0437,13.4149,1446.3414],[45.0583,13.4126,882.506],[45.0856,13.4125,689.4242],[45.1244,13.3989,996.7686],[45.1658,13.352,620.1637],[45.1954,13.3253,255.8971],[45.2006,13.3317,362.7462],[45.2655,13.3631,193.6692],[45.2793,13.4137,358.626]]]]}}