{"type":"Feature","properties":{"GID_2":"YEM.5.3_1","GID_0":"YEM","country":"Yemen","GID_1":"YEM.5_1","province":"AlHudaydah","NL_NAME_1":"الحديده","county":"AlGarrahi","VARNAME_2":"NA","NL_NAME_2":"الجراحي","TYPE_2":"Muderiah","ENGTYPE_2":"District","CC_2":"1825","HASC_2":"NA","name":"Al_Garrahi.county"},
"geometry":{"type": "MultiPolygon","coordinates": [[[[43.5429,14.1297,344.8919],[43.5188,14.1614,382.7195],[43.504,14.1745,378.6886],[43.5007,14.184,447.3002],[43.5005,14.1904,464.4528],[43.515,14.1986,621.9872],[43.5266,14.2074,404.1653],[43.5298,14.2113,341.1775],[43.532,14.219,374.3931],[43.5261,14.243,426.0321],[43.5164,14.2555,620.8745],[43.5117,14.279,276.7327],[43.5072,14.2918,278.7284],[43.5035,14.2955,257.6082],[43.4977,14.3083,253.0578],[43.4728,14.2519,194.8849],[43.4734,14.2328,220.2253],[43.4759,14.216,228.1736],[43.4415,14.195,205.1355],[43.4517,14.1645,227.5117],[43.4037,14.1614,176.9593],[43.3731,14.1746,157.7606],[43.3339,14.1712,121.3891],[43.3323,14.1675,120.4939],[43.3224,14.1586,114.2957],[43.3037,14.1718,100.1809],[43.2905,14.1678,94.6398],[43.2917,14.1638,93.3505],[43.2898,14.154,94.0714],[43.2899,14.1422,87.4282],[43.2804,14.1353,78.4866],[43.2759,14.125,73.7843],[43.2864,13.9033,51.475],[43.3065,13.9043,62.7599],[43.3402,13.9114,88.978],[43.3455,13.9104,91.9443],[43.3661,13.92,106.2397],[43.3853,13.9423,119.0086],[43.3948,13.9682,125.3891],[43.4011,13.9773,126.8133],[43.4145,13.9827,136.262],[43.4208,13.9884,138.5038],[43.4243,13.9963,139.936],[43.4295,13.9997,142.8927],[43.4358,13.9998,145.0358],[43.4411,13.9964,148.6683],[43.4506,13.9937,156.8388],[43.4503,14.0071,148.2564],[43.4625,14.0425,178.3348],[43.4734,14.0921,241.8921],[43.479,14.0938,247.9537],[43.4791,14.1013,256.3546],[43.4841,14.1149,270.5484],[43.496,14.1339,292.4769],[43.4985,14.1474,289.2314],[43.5016,14.1484,291.2349],[43.5034,14.1517,289.1971],[43.508,14.1531,279.9487],[43.5122,14.1513,281.6311],[43.5216,14.1392,317.7993],[43.5318,14.1324,332.1026],[43.5429,14.1297,344.8919]]]]}}