{"type":"Feature","properties":{"GID_2":"YEM.14.6_1","GID_0":"YEM","country":"Yemen","GID_1":"YEM.14_1","province":"Ibb","NL_NAME_1":"إب","county":"AnNadirah","VARNAME_2":"NA","NL_NAME_2":"النادرة","TYPE_2":"Muderiah","ENGTYPE_2":"District","CC_2":"1104","HASC_2":"NA","name":"An_Nadirah.county"},
"geometry":{"type": "MultiPolygon","coordinates": [[[[44.594,14.1351,2155.9385],[44.5435,14.135,2505.3276],[44.5295,14.139099999999999,2577.6968],[44.5214,14.139099999999999,2640.8574],[44.5195,14.1426,2596.5901],[44.5177,14.1426,2660.6987],[44.505,14.1541,2764.2842],[44.4995,14.1639,2837.4883],[44.4978,14.1729,2763.3726],[44.4632,14.1309,2618.8167],[44.4586,14.1283,2703.4133],[44.4505,14.1185,2304.8699],[44.4496,14.1141,2200.2437],[44.4479,14.1136,2191.5649],[44.4487,14.1096,2157.1599],[44.4407,14.1038,2260.9485],[44.436,14.1069,2238.1528],[44.431399999999996,14.1051,2306.1357],[44.416,14.0953,2372.1035],[44.406,14.0856,2445.3286],[44.3915,14.0778,2580.0181],[44.3918,14.0691,2778.4146],[44.3936,14.0648,2877.6616],[44.4207,14.0598,2768.5752],[44.4315,14.0462,2285.498],[44.4306,14.0349,1949.2097],[44.4279,14.0311,1920.0681],[44.4233,14.0297,1942.2245],[44.4235,14.027,1917.7775],[44.4303,14.0247,1919.9902],[44.4348,14.0203,1954.5186],[44.436,14.0064,1805.1057],[44.4441,13.9959,1794.835],[44.4519,13.9741,1662.2753],[44.4608,13.961,1634.0017],[44.4778,13.9665,1825.4487],[44.4846,13.9728,1810.7556],[44.49,13.9806,2041.4165],[44.5153,13.985,2121.4534],[44.5221,13.9929,2369.3718],[44.5213,13.9936,2369.3718],[44.5389,13.9953,2239.27],[44.5571,13.9865,1945.8817],[44.5607,13.9865,1881.5342],[44.5928,13.9993,2056.9351],[44.607,14.0101,2392.3291],[44.5908,14.0162,2129.1379],[44.5795,14.0179,2412.5469],[44.5635,14.0228,2406.6914],[44.553,14.0318,2284.7041],[44.5526,14.0599,2051.6106],[44.5578,14.0674,2015.2701],[44.5685,14.0731,2006.4775],[44.5752,14.0789,1993.5372],[44.5921,14.082,1981.0114],[44.5924,14.0851,2038.5688],[44.5881,14.0932,2389.2903],[44.5996,14.0975,2263.5737],[44.6042,14.101,2246.3994],[44.606,14.1046,2285.7012],[44.605,14.1161,2135.3384],[44.6005,14.1188,2203.364],[44.5925,14.1204,2313.0894],[44.594,14.1351,2155.9385]]]]}}