{"type":"Feature","properties":{"GID_1":"YEM.21_1","GID_0":"YEM","country":"Yemen","province":"Ta`izz","VARNAME_1":"Taez|Taiz|Taizz","NL_NAME_1":"تعز","TYPE_1":"Muhafazah","ENGTYPE_1":"Governorate","CC_1":"15","HASC_1":"YE.TA","ISO_1":"NA","name":"Ta`izz.province"},
"geometry":{"type": "MultiPolygon","coordinates": [[[[43.4607,12.6746,0.0],[43.4601,12.676,1.1398],[43.4588,12.6732,0.0],[43.4596,12.6729,0.0],[43.4607,12.6746,0.0]]],
[[[43.647,12.9524,211.0101],[43.7058,12.9671,422.2265],[43.7,12.9986,360.8462],[43.7004,13.0204,688.9583],[43.6949,13.0767,604.8041],[43.721,13.0744,526.3896],[43.7485,13.0698,492.5145],[43.7625,13.0707,542.3563],[43.7772,13.081,646.9694],[43.7994,13.1081,773.8882],[43.8128,13.1154,742.3673],[43.8481,13.1224,986.5475],[43.8644,13.1185,849.1657],[43.8704,13.1103,758.4988],[43.8912,13.0998,841.7765],[43.9372,13.0893,736.9307],[43.9757,13.0694,761.5994],[43.9896,13.0789,1092.5355],[43.9945,13.088,1031.1802],[43.9877,13.0999,1167.2814],[43.9997,13.1325,990.9246],[44.0095,13.1263,860.3829],[44.0252,13.107,1046.2505],[44.0398,13.0955,939.056],[44.0505,13.0901,833.6265],[44.0628,13.0892,825.8419],[44.078,13.0906,900.3027],[44.0823,13.0948,994.8926],[44.0854,13.1044,934.643],[44.0824,13.1157,919.8854],[44.0818,13.1305,1230.2336],[44.0848,13.1537,1230.009],[44.0873,13.1583,1210.8363],[44.0923,13.162,1314.3092],[44.1025,13.1533,1485.3763],[44.1554,13.1514,975.1766],[44.1547,13.1599,1199.1675],[44.1318,13.1882,1494.2209],[44.1292,13.195,1565.623],[44.1296,13.1983,1369.8684],[44.1324,13.201,1299.0969],[44.138,13.2029,1297.2913],[44.1582,13.2046,2057.7097],[44.1621,13.2063,2056.8386],[44.1662,13.2044,1954.826],[44.17,13.2054,2071.6245],[44.1724,13.2099,2147.6094],[44.1656,13.2232,2126.2224],[44.1675,13.2261,2135.9041],[44.1649,13.231,2106.27],[44.1731,13.235,2168.6685],[44.1768,13.2338,2181.7349],[44.1777,13.235,2181.7349],[44.1774,13.2369,2132.7739],[44.1676,13.2363,2080.74],[44.1653,13.2376,2027.4622],[44.1649,13.2422,2007.585],[44.1711,13.2511,1517.9194],[44.1753,13.2461,1623.4454],[44.1838,13.2421,1548.8784],[44.1802,13.227,1782.9554],[44.1804,13.2232,1675.9686],[44.1838,13.2201,1454.1472],[44.1894,13.2205,1416.3568],[44.1963,13.218,1418.3123],[44.205,13.2178,1226.1541],[44.2194,13.2141,1341.384],[44.2307,13.2163,1116.7869],[44.2615,13.2152,1121.0433],[44.2732,13.2113,1005.7581],[44.2754,13.2051,947.7585],[44.2788,13.2035,932.8896],[44.3009,13.2116,704.9147],[44.3071,13.2125,729.2587],[44.3092,13.2189,831.9314],[44.3127,13.2232,861.5261],[44.3276,13.2291,884.1758],[44.3361,13.2349,1039.4879],[44.3382,13.2397,1065.5176],[44.3361,13.2525,1033.0321],[44.3412,13.2677,1015.5199],[44.3329,13.2883,1317.0798],[44.3265,13.2983,1503.7191],[44.3259,13.3027,1712.7363],[44.3281,13.3163,1813.8903],[44.3378,13.3378,1190.493],[44.3378,13.3439,1189.6245],[44.327,13.3567,1163.6509],[44.3228,13.3574,1110.3262],[44.3182,13.3545,1188.5747],[44.3202,13.3572,1135.2064],[44.3157,13.3639,1062.4669],[44.3045,13.3626,1089.6924],[44.2977,13.3557,1200.7131],[44.2935,13.3564,1332.7972],[44.2929,13.3676,1072.5597],[44.3103,13.3677,1047.5215],[44.3172,13.3701,1069.8186],[44.3245,13.3735,1022.6976],[44.33,13.3816,997.4108],[44.3333,13.3835,1001.8818],[44.3492,13.3855,999.802],[44.3663,13.3846,1009.2722],[44.3763,13.3813,1025.0989],[44.3902,13.3799,945.8829],[44.418,13.3832,934.462],[44.4231,13.3854,941.6755],[44.4258,13.3903,935.6674],[44.4247,13.4061,898.4368],[44.4197,13.4174,909.6284],[44.4131,13.4217,882.6747],[44.3926,13.4255,995.6376],[44.3768,13.4314,951.834],[44.3521,13.4443,883.0275],[44.3306,13.4605,953.7608],[44.3311,13.4691,955.9111],[44.3331,13.474,954.085],[44.3376,13.4798,1079.5394],[44.345,13.4823,1032.7329],[44.374,13.4796,960.8987],[44.3819,13.4941,1004.4886],[44.387,13.496,1175.1332],[44.4009,13.497,1095.5803],[44.4101,13.4953,1013.5743],[44.4162,13.4959,935.0289],[44.4235,13.5006,922.3599],[44.4247,13.5035,901.2609],[44.4231,13.5203,946.3403],[44.4273,13.5265,952.4357],[44.4512,13.526,1005.3448],[44.4659,13.5295,950.8732],[44.4795,13.5466,1261.7435],[44.5113,13.5806,964.6174],[44.5146,13.5878,916.9435],[44.5161,13.6019,1049.4253],[44.5128,13.6153,896.0475],[44.44,13.6467,1324.7738],[44.435,13.6451,1201.6719],[44.4318,13.64,1247.1517],[44.4311,13.6208,1088.5847],[44.3907,13.6316,1184.421],[44.3781,13.6376,1233.7151],[44.3742,13.6438,1189.7708],[44.3719,13.6513,1301.3606],[44.3721,13.6625,1598.0872],[44.3767,13.6713,1723.0026],[44.3963,13.6892,1372.2029],[44.3999,13.6961,1408.2961],[44.3948,13.7041,1405.8789],[44.4002,13.7155,1489.9255],[44.4055,13.7159,1419.6014],[44.4085,13.7201,1463.6971],[44.4072,13.7246,1424.0389],[44.4046,13.7266,1425.8755],[44.4017,13.7391,1502.604],[44.3925,13.7431,1573.667],[44.3913,13.7451,1654.6846],[44.3903,13.7581,1527.6252],[44.3847,13.7667,1706.024],[44.3794,13.771,1608.1289],[44.3727,13.773,1587.0081],[44.3699,13.7696,1599.8485],[44.3694,13.7584,1694.1436],[44.3665,13.7502,1900.0184],[44.3594,13.7381,2001.3995],[44.34,13.7177,1951.2832],[44.3243,13.7064,2183.1069],[44.2991,13.7053,1612.2704],[44.2761,13.7085,1458.5878],[44.2671,13.7132,1464.8347],[44.2623,13.7269,1576.6113],[44.2636,13.7334,1470.3856],[44.2548,13.7385,1464.2782],[44.244,13.7411,1457.1692],[44.2258,13.7358,1455.0273],[44.2111,13.7219,1448.3999],[44.2029,13.718,1440.1665],[44.1978,13.7176,1440.4867],[44.1919,13.7197,1440.9546],[44.1781,13.7406,1675.5109],[44.1689,13.7514,1676.2833],[44.1558,13.7496,1540.415],[44.1283,13.7501,1558.7596],[44.1128,13.7577,1619.647],[44.0853,13.7773,1554.8114],[44.0707,13.7695,1621.4757],[44.0581,13.7672,1609.9583],[44.0396,13.7675,1700.6334],[44.0304,13.7703,1569.8995],[44.0004,13.7854,1819.2834],[43.9817,13.8005,1876.5879],[43.9765,13.7925,1544.7583],[43.9734,13.7899,1532.5608],[43.9694,13.7898,1624.848],[43.9673,13.7907,1601.87],[43.9661,13.7941,1757.8577],[43.9616,13.7954,1767.7737],[43.9382,13.7925,1332.9641],[43.9093,13.8017,1258.1379],[43.9081,13.8109,1506.8418],[43.9091,13.8215,1594.8236],[43.9118,13.8232,1703.6863],[43.9264,13.8188,1733.6815],[43.9357,13.8273,1935.282],[43.9378,13.8376,2208.7412],[43.9369,13.8531,2322.7329],[43.9334,13.8618,2005.8674],[43.9255,13.8696,2058.2874],[43.915,13.871,2286.2234],[43.9097,13.8691,2412.062],[43.9071,13.8663,2368.7417],[43.9055,13.8571,2297.4155],[43.9018,13.8552,2260.5056],[43.8971,13.856,1952.3247],[43.8894,13.8539,1741.9313],[43.8903,13.846,1612.5903],[43.8881,13.8436,1457.259],[43.8762,13.8384,1327.7462],[43.8741,13.8333,1317.9484],[43.8696,13.8282,1257.5195],[43.8605,13.8197,1160.3726],[43.8584,13.8202,1122.8191],[43.852,13.8299,1162.6287],[43.8478,13.8397,1358.1106],[43.8595,13.8447,1436.1301],[43.8607,13.8574,1586.0632],[43.8695,13.8645,1951.8044],[43.8629,13.87,1933.0149],[43.8626,13.8726,1858.2886],[43.8653,13.8776,1576.3575],[43.8705,13.8799,1742.4962],[43.8695,13.8837,1694.5638],[43.8641,13.8908,1469.6093],[43.8408,13.8875,1180.2719],[43.8403,13.8832,1314.1772],[43.8346,13.8786,1050.4559],[43.7985,13.8705,938.2357],[43.7931,13.8497,790.2099],[43.7896,13.8486,789.7367],[43.7849,13.8497,819.512],[43.7841,13.8525,805.5784],[43.7859,13.8556,816.8309],[43.7842,13.8565,800.9323],[43.7847,13.8593,837.8757],[43.783,13.8621,846.7958],[43.7601,13.8857,859.4581],[43.7543,13.8873,880.7822],[43.7518,13.883,779.7553],[43.7486,13.863,880.6422],[43.7395,13.8522,808.9714],[43.7174,13.8471,697.5632],[43.6995,13.8531,654.0562],[43.6803,13.8532,567.6179],[43.6703,13.8564,507.2119],[43.6648,13.8625,679.4715],[43.6548,13.9014,598.0634],[43.6548,13.9144,431.5217],[43.61,13.9147,361.2051],[43.6009,13.9062,341.8627],[43.5798,13.8984,308.4554],[43.5562,13.8952,291.7279],[43.5491,13.899,281.562],[43.5334,13.8974,254.1258],[43.5272,13.8943,253.0553],[43.5115,13.8934,229.5102],[43.4879,13.8871,207.1953],[43.484,13.8825,199.4178],[43.4819,13.8533,180.9673],[43.4694,13.8325,234.9044],[43.4687,13.8202,171.1491],[43.4798,13.805,207.0163],[43.4783,13.7965,191.4496],[43.4767,13.7934,182.2576],[43.4367,13.797,100.2806],[43.4173,13.7677,73.1616],[43.423,13.7402,81.6056],[43.4058,13.717,66.2584],[43.3385,13.6974,26.7323],[43.2874,13.6788,0.0],[43.2874,13.6687,0.4641],[43.2835,13.6532,0.0],[43.2818,13.629,0.393],[43.2837,13.6182,1.0297],[43.2918,13.6085,0.0],[43.2926,13.5985,0.6213],[43.2899,13.5932,1.5442],[43.2854,13.5896,1.4015],[43.2779,13.5899,0.383],[43.2779,13.5849,0.0],[43.2821,13.5813,1.3287],[43.2818,13.5763,3.0552],[43.2757,13.5654,1.4586],[43.2735,13.5643,0.0],[43.2738,13.5604,1.6345],[43.2713,13.5565,1.5686],[43.2732,13.551,0.0],[43.2687,13.5451,0.6685],[43.2651,13.5351,0.4958],[43.2668,13.526,0.0],[43.2635,13.5215,1.8931],[43.261,13.5221,0.0],[43.2615,13.5187,0.4631],[43.2599,13.5149,0.1596],[43.2621,13.5149,0.3913],[43.2632,13.5126,0.8853],[43.2601,13.5124,0.1403],[43.2579,13.5079,0.3407],[43.2568,13.4774,0.0],[43.2549,13.4663,0.3658],[43.2557,13.4462,0.1256],[43.2543,13.4449,0.0],[43.2582,13.4415,0.0],[43.2588,13.4362,0.0],[43.2571,13.434,0.106],[43.2565,13.4274,0.3758],[43.2499,13.4226,0.6166],[43.2499,13.3946,0.6816],[43.2518,13.3888,0.7424],[43.2501,13.3768,0.0],[43.2529,13.366,0.6438],[43.2501,13.3613,1.8379],[43.2496,13.3396,1.8111],[43.2471,13.3332,1.2584],[43.2438,13.3304,1.1784],[43.2354,13.3299,0.0],[43.2399,13.3271,0.5554],[43.2421,13.3235,0.7676],[43.2426,13.3171,4.4298],[43.2407,13.3162,0.7593],[43.239,13.3121,0.0],[43.2332,13.3112,0.6792],[43.231,13.3135,0.0],[43.2296,13.3118,0.3113],[43.2271,13.316,0.0],[43.2279,13.3124,0.2995],[43.2326,13.3088,2.3918],[43.231,13.3065,0.0],[43.2318,13.2946,0.0],[43.2337,13.3062,0.4193],[43.2354,13.3079,1.2824],[43.2385,13.3079,0.3361],[43.2393,13.3062,0.2392],[43.241,13.2918,0.8632],[43.2454,13.2849,0.5026],[43.2457,13.2704,0.3359],[43.2438,13.2612,0.5184],[43.241,13.2621,0.0],[43.2407,13.2649,0.0],[43.2379,13.2671,0.228],[43.2374,13.2715,0.1621],[43.2293,13.2821,0.5963],[43.2287,13.2868,0.0],[43.2326,13.2929,0.0],[43.2313,13.2932,0.2421],[43.2276,13.2893,0.0],[43.2268,13.2829,0.0],[43.2299,13.279,0.0],[43.2304,13.2754,0.0],[43.2363,13.2701,0.3355],[43.236,13.2676,0.0],[43.2401,13.2618,0.0],[43.239,13.2601,0.0],[43.2418,13.259,0.0],[43.2449,13.2532,0.6888],[43.2487,13.2307,0.7001],[43.2538,13.216,0.6458],[43.2818,13.1626,0.7093],[43.2946,13.1421,1.0839],[43.3013,13.1354,0.0],[43.309,13.1218,0.0],[43.3446,13.0818,0.2946],[43.3765,13.0126,0.8995],[43.3849,13.0035,0.3699],[43.3865,12.9993,0.0],[43.3951,12.9893,0.4463],[43.3949,12.9868,0.166],[43.3974,12.9857,1.0534],[43.3988,12.9815,0.0],[43.401,12.9801,0.8374],[43.4012,12.9751,0.0],[43.4104,12.956,0.8427],[43.4104,12.9476,3.418],[43.4074,12.9463,4.2921],[43.406,12.9426,0.0],[43.4079,12.9399,0.0],[43.4101,12.941,1.139],[43.4138,12.9379,0.0],[43.419,12.9368,0.5268],[43.4268,12.9282,0.6932],[43.4351,12.9018,0.0],[43.4385,12.8985,0.0],[43.4396,12.8924,0.0],[43.4435,12.8849,0.0],[43.446,12.8813,0.0],[43.4549,12.8746,0.2463],[43.4551,12.8685,0.0],[43.4615,12.8635,0.0],[43.4754,12.8454,0.0],[43.4896,12.8321,1.289],[43.494,12.8243,0.1792],[43.4946,12.8174,0.0],[43.4874,12.8049,1.0576],[43.4818,12.786,0.6344],[43.4738,12.7671,0.0],[43.4746,12.7532,0.0],[43.4685,12.7293,0.0],[43.4682,12.7204,0.0],[43.4704,12.7171,0.6533],[43.474,12.719,2.1153],[43.4785,12.7188,2.1236],[43.4832,12.7138,0.0],[43.4863,12.7143,1.1122],[43.491,12.7082,0.0],[43.4901,12.7065,0.0],[43.4871,12.7065,0.0],[43.484,12.7087,0.4319],[43.4751,12.7079,0.0],[43.4724,12.7115,0.8307],[43.4738,12.7146,0.3079],[43.4674,12.7171,0.0],[43.4663,12.7107,0.0],[43.4521,12.694,0.0],[43.4535,12.6918,0.0],[43.4588,12.6901,3.3471],[43.4574,12.6849,0.0],[43.4604,12.6815,0.0],[43.4621,12.676,0.396],[43.4654,12.6751,0.0],[43.4671,12.6788,9.7051],[43.471,12.681,2.146],[43.4715,12.6788,11.7176],[43.4676,12.6746,0.0],[43.4682,12.6735,0.0],[43.4712,12.6754,0.0],[43.4765,12.6726,2.3988],[43.476,12.6779,5.7659],[43.479,12.6799,1.4354],[43.4807,12.6793,1.7704],[43.4813,12.6754,0.0],[43.4846,12.6751,0.0],[43.4851,12.6732,0.0],[43.4874,12.6754,2.6407],[43.4901,12.6743,0.0],[43.4924,12.6799,0.9384],[43.4943,12.6785,0.0],[43.4938,12.6724,1.7893],[43.4957,12.6721,0.0],[43.4987,12.6779,7.2828],[43.501,12.679,12.416],[43.5029,12.6746,0.0],[43.5054,12.674,6.086],[43.5051,12.6768,2.9941],[43.5068,12.679,2.6436],[43.5171,12.6868,1.1515],[43.5218,12.686,1.635],[43.5226,12.681,0.0],[43.5257,12.6818,0.0],[43.5304,12.689,4.1578],[43.5379,12.6957,0.6907],[43.539,12.6977,0.0],[43.5232,12.7098,22.0486],[43.647,12.9524,211.0101]]]]}}