{"type":"Feature","properties":{"ISO3166-1-Alpha-3":"YEM","country":"Yemen","fill":"#FF0","id":"158","name":"Ta`izz"},
"geometry":{"type": "MultiPolygon","coordinates": [[[[43.44899,12.65298,0.0],[43.44386,12.6638,0.0],[43.44223,12.66722,0.0],[43.42897,12.67377,0.0],[43.40642,12.67304,0.0],[43.39763,12.6708,0.0],[43.39015,12.66633,0.0],[43.39275,12.65306,19.3683],[43.39975,12.64985,23.2201],[43.41139,12.65266,12.0977],[43.41717,12.64671,0.0],[43.42888,12.63467,9.4351],[43.4358,12.63215,0.0],[43.44744,12.63866,0.0],[43.44899,12.65298,0.0]]],
[[[43.71178,13.86125,682.8855],[43.68429,13.91199,641.9545],[43.60099,13.89838,328.4086],[43.57691,13.89073,295.608],[43.54104,13.87548,497.9093],[43.46534,13.77895,144.4037],[43.45542,13.75981,104.7759],[43.44441,13.74681,101.3366],[43.42219,13.74309,81.7044],[43.38715,13.73358,55.8763],[43.35811,13.72185,41.6022],[43.28767,13.66643,0.484],[43.28452,13.66498,0.0],[43.28429,13.66487,0.0],[43.28199,13.61713,0.0],[43.29518,13.5856,3.3554],[43.28452,13.58039,2.2658],[43.28028,13.57412,0.2515],[43.27849,13.5666,1.7796],[43.27467,13.5576,2.6674],[43.25424,13.52656,0.0],[43.2483,13.34894,0.0],[43.23959,13.31513,0.0],[43.22633,13.28388,0.3412],[43.24887,13.21271,0.0],[43.30885,13.13931,5.0798],[43.313,13.13125,3.9985],[43.32252,13.10578,0.4899],[43.33473,13.08218,0.0],[43.33619,13.07441,0.0],[43.34181,13.06265,0.0],[43.37713,13.02318,1.8544],[43.3864,13.00727,1.4011],[43.39291,12.98969,0.1773],[43.39682,12.97085,0.0],[43.3982,12.95116,0.0],[43.40138,12.94343,0.0],[43.40846,12.93696,0.0],[43.41554,12.9289,0.0],[43.41871,12.91645,0.0],[43.42262,12.9062,0.0],[43.45289,12.87861,1.0541],[43.47316,12.84663,0.0],[43.48194,12.81208,0.0],[43.48121,12.77342,2.2285],[43.46225,12.69335,13.2531],[43.46803,12.68391,17.1693],[43.49073,12.68061,47.031],[43.51173,12.68317,2.8381],[43.52556,12.69038,19.9608],[43.53075,12.69548,1.6895],[43.56667,12.76721,7.2179],[43.64347,12.88257,147.1175],[43.70057,12.93815,258.6401],[43.73504,12.99027,487.0061],[43.7386,13.01202,439.0756],[43.73395,13.02864,526.8572],[43.72589,13.04081,508.1456],[43.72589,13.05683,535.9446],[43.73953,13.06721,558.52],[43.77493,13.0713,602.1852],[43.79012,13.07962,785.3473],[43.80764,13.0869,812.7389],[43.82299,13.10199,864.2475],[43.84242,13.11036,641.012],[43.86211,13.11576,868.3845],[43.882,13.11339,652.1448],[43.90092,13.10377,647.5221],[43.91937,13.09781,620.1366],[43.956,13.07716,786.6406],[43.97538,13.0606,607.8428],[44.00226,13.04833,596.8515],[44.0207,13.04732,851.8073],[44.02628,13.06316,1157.313],[44.02179,13.11222,1224.8838],[44.02923,13.11858,995.0837],[44.0685,13.09574,828.1647],[44.09222,13.09225,705.7886],[44.10328,13.10248,954.8195],[44.10716,13.1232,1170.5103],[44.11739,13.14271,1938.1455],[44.13057,13.1462,1428.3979],[44.15212,13.14959,1002.7556],[44.1638,13.15687,992.6959],[44.1624,13.17108,1139.587],[44.1624,13.18752,1213.127],[44.17155,13.19602,1526.6226],[44.1841,13.20516,1599.4631],[44.19651,13.22744,1594.1893],[44.23904,13.22012,1419.8894],[44.28172,13.22142,868.716],[44.33371,13.23384,1003.1414],[44.35681,13.25126,1097.9329],[44.36099,13.2741,1208.5723],[44.35603,13.29402,1785.4078],[44.35805,13.31926,1789.2932],[44.3565,13.33642,1314.5452],[44.3489,13.35495,1155.9836],[44.35464,13.36802,1009.0713],[44.37717,13.37427,1002.6841],[44.44171,13.37577,886.7803],[44.45163,13.38675,871.4626],[44.44931,13.4042,927.9333],[44.43753,13.41748,872.2552],[44.40848,13.42107,871.0274],[44.39469,13.42853,978.9855],[44.37727,13.43585,953.194],[44.36905,13.45104,883.652],[44.37665,13.46727,1003.3027],[44.39267,13.47734,892.0961],[44.41065,13.4846,986.7753],[44.43877,13.48853,950.2593],[44.4459,13.49484,874.2207],[44.44667,13.50248,854.2982],[44.44512,13.50884,910.2557],[44.449,13.51566,917.8443],[44.46156,13.51959,957.1218],[44.47535,13.51974,996.532],[44.4921,13.52638,1051.6489],[44.50284,13.53778,1115.2101],[44.51137,13.54974,1345.8308],[44.52501,13.55589,1110.7664],[44.53323,13.57705,934.4587],[44.5309,13.59728,953.1785],[44.52532,13.6101,1052.7225],[44.49427,13.62488,1207.0276],[44.47272,13.62651,1213.9438],[44.45024,13.62217,1069.3854],[44.42926,13.62733,1119.4272],[44.41422,13.64322,1121.5614],[44.41546,13.66366,1235.7411],[44.42445,13.68668,1422.6959],[44.42817,13.7111,1432.5851],[44.42507,13.73376,1491.4976],[44.40693,13.76105,1694.9987],[44.39717,13.74658,1493.3826],[44.38378,13.73167,1730.6395],[44.34533,13.70542,1706.5549],[44.32125,13.70301,1973.0333],[44.30048,13.71048,1607.2201],[44.28575,13.71803,1497.6604],[44.26586,13.725,1521.4065],[44.22989,13.72588,1411.0305],[44.15496,13.74939,1540.415],[44.13057,13.76425,1626.9595],[44.07967,13.76929,1595.4313],[43.96345,13.80182,2068.5381],[43.956,13.81585,1839.5303],[43.96081,13.82784,2055.3735],[43.96097,13.8468,2048.2502],[43.94608,13.85321,2075.145],[43.90076,13.83512,1624.4789],[43.89224,13.84523,1735.9066],[43.89317,13.86326,1792.1606],[43.8865,13.87773,2019.4955],[43.83978,13.87161,1304.2498],[43.81927,13.86264,1070.168],[43.79384,13.87014,868.5691],[43.77167,13.85923,835.7084],[43.71178,13.86125,682.8855]]]]}}