{"type":"Feature","properties":{"GID_2":"YEM.3.20_1","GID_0":"YEM","country":"Yemen","GID_1":"YEM.3_1","province":"AlBayda'","NL_NAME_1":"البيضاء","county":"WaldRabi'","VARNAME_2":"NA","NL_NAME_2":"ولدربيع","TYPE_2":"Muderiah","ENGTYPE_2":"District","CC_2":"1415","HASC_2":"NA","name":"Wald_Rabi'.county"},
"geometry":{"type": "MultiPolygon","coordinates": [[[[44.863,14.4136,2119.8989],[44.8711,14.412,2123.1104],[44.8694,14.419,2143.8921],[44.8622,14.4198,2116.1858],[44.8485,14.4346,2110.7468],[44.8441,14.4349,2112.3513],[44.8445,14.4385,2110.8298],[44.8479,14.4411,2107.6714],[44.8463,14.4553,2166.4866],[44.8321,14.4584,2158.0386],[44.8218,14.4584,2153.6558],[44.8099,14.4506,2160.2654],[44.8043,14.4413,2142.1497],[44.8044,14.4305,2141.9883],[44.8086,14.4279,2138.1785],[44.8114,14.4189,2146.1296],[44.8189,14.4149,2139.1553],[44.8226,14.4236,2133.0073],[44.8218,14.4437,2135.6357],[44.8265,14.4452,2140.3867],[44.8321,14.4421,2235.2488],[44.844,14.4313,2113.7373],[44.8535,14.4198,2113.7583],[44.8509,14.4133,2115.9275],[44.8537,14.4092,2116.0618],[44.857,14.41,2115.8892],[44.8597,14.4157,2115.0481],[44.863,14.4136,2119.8989]]],
[[[44.7558,14.4642,2255.136],[44.7626,14.4605,2240.3423],[44.7789,14.48,2246.752],[44.8043,14.5055,2226.585],[44.8407,14.5379,2100.9275],[44.855,14.5588,2024.5471],[44.8637,14.5673,2012.8075],[44.8843,14.5681,1994.6912],[44.8947,14.5588,2031.2557],[44.906,14.5335,2019.5331],[44.9089,14.5357,2036.7537],[44.92,14.5527,2090.0356],[44.9161,14.5635,2093.7075],[44.9026,14.5789,2033.4059],[44.8367,14.6051,2025.6768],[44.8145,14.6283,2072.7092],[44.7827,14.6978,2007.0798],[44.7804,14.7111,2041.3898],[44.7465,14.6843,2268.7751],[44.7353,14.6704,2322.3992],[44.7192,14.6434,2396.0005],[44.7084,14.6136,2506.4255],[44.7062,14.5968,2619.5459],[44.7062,14.5749,2804.7117],[44.7124,14.5545,2617.9243],[44.7319,14.513,2457.1631],[44.742,14.4804,2311.1951],[44.7486,14.4677,2277.6035],[44.7558,14.4642,2255.136]]],
[[[45.0115,14.513,1932.7327],[45.0166,14.4647,1945.0944],[45.0995,14.5164,1859.7278],[45.1145,14.5347,1820.6997],[45.1001,14.5558,1874.3691],[45.082,14.5891,1767.2396],[45.077,14.6037,1852.0392],[45.0749,14.6053,1852.0858],[45.0531,14.745,1635.0062],[45.0516,14.799,1517.1875],[45.0547,14.8082,1541.7697],[45.0516,14.8206,1616.9912],[45.031,14.8252,1613.345],[44.993,14.8129,1557.8479],[44.963,14.8064,1670.8544],[44.9677,14.7717,1741.7507],[44.9696,14.7024,1802.7605],[44.9828,14.6255,1910.9559],[45.0073,14.5527,1952.5868],[45.0115,14.513,1932.7327]]]]}}