{"type":"Feature","properties":{"GID_2":"YEM.13.25_1","GID_0":"YEM","country":"Yemen","GID_1":"YEM.13_1","province":"Hajjah","NL_NAME_1":"حجه","county":"Mustaba","VARNAME_2":"NA","NL_NAME_2":"مستباء","TYPE_2":"Muderiah","ENGTYPE_2":"District","CC_2":"1706","HASC_2":"NA","name":"Mustaba.county"},
"geometry":{"type": "MultiPolygon","coordinates": [[[[43.2204,16.1873,186.2877],[43.2405,16.1879,256.2831],[43.2501,16.1862,250.6973],[43.2822,16.1748,362.1479],[43.3095,16.1916,348.5793],[43.3152,16.1975,350.6053],[43.3262,16.2016,382.09],[43.3326,16.2068,394.6235],[43.3368,16.2054,387.0877],[43.3388,16.2013,401.0285],[43.3471,16.1961,432.0331],[43.3522,16.1965,410.0759],[43.3547,16.2044,414.2715],[43.3569,16.2023,422.6993],[43.3568,16.1963,414.723],[43.3587,16.1934,434.5194],[43.3682,16.1895,435.8663],[43.3706,16.1919,436.4541],[43.3718,16.1987,460.7455],[43.3783,16.2074,461.4412],[43.3728,16.222,496.0453],[43.3707,16.2235,489.8074],[43.3704,16.2264,501.5817],[43.3741,16.2355,540.6542],[43.3728,16.2413,597.1383],[43.3697,16.2424,521.9458],[43.3705,16.2495,514.2079],[43.3653,16.2577,511.9172],[43.3638,16.2588,523.3344],[43.3604,16.2565,521.775],[43.3494,16.264,493.514],[43.3408,16.2871,480.0959],[43.3366,16.2944,424.4483],[43.3309,16.2968,403.8701],[43.3297,16.3057,403.7201],[43.3339,16.3211,409.0421],[43.3383,16.3264,394.5137],[43.3442,16.3264,444.8798],[43.3464,16.3299,423.8841],[43.3355,16.3342,411.0319],[43.3279,16.3461,378.4783],[43.3142,16.3614,332.3571],[43.3214,16.3724,349.0432],[43.3053,16.3722,346.6777],[43.2836,16.3662,360.6456],[43.2681,16.3671,284.9691],[43.2652,16.3653,311.6104],[43.2425,16.3263,269.0185],[43.2423,16.3209,252.5545],[43.2387,16.3126,239.8234],[43.2334,16.307,248.9272],[43.2364,16.2983,218.7952],[43.236,16.2944,214.1022],[43.2291,16.2868,207.1907],[43.2276,16.2765,198.9505],[43.2178,16.2686,185.5017],[43.208,16.2637,180.567],[43.1962,16.266,190.2431],[43.1969,16.27,177.9926],[43.1944,16.2759,167.9612],[43.1862,16.2782,172.8152],[43.1841,16.2853,155.9268],[43.1788,16.2892,162.2505],[43.1759,16.2832,146.3461],[43.1699,16.2856,146.7228],[43.1611,16.2658,142.5854],[43.1587,16.237,151.787],[43.1742,16.227,170.8769],[43.193,16.227,190.6538],[43.201,16.2226,196.9423],[43.2069,16.215,192.7072],[43.2204,16.1873,186.2877]]]]}}