{"type":"Feature","properties":{"GID_2":"YEM.5.23_1","GID_0":"YEM","country":"Yemen","GID_1":"YEM.5_1","province":"AlHudaydah","NL_NAME_1":"الحديده","county":"Hays","VARNAME_2":"NA","NL_NAME_2":"حيس","TYPE_2":"Muderiah","ENGTYPE_2":"District","CC_2":"1819","HASC_2":"NA","name":"Hays.county"},
"geometry":{"type": "MultiPolygon","coordinates": [[[[43.3865,13.9462,119.722],[43.4004,13.9349,132.3918],[43.4147,13.9204,139.6231],[43.428,13.919,148.5387],[43.4367,13.9137,152.3891],[43.4415,13.906,155.2655],[43.44,13.8922,155.6936],[43.4369,13.8822,149.593],[43.433,13.876,142.241],[43.4441,13.8661,152.7305],[43.4379,13.8546,143.788],[43.4395,13.8492,140.5917],[43.4466,13.8393,139.0241],[43.469,13.8246,177.7677],[43.4694,13.8325,234.9044],[43.4819,13.8533,180.9673],[43.484,13.8825,199.4178],[43.4879,13.8871,207.1953],[43.5115,13.8934,229.5102],[43.5272,13.8943,253.0553],[43.5334,13.8974,254.1258],[43.5491,13.899,281.562],[43.5562,13.8952,291.7279],[43.5798,13.8984,308.4554],[43.6009,13.9062,341.8627],[43.61,13.9147,361.2051],[43.6103,13.9216,350.1882],[43.6063,13.9455,307.0573],[43.6007,13.9575,308.3832],[43.5928,13.9624,314.2953],[43.5816,13.9619,280.4618],[43.5728,13.9664,281.9998],[43.5584,13.9686,270.9385],[43.5533,13.9731,251.9894],[43.548,14.0011,266.1311],[43.5381,14.0314,396.7468],[43.5325,14.0377,444.4018],[43.5231,14.0408,455.3582],[43.5147,14.0418,701.9531],[43.5027,14.0345,527.4825],[43.4934,14.0145,203.1149],[43.4911,14.0023,330.2198],[43.4837,13.9955,294.0802],[43.4848,13.9795,249.7978],[43.465,13.9767,176.0611],[43.4566,13.98,169.1205],[43.4506,13.9937,156.8388],[43.4411,13.9964,148.6683],[43.4358,13.9998,145.0358],[43.4295,13.9997,142.8927],[43.4243,13.9963,139.936],[43.4208,13.9884,138.5038],[43.4145,13.9827,136.262],[43.4021,13.9781,126.8133],[43.3985,13.9747,124.2931],[43.3906,13.9587,122.2501],[43.3865,13.9462,119.722]]]]}}