{"type":"Feature","properties":{"GID_2":"YEM.9.1_1","GID_0":"YEM","country":"Yemen","GID_1":"YEM.9_1","province":"AmanatAlAsimah","NL_NAME_1":"أمانةالعاصمة","county":"AlWahdah","VARNAME_2":"NA","NL_NAME_2":"الوحدة","TYPE_2":"Muderiah","ENGTYPE_2":"District","CC_2":"1306","HASC_2":"NA","name":"Al_Wahdah.county"},
"geometry":{"type": "MultiPolygon","coordinates": [[[[44.2086,15.3354,2263.6611],[44.2085,15.3405,2257.1548],[44.2124,15.3408,2259.498],[44.2138,15.3463,2256.3125],[44.2104,15.3498,2251.9482],[44.1987,15.3454,2259.845],[44.1617,15.341,2344.553],[44.1598,15.3395,2362.5288],[44.1812,15.3259,2292.7795],[44.1848,15.3299,2279.72],[44.1992,15.3205,2278.8728],[44.1985,15.335,2262.2959],[44.2086,15.3354,2263.6611]]]]}}