{"type":"Feature","properties":{"GID_2":"YEM.12.3_1","GID_0":"YEM","country":"Yemen","GID_1":"YEM.12_1","province":"Hadramawt","NL_NAME_1":"حضرموت","county":"AlAbr","VARNAME_2":"NA","NL_NAME_2":"العبر","TYPE_2":"Muderiah","ENGTYPE_2":"District","CC_2":"1906","HASC_2":"NA","name":"Al_Abr.county"},
"geometry":{"type": "MultiPolygon","coordinates": [[[[47.8344,15.9826,1212.6387],[47.6739,16.0194,928.1909],[47.557,16.1289,868.8847],[47.5417,16.201,1272.74],[47.5435,16.2036,1276.1525],[47.4863,16.2122,1234.1436],[47.3662,16.2211,1105.0231],[47.2789,16.2146,1013.1166],[47.2146,16.1909,969.0205],[47.1756,16.1651,962.0833],[47.1243,16.085,920.0453],[47.0513,16.0399,887.0057],[46.9483,16.1071,901.2164],[46.9483,16.109,900.0955],[46.8108,16.1619,883.7923],[46.4864,15.8018,859.9613],[46.306,15.6062,880.1259],[47.0532,15.6725,824.9332],[47.371,15.6874,747.1635],[47.6017,15.7149,721.1158],[47.6991,15.7196,721.7542],[47.6975,15.7185,722.2165],[47.7474,15.7179,719.5518],[47.8062,15.7225,709.708],[47.8209,15.7188,707.1255],[47.8268,15.7113,708.8052],[47.868899999999996,15.712,715.4579],[47.9324,15.7385,707.8856],[48.0029,15.7706,696.894],[48.0464,15.7874,695.6775],[48.0984,15.7859,689.3678],[48.1262,15.7986,689.4054],[48.1516,15.8251,689.9653],[48.1439,15.8501,699.0936],[48.1156,15.8831,1059.1667],[47.979,15.9734,1154.4293],[47.9692,15.9783,1158.7194],[47.8617,15.9798,1165.8406],[47.8344,15.9826,1212.6387]]]]}}