{"type":"Feature","properties":{"GID_2":"YEM.16.2_1","GID_0":"YEM","country":"Yemen","GID_1":"YEM.16_1","province":"Ma'rib","NL_NAME_1":"مأرب","county":"AlJubah","VARNAME_2":"NA","NL_NAME_2":"الجوبة","TYPE_2":"Muderiah","ENGTYPE_2":"District","CC_2":"2607","HASC_2":"NA","name":"Al_Jubah.county"},
"geometry":{"type": "MultiPolygon","coordinates": [[[[45.2539,14.9873,1754.8369],[45.2698,14.9365,1556.38],[45.2881,14.9496,1555.1152],[45.3174,14.9647,1599.6794],[45.3771,15.0225,1574.9153],[45.424,15.0794,1380.0685],[45.4485,15.1012,1416.7722],[45.472,15.1163,1208.9316],[45.5054,15.1538,1227.725],[45.4501,15.2039,1159.1191],[45.4216,15.2348,1129.0422],[45.3096,15.3133,1123.5472],[45.129,15.2856,1166.9543],[45.1087,15.2857,1243.6711],[45.0801,15.1221,1448.7371],[45.0682,15.1076,1397.9546],[45.2074,15.1073,2217.0981],[45.2162,15.0982,1884.9229],[45.2405,15.0228,1811.897],[45.2539,14.9873,1754.8369]]]]}}