{"type":"Feature","properties":{"GID_2":"YEM.21.12_1","GID_0":"YEM","country":"Yemen","GID_1":"YEM.21_1","province":"Ta`izz","NL_NAME_1":"تعز","county":"DimnatKhadir","VARNAME_2":"NA","NL_NAME_2":"دمنةخدير","TYPE_2":"Muderiah","ENGTYPE_2":"District","CC_2":"1513","HASC_2":"NA","name":"Dimnat_Khadir.county"},
"geometry":{"type": "MultiPolygon","coordinates": [[[[44.3306,13.4605,953.7608],[44.3241,13.4608,963.3822],[44.2862,13.4798,1004.5507],[44.2817,13.495,999.1937],[44.2783,13.4983,1015.2317],[44.2711,13.5007,992.1801],[44.2644,13.4959,1085.5076],[44.2624,13.4988,1030.3771],[44.2648,13.5016,1006.9433],[44.2654,13.5072,1010.5089],[44.2696,13.5129,1021.3832],[44.2816,13.5205,1139.6127],[44.2854,13.528,1104.6038],[44.2859,13.5365,1094.7405],[44.2839,13.5426,1109.0997],[44.2728,13.5529,1083.7178],[44.2689,13.5613,1087.4001],[44.249,13.5628,1186.0188],[44.2409,13.5518,1123.6204],[44.2395,13.5442,1074.5042],[44.2333,13.5365,1066.9019],[44.2263,13.5391,1078.8411],[44.2196,13.5469,1177.2971],[44.1572,13.557,1247.3108],[44.1491,13.5483,1240.1577],[44.1518,13.5419,1238.2378],[44.1403,13.5415,1257.0927],[44.1314,13.5433,1279.1908],[44.126,13.5412,1309.335],[44.119,13.5363,1402.2278],[44.1081,13.5247,1410.1071],[44.1089,13.4983,1464.5623],[44.1181,13.4826,1461.9662],[44.1248,13.4748,1452.243],[44.1229,13.4577,1429.021],[44.1197,13.4503,1427.6296],[44.1107,13.4442,1446.9003],[44.1049,13.4431,1445.3999],[44.1017,13.4378,1497.4886],[44.0984,13.4263,1775.4221],[44.0884,13.4229,1852.7534],[44.0826,13.4124,1825.5502],[44.0861,13.4072,1685.5005],[44.0998,13.4094,1724.0642],[44.1052,13.4074,1791.5953],[44.1261,13.4116,1584.0717],[44.1293,13.414,1726.2291],[44.1317,13.4135,1687.7485],[44.142,13.4043,1440.6467],[44.1463,13.4067,1552.7648],[44.1647,13.4035,1245.259],[44.1765,13.3995,1197.1116],[44.181,13.4037,1178.4597],[44.1994,13.4003,1161.4661],[44.2256,13.3859,1182.1471],[44.2357,13.3849,1123.1833],[44.2398,13.3794,1137.3671],[44.2614,13.3673,1121.8678],[44.2614,13.373,1102.2932],[44.2642,13.3763,1100.8973],[44.275,13.3776,1082.9535],[44.2773,13.3753,1090.9404],[44.2781,13.3716,1078.6433],[44.2758,13.3476,1422.4939],[44.28,13.3388,1271.4059],[44.294,13.3149,1508.5872],[44.3063,13.3162,1488.374],[44.3199,13.3301,1334.3452],[44.3276,13.3309,1329.4674],[44.3332,13.3273,1454.7267],[44.3378,13.3378,1190.493],[44.3378,13.3439,1189.6245],[44.327,13.3567,1163.6509],[44.3228,13.3574,1110.3262],[44.3182,13.3545,1188.5747],[44.3202,13.3572,1135.2064],[44.3157,13.3639,1062.4669],[44.3045,13.3626,1089.6924],[44.2977,13.3557,1200.7131],[44.2935,13.3564,1332.7972],[44.2929,13.3676,1072.5597],[44.3103,13.3677,1047.5215],[44.3172,13.3701,1069.8186],[44.3245,13.3735,1022.6976],[44.33,13.3816,997.4108],[44.3333,13.3835,1001.8818],[44.3492,13.3855,999.802],[44.3663,13.3846,1009.2722],[44.3763,13.3813,1025.0989],[44.3902,13.3799,945.8829],[44.418,13.3832,934.462],[44.4231,13.3854,941.6755],[44.4258,13.3903,935.6674],[44.4247,13.4061,898.4368],[44.4197,13.4174,909.6284],[44.4131,13.4217,882.6747],[44.3926,13.4255,995.6376],[44.3768,13.4314,951.834],[44.3521,13.4443,883.0275],[44.3306,13.4605,953.7608]]]]}}