{"type":"Feature","properties":{"GID_2":"YEM.21.23_1","GID_0":"YEM","country":"Yemen","GID_1":"YEM.21_1","province":"Ta`izz","NL_NAME_1":"تعز","county":"Shara'bAsSalam","VARNAME_2":"NA","NL_NAME_2":"شرعبالسلام","TYPE_2":"Muderiah","ENGTYPE_2":"District","CC_2":"1503","HASC_2":"NA","name":"Shara'b_As_Salam.county"},
"geometry":{"type": "MultiPolygon","coordinates": [[[[43.8894,13.8539,1741.9313],[43.8903,13.846,1612.5903],[43.8881,13.8436,1457.259],[43.8762,13.8384,1327.7462],[43.8741,13.8333,1317.9484],[43.8696,13.8282,1257.5195],[43.8605,13.8197,1160.3726],[43.8584,13.8202,1122.8191],[43.852,13.8299,1162.6287],[43.8478,13.8397,1358.1106],[43.8595,13.8447,1436.1301],[43.8607,13.8574,1586.0632],[43.8695,13.8645,1951.8044],[43.8629,13.87,1933.0149],[43.8626,13.8726,1858.2886],[43.8653,13.8776,1576.3575],[43.8705,13.8799,1742.4962],[43.8695,13.8837,1694.5638],[43.8641,13.8908,1469.6093],[43.8408,13.8875,1180.2719],[43.8403,13.8832,1314.1772],[43.8346,13.8786,1050.4559],[43.7985,13.8705,938.2357],[43.7931,13.8497,790.2099],[43.7898,13.8487,789.7367],[43.7898,13.8469,790.4811],[43.7921,13.8433,773.5029],[43.8056,13.8408,919.7303],[43.8131,13.8341,977.069],[43.8163,13.826599999999999,840.0159],[43.819,13.8244,955.6411],[43.8313,13.8232,885.5631],[43.8423,13.8131,1046.5068],[43.8465,13.8031,1281.2888],[43.8381,13.8029,1122.9734],[43.8367,13.8015,1044.6256],[43.8367,13.7989,1054.8699],[43.8417,13.7942,1239.5538],[43.8393,13.7914,1239.7396],[43.8348,13.7905,1174.3491],[43.8322,13.7832,1248.9934],[43.834,13.7793,1330.7825],[43.8392,13.7752,1574.6201],[43.8401,13.7628,1435.2109],[43.8421,13.7564,1375.3225],[43.8439,13.7547,1331.7225],[43.8496,13.7541,1419.2275],[43.8481,13.7495,1339.0138],[43.8542,13.7411,1351.444],[43.8565,13.7335,1271.947],[43.8623,13.7358,1277.3927],[43.8696,13.7487,1387.6486],[43.8779,13.7507,1290.0219],[43.8785,13.7471,1233.1677],[43.8802,13.7462,1218.8179],[43.8848,13.7521,1221.2578],[43.8888,13.7538,1313.6758],[43.8945,13.753,1296.9075],[43.8966,13.7483,1341.5684],[43.8934,13.7449,1239.0261],[43.9078,13.7396,1222.7032],[43.9138,13.7307,1342.3248],[43.9139,13.7231,1226.4849],[43.9158,13.7198,1242.4768],[43.923,13.7143,1137.9905],[43.9235,13.7107,1135.3687],[43.9299,13.7056,1214.7712],[43.9369,13.7034,1169.1497],[43.9416,13.7062,1175.4316],[43.9451,13.7063,1368.1759],[43.9492,13.7006,1234.6589],[43.9492,13.6943,1191.4928],[43.9457,13.692,1119.2373],[43.9493,13.6755,1134.5562],[43.9592,13.6789,1161.0878],[43.9697,13.6835,1203.9211],[43.9784,13.6939,1214.9561],[43.9824,13.7076,1296.7574],[43.9782,13.7286,1464.2515],[43.9594,13.7696,1529.2825],[43.9529,13.7793,1404.3158],[43.953,13.7948,1590.6022],[43.9382,13.7925,1332.9641],[43.9155,13.7992,1253.0461],[43.9086,13.803,1320.3119],[43.9091,13.8215,1594.8236],[43.9118,13.8232,1703.6863],[43.9264,13.8188,1733.6815],[43.9357,13.8273,1935.282],[43.938,13.8471,2248.7942],[43.9354,13.8581,2079.4641],[43.9255,13.8696,2058.2874],[43.915,13.871,2286.2234],[43.9097,13.8691,2412.062],[43.9071,13.8663,2368.7417],[43.9055,13.8571,2297.4155],[43.9018,13.8552,2260.5056],[43.8971,13.856,1952.3247],[43.8894,13.8539,1741.9313]]]]}}