{"type":"Feature","properties":{"GID_2":"YEM.3.6_1","GID_0":"YEM","country":"Yemen","GID_1":"YEM.3_1","province":"AlBayda'","NL_NAME_1":"البيضاء","county":"ArRyashyyah","VARNAME_2":"NA","NL_NAME_2":"الرياشية","TYPE_2":"Muderiah","ENGTYPE_2":"District","CC_2":"1418","HASC_2":"NA","name":"Ar_Ryashyyah.county"},
"geometry":{"type": "MultiPolygon","coordinates": [[[[44.7538,14.3076,2678.9958],[44.7193,14.2644,2671.1711],[44.7041,14.2316,2327.2786],[44.6933,14.2173,2292.6365],[44.6679,14.1913,2246.5146],[44.6539,14.1831,2207.4502],[44.6659,14.1774,2264.0713],[44.6815,14.1777,2041.8813],[44.7258,14.1911,2231.519],[44.7322,14.1935,2191.1172],[44.7386,14.2077,2302.635],[44.7449,14.2166,2283.1423],[44.7631,14.2184,2748.7075],[44.7842,14.2063,2697.0681],[44.8024,14.2015,2825.1111],[44.8204,14.2062,2458.095],[44.8316,14.2119,2319.7622],[44.8651,14.2242,2282.9092],[44.8969,14.2296,1961.6733],[44.8956,14.2386,1967.1567],[44.8869,14.2635,1948.7739],[44.8733,14.2624,1962.4257],[44.8668,14.2634,1993.147],[44.8609,14.2613,2020.3466],[44.8587,14.2544,2005.6538],[44.856,14.2507,2010.5037],[44.8544,14.2523,2034.3956],[44.8533,14.2703,1999.9503],[44.8413,14.2878,2045.014],[44.8408,14.292,2046.6851],[44.831,14.3015,2129.895],[44.8223,14.3052,2126.9536],[44.8088,14.302,2176.198],[44.8039,14.2909,2290.5415],[44.7838,14.2951,2305.2258],[44.7538,14.3076,2678.9958]]]]}}