{"type":"Feature","properties":{"GID_2":"YEM.12.21_1","GID_0":"YEM","country":"Yemen","GID_1":"YEM.12_1","province":"Hadramawt","NL_NAME_1":"حضرموت","county":"Rakhyah","VARNAME_2":"NA","NL_NAME_2":"رخيه","TYPE_2":"Muderiah","ENGTYPE_2":"District","CC_2":"1920","HASC_2":"NA","name":"Rakhyah.county"},
"geometry":{"type": "MultiPolygon","coordinates": [[[[47.7143,15.2946,1334.9626],[47.7232,15.3231,1329.8096],[47.7478,15.3629,1247.3568],[47.8353,15.4194,1080.5522],[47.8739,15.4778,1196.5643],[47.9175,15.5339,1214.5974],[47.9438,15.5797,1186.2673],[47.9475,15.5822,1182.8414],[47.9303,15.6647,910.438],[47.869,15.712,715.4579],[47.8203,15.6278,787.4448],[47.7752,15.5634,1260.92],[47.7216,15.4977,1286.2346],[47.6376,15.4046,1335.1101],[47.6213,15.3674,1378.421],[47.624,15.3425,1370.1162],[47.6067,15.2749,1414.9447],[47.5983,15.2513,1404.1282],[47.598,15.2315,1421.6183],[47.6114,15.2116,1418.3698],[47.6318,15.214,1421.318],[47.6537,15.2322,1411.312],[47.6854,15.2621,1381.198],[47.6931,15.2734,1356.6179],[47.7143,15.2946,1334.9626]]]]}}