{"type":"Feature","properties":{"GID_2":"YEM.14.19_1","GID_0":"YEM","country":"Yemen","GID_1":"YEM.14_1","province":"Ibb","NL_NAME_1":"إب","county":"Mudhaykhirah","VARNAME_2":"NA","NL_NAME_2":"مذيخرة","TYPE_2":"Muderiah","ENGTYPE_2":"District","CC_2":"1117","HASC_2":"NA","name":"Mudhaykhirah.county"},
"geometry":{"type": "MultiPolygon","coordinates": [[[[43.8721,13.8613,1872.6412],[43.8695,13.8645,1951.8044],[43.8652,13.8623,1803.6812],[43.8607,13.8574,1586.0632],[43.8595,13.8447,1436.1301],[43.8478,13.8397,1358.1106],[43.852,13.8299,1162.6287],[43.8584,13.8202,1122.8191],[43.8605,13.8197,1160.3726],[43.8696,13.8282,1257.5195],[43.8741,13.8333,1317.9484],[43.8762,13.8384,1327.7462],[43.8836,13.841,1433.0505],[43.8903,13.846,1612.5903],[43.8894,13.8539,1741.9313],[43.8806,13.854,1553.1499],[43.8721,13.8613,1872.6412]]],
[[[43.9257,13.8697,2027.2495],[43.9334,13.8618,2005.8674],[43.9369,13.8531,2322.7329],[43.9378,13.8376,2208.7412],[43.9357,13.8273,1935.282],[43.9264,13.8188,1733.6815],[43.9118,13.8232,1703.6863],[43.9091,13.8215,1594.8236],[43.9086,13.8029,1320.3119],[43.9155,13.7992,1253.0461],[43.9382,13.7925,1332.9641],[43.9616,13.7954,1767.7737],[43.9661,13.7941,1757.8577],[43.9673,13.7907,1601.87],[43.9734,13.7899,1532.5608],[43.9817,13.8005,1876.5879],[43.9866,13.7968,1976.5074],[43.9934,13.8141,2251.8452],[43.9995,13.8211,2008.4604],[44.0086,13.8262,2133.0847],[44.0093,13.8304,2111.6267],[44.0131,13.8325,2318.3552],[44.0128,13.8363,2298.2183],[44.0083,13.8368,2252.4641],[44.0061,13.8393,2282.8721],[44.0103,13.8453,2109.4219],[44.0107,13.8545,1827.5128],[44.0142,13.86,1742.9724],[44.0118,13.8672,1545.048],[44.0123,13.8843,1466.5679],[44.0147,13.9037,1355.1997],[44.0194,13.9166,1308.7976],[44.0086,13.9211,1306.0087],[44.0058,13.9079,1429.8733],[43.9874,13.907,1538.3354],[43.9773,13.8997,1991.4401],[43.975,13.8997,1789.2717],[43.9693,13.9075,1665.1309],[43.971,13.9106,1807.9375],[43.9692,13.9125,1655.7567],[43.9664,13.9128,1566.1702],[43.9644,13.9097,1547.3682],[43.9582,13.9072,1473.0863],[43.9608,13.9021,1477.4542],[43.9592,13.8975,1670.6541],[43.9555,13.8984,1659.8015],[43.9545,13.9009,1544.9213],[43.9567,13.9027,1588.5444],[43.9554,13.9059,1496.4233],[43.9469,13.9035,1647.0813],[43.9431,13.9049,1673.4285],[43.9377,13.9009,1933.4546],[43.9333,13.9011,1920.1572],[43.9342,13.8998,1920.1384],[43.932,13.8995,1894.3204],[43.9322,13.8979,1846.9985],[43.9273,13.898,1671.3749],[43.9283,13.887,1766.1689],[43.9304,13.8824,1784.0623],[43.9297,13.8778,1864.2477],[43.9257,13.8697,2027.2495]]]]}}