{"type":"Feature","properties":{"GID_1":"YEM.19_1","GID_0":"YEM","country":"Yemen","province":"San`a'","VARNAME_1":"Sana'a","NL_NAME_1":"صنعاء","TYPE_1":"City","ENGTYPE_1":"City","CC_1":"23","HASC_1":"YE.SN","ISO_1":"NA","name":"San`a'.province"},
"geometry":{"type": "MultiPolygon","coordinates": [[[[44.8892,14.7904,1748.3057],[44.908,14.7945,1810.1196],[44.9072,14.857,2118.4766],[44.9101,14.8829,1916.1517],[44.9299,14.9159,1961.1265],[44.9405,14.9297,1653.6908],[44.9426,14.9482,1438.9872],[44.951,14.9694,1509.1228],[44.9737,15.006,1550.2811],[45.0348,15.0764,1425.7959],[45.0573,15.0943,1535.0493],[45.0801,15.1221,1448.7371],[45.1087,15.2857,1243.6711],[44.9672,15.3488,1790.6755],[44.8396,15.4095,1695.9384],[44.806,15.4154,1860.4103],[44.8053,15.3679,1765.6719],[44.8009,15.3433,1747.8877],[44.7977,15.3359,1729.4825],[44.7908,15.3281,1780.7205],[44.7802,15.323,1778.4253],[44.7656,15.3209,1849.2207],[44.7335,15.3223,2326.168],[44.71,15.3263,2278.1133],[44.7016,15.3298,2199.634],[44.691,15.3493,2264.1721],[44.6938,15.388,2211.054],[44.6889,15.4092,2224.9058],[44.6885,15.4476,1995.5763],[44.6147,15.4105,2266.5037],[44.5932,15.4059,2340.1904],[44.5622,15.4058,2633.3894],[44.5312,15.4196,2463.7776],[44.5144,15.4427,2570.5569],[44.5216,15.4713,2460.4229],[44.5989,15.4882,2141.8105],[44.6281,15.4926,1984.8269],[44.6498,15.504,1899.1104],[44.6558,15.5137,1862.484],[44.6819,15.5304,1786.8981],[44.7372,15.5548,1694.5292],[44.7543,15.5607,2163.7676],[44.7709,15.5641,2029.4524],[44.793,15.5768,1568.4224],[44.7985,15.5876,1747.7681],[44.798,15.6056,1589.8438],[44.7944,15.6188,1509.194],[44.7889,15.6266,1514.0911],[44.7758,15.6319,1580.0513],[44.7436,15.6397,1668.1906],[44.7169,15.6606,1542.902],[44.6914,15.716,1892.4016],[44.6891,15.7183,1871.2239],[44.6818,15.7553,1417.338],[44.6859,15.7684,1607.3523],[44.663,15.8765,1742.8645],[44.6099,15.9933,1581.0428],[44.607,15.9953,1618.8517],[44.4269,16.0319,1300.9423],[44.3829,16.03,1678.8604],[44.3666,16.0428,1494.9636],[44.3495,16.0455,1741.8979],[44.3379,16.0366,1384.9775],[44.3258,16.0311,1452.9495],[44.2585,16.032,1521.8979],[44.2585,16.0265,1522.2048],[44.2605,16.0228,1532.3014],[44.2551,16.0153,1537.4929],[44.221,15.9951,1611.167],[44.2093,15.9938,1612.8201],[44.1943,15.9958,1624.3894],[44.1772,15.9944,1657.0295],[44.1626,15.9961,1811.4062],[44.1574,15.9939,2143.6411],[44.1562,15.9855,1906.8391],[44.1659,15.9584,2235.3103],[44.1625,15.9334,2667.072],[44.1478,15.9082,2411.3516],[44.1489,15.8716,2682.2644],[44.1772,15.8407,2626.855],[44.1823,15.8329,2625.6074],[44.1808,15.8267,2641.0266],[44.1762,15.822,2700.8],[44.1642,15.8034,2699.5312],[44.143,15.7787,2807.8179],[44.1234,15.7519,2807.55],[44.0987,15.728,2615.2666],[44.0964,15.7183,2603.5845],[44.1009,15.6765,2588.9031],[44.107,15.6569,2585.041],[44.1076,15.6487,2619.2341],[44.1037,15.6439,2666.7964],[44.0949,15.6382,2593.3657],[44.0839,15.6411,2578.2473],[44.0778,15.6277,2555.3777],[44.0624,15.6185,2607.5281],[44.0449,15.5856,2643.9194],[44.0246,15.5731,2639.0537],[43.9998,15.5627,2633.2656],[43.9666,15.5573,2500.8435],[43.9618,15.5609,2496.8755],[43.9561,15.5709,2471.1401],[43.9561,15.5846,2467.7705],[43.9617,15.5965,2409.5479],[43.9616,15.6029,2326.4932],[43.9578,15.6056,2351.8677],[43.9541,15.6056,2366.1353],[43.9381,15.5973,2313.0095],[43.925,15.5854,2416.2258],[43.912,15.5773,2737.8584],[43.9161,15.5648,2619.9185],[43.9172,15.552,2535.4946],[43.9101,15.5422,2566.3032],[43.9005,15.5343,2569.2285],[43.9115,15.5251,2566.6404],[43.909,15.5156,2553.51],[43.9148,15.5021,2542.6072],[43.9144,15.4983,2541.3953],[43.9118,15.4885,2541.7578],[43.9018,15.4789,2603.1294],[43.8966,15.4661,2477.0308],[43.9007,15.4489,2288.824],[43.9066,15.4419,2266.9395],[43.9105,15.4272,2135.4431],[43.8806,15.4009,1920.2325],[43.8661,15.3811,1918.0438],[43.8511,15.3751,1773.738],[43.8204,15.3704,1702.9755],[43.7965,15.3541,1362.4888],[43.7888,15.3422,1451.0208],[43.7699,15.3315,1093.7852],[43.7532,15.3159,1388.3076],[43.7074,15.2847,1116.918],[43.6898,15.277,924.8537],[43.6818,15.2794,841.8417],[43.6798,15.2849,880.7345],[43.6617,15.2804,1069.8588],[43.6498,15.2713,800.4963],[43.6474,15.2726,794.9423],[43.6427,15.2699,848.9665],[43.6461,15.2619,864.2683],[43.6436,15.2522,775.4593],[43.6314,15.2519,742.9482],[43.6219,15.2433,755.9655],[43.6145,15.2391,677.8976],[43.5836,15.2343,642.5264],[43.5774,15.2234,679.2322],[43.5655,15.2189,569.4688],[43.5544,15.2049,545.183],[43.5446,15.2,575.3307],[43.543,15.1586,864.4593],[43.5573,15.1495,674.0837],[43.5687,15.1357,688.2948],[43.5711,15.1272,766.8279],[43.5705,15.1208,743.0333],[43.5685,15.1184,698.625],[43.5692,15.1149,729.2823],[43.567,15.1116,741.082],[43.563,15.1104,788.3602],[43.5561,15.1112,858.2517],[43.5527,15.1059,882.9578],[43.5518,15.0973,877.9895],[43.5344,15.0944,1098.5099],[43.5321,15.0924,1096.5676],[43.5194,15.065,520.4988],[43.5082,15.0572,498.2727],[43.5061,15.0496,477.2907],[43.5115,15.049,479.257],[43.513,15.0383,460.3082],[43.5169,15.0319,458.0089],[43.531,15.0189,473.4702],[43.5371,15.0168,483.0764],[43.5506,15.0166,493.3964],[43.5666,15.0113,523.402],[43.5743,15.0004,531.6622],[43.5942,14.9979,569.2372],[43.6124,14.9899,603.7115],[43.6245,14.9951,710.7072],[43.6294,15.0024,786.1823],[43.6297,15.0064,972.941],[43.6335,15.0104,835.6367],[43.6428,15.0098,740.2796],[43.6488,14.9837,702.193],[43.6541,14.9784,847.3015],[43.6645,14.9751,751.442],[43.6666,14.971,706.5392],[43.6657,14.9674,748.1454],[43.655,14.9597,727.3396],[43.6408,14.9418,648.2336],[43.6625,14.9107,684.7122],[43.6656,14.8961,694.1088],[43.6764,14.8638,677.6343],[43.718,14.8585,755.463],[43.718,14.855,729.6627],[43.7226,14.8462,799.0224],[43.7348,14.8462,884.7078],[43.7547,14.8397,862.5012],[43.7594,14.8547,1003.9938],[43.7791,14.8595,1604.6321],[43.8042,14.8611,1016.2325],[43.8175,14.8604,1019.1223],[43.8495,14.8543,1020.6239],[43.8608,14.8485,1089.1587],[43.8684,14.8482,1047.9463],[43.8732,14.8544,1051.2809],[43.8856,14.8611,1081.6022],[43.8989,14.8631,1129.4103],[43.9052,14.8831,1079.4644],[43.9147,14.89,1138.0007],[43.9131,14.8981,1090.8225],[43.9172,14.8999,1127.3779],[43.9153,14.9022,1113.0457],[43.9203,14.9061,1105.5803],[43.922,14.9046,1118.8687],[43.9241,14.9054,1141.2825],[43.925,14.9081,1125.5669],[43.9267,14.9063,1125.4873],[43.9308,14.909,1118.157],[43.9467,14.9093,1162.1179],[43.9521,14.9125,1153.2627],[43.9692,14.9321,1182.2015],[43.9773,14.9325,1181.9197],[43.9804,14.9375,1304.951],[43.9859,14.939,1193.1877],[43.9875,14.9443,1199.7217],[43.9901,14.9469,1200.8478],[43.9936,14.9474,1210.6104],[44.0018,14.9539,1254.2251],[44.0046,14.9543,1227.4865],[44.0121,14.9616,1243.2168],[44.0182,14.9617,1276.0483],[44.0187,14.9642,1251.2451],[44.0158,14.9661,1276.3588],[44.0165,14.9688,1296.9604],[44.0224,14.9714,1256.5356],[44.0218,14.9794,1313.9468],[44.0321,14.9926,1318.6764],[44.0486,14.9988,1320.8068],[44.0924,14.999,1439.2781],[44.1341,15.0027,1584.9946],[44.1564,14.9979,1532.7676],[44.1758,14.9889,1569.5879],[44.1798,14.9692,2008.3696],[44.2068,14.9701,2467.8564],[44.214,14.9625,2701.9287],[44.226,14.9274,2389.2983],[44.3506,14.9278,2513.6245],[44.355,14.9506,2482.5352],[44.3493,14.9584,2763.7192],[44.3445,14.9713,2561.4578],[44.3539,14.9856,2610.6338],[44.3667,14.9843,2588.5469],[44.3706,14.9822,2515.3723],[44.3781,14.9698,2507.9392],[44.3915,14.9579,2417.1772],[44.4385,14.9348,2382.3105],[44.4603,14.9394,2317.7102],[44.5115,14.9546,2224.2798],[44.5355,14.9709,2232.4424],[44.5437,14.9813,2177.7017],[44.6324,15.0123,2126.4976],[44.6809,15.0181,2186.0986],[44.7022,15.0093,2035.1422],[44.7058,14.9301,1899.6699],[44.7143,14.8622,1905.1202],[44.7505,14.8577,1957.3845],[44.7645,14.8362,1830.6564],[44.7951,14.813,1937.925],[44.815,14.7833,1977.5547999999999],[44.8365,14.7473,1888.5419],[44.8892,14.7904,1748.3057]],
[[44.1764,15.292,2350.7954],[44.1818,15.3257,2292.7795],[44.1599,15.3394,2362.5288],[44.1436,15.3517,2611.5942],[44.1388,15.3644,2663.2437],[44.1399,15.3774,2540.6504],[44.1457,15.3957,2334.437],[44.155,15.3999,2308.9114],[44.1658,15.4005,2304.5293],[44.1659,15.4112,2307.3311],[44.1424,15.4344,2361.5869],[44.1322,15.4382,2245.7104],[44.1292,15.4413,2243.9529],[44.1211,15.454,2352.687],[44.1208,15.4626,2283.0879],[44.1303,15.4684,2326.2073],[44.1598,15.4754,2229.063],[44.1649,15.4833,2211.1675],[44.1828,15.485,2187.6245],[44.1904,15.4964,2190.2305],[44.1887,15.501,2246.71],[44.1908,15.5052,2190.9734],[44.1974,15.5057,2177.0022],[44.2023,15.5008,2176.6226],[44.2055,15.5071,2171.4888],[44.2055,15.5108,2172.7729],[44.1995,15.5133,2173.8916],[44.2007,15.5412,2168.3853],[44.207,15.545,2167.7153],[44.2109,15.5535,2179.365],[44.2232,15.5577,2166.4885],[44.233,15.5583,2161.6772],[44.2342,15.5595,2161.1184],[44.2333,15.5692,2163.6228],[44.2359,15.5714,2167.9302],[44.2603,15.5702,2148.4521],[44.2625,15.5714,2147.5933],[44.2616,15.5782,2145.3125],[44.2634,15.5812,2143.7119],[44.2765,15.5936,2147.8965],[44.2791,15.5998,2200.6301],[44.285,15.6037,2196.5349],[44.3061,15.6117,2076.2246],[44.3191,15.6117,2080.6646],[44.3509,15.5994,2072.197],[44.3774,15.575,2188.4617],[44.393,15.565,2480.0286],[44.3997,15.5579,2732.2563],[44.3997,15.5507,2667.2798],[44.3923,15.5414,2558.7314],[44.3827,15.5356,2445.3091],[44.3635,15.5348,2302.7087],[44.3612,15.5398,2343.3979],[44.3649,15.5506,2198.6465],[44.3634,15.5571,2186.1265],[44.3552,15.557,2190.5466],[44.3479,15.5505,2200.8232],[44.3419,15.5505,2204.1499],[44.3361,15.5376,2189.4897],[44.3398,15.5297,2205.4485],[44.3339,15.5204,2266.0239],[44.3028,15.5231,2184.4602],[44.2977,15.5124,2188.1533],[44.2925,15.5116,2189.55],[44.2932,15.5188,2183.7969],[44.2895,15.521,2182.8896],[44.2829,15.513,2185.6929],[44.2777,15.5008,2190.957],[44.2822,15.4793,2201.8616],[44.2773,15.4715,2201.0388],[44.231,15.4321,2217.854],[44.2347,15.4212,2230.3757],[44.2309,15.4045,2250.5303],[44.2386,15.3936,2253.8027],[44.2433,15.3792,2267.7009],[44.2421,15.3765,2278.9937],[44.2434,15.3639,2329.5747],[44.2571,15.3609,2467.615],[44.2619,15.3464,2450.3584],[44.2632,15.3263,2344.9382],[44.2429,15.3139,2303.7576],[44.2389,15.3147,2296.2822],[44.2329,15.3129,2287.1838],[44.2396,15.2951,2290.6523],[44.2221,15.2931,2284.1436],[44.2089,15.2948,2452.626],[44.1764,15.292,2350.7954]]]]}}