{"type":"Feature","properties":{"ISO3166-1-Alpha-3":"YEM","country":"Yemen","fill":"#F00","id":"3496","name":"Sana'a"},
"geometry":{"type": "Polygon","coordinates": [[[44.66097,16.01143,1405.8038],[44.59483,16.0508,1442.8982],[44.50951,16.057,1388.9615],[44.48931,16.04866,1383.6837],[44.48109,16.03998,1400.6558],[44.42585,16.02827,1273.1218],[44.3706,16.02455,1432.298],[44.31257,16.00331,2131.3752],[44.25454,15.97381,2048.2678],[44.24384,15.95063,1952.8776],[44.23609,15.92515,1945.0992],[44.24043,15.87022,2247.9678],[44.24648,15.84224,2403.144],[44.25392,15.82304,2514.8335],[44.25283,15.80141,2453.1362],[44.24803,15.78255,2452.4966],[44.22648,15.75454,2553.6553],[44.19806,15.73343,2578.2744],[44.17961,15.70827,2573.0244],[44.1779,15.66225,2446.3398],[44.16721,15.62062,2364.803],[44.10638,15.57458,2466.0688],[44.07858,15.5605,2398.8784],[44.04582,15.55639,2566.7881],[44.00753,15.55944,2625.5679],[43.99388,15.54572,2547.1133],[43.99528,15.53001,2600.406],[43.98422,15.50474,2596.2192],[43.9712,15.46025,2650.6348],[43.96577,15.41774,2731.7798],[43.94887,15.4002,2783.4927],[43.90882,15.37304,2327.9373],[43.88821,15.36405,2341.626],[43.81772,15.31429,1698.7808],[43.77974,15.27819,1517.5013],[43.71318,15.26517,916.1342],[43.70196,15.25349,1127.6851],[43.64005,15.21703,1551.7246],[43.623,15.19546,1396.3591],[43.6151,15.16946,1228.5052],[43.61866,15.11988,997.8278],[43.60843,15.09544,1419.671],[43.59675,15.08564,1128.7186],[43.57102,15.04425,751.9932],[43.60347,15.01417,630.2066],[43.63509,14.99818,745.3438],[43.66197,14.99237,1169.989],[43.68119,14.99188,1644.7583],[43.70026,14.99459,1854.8131],[43.72465,14.97314,1952.5906],[43.72403,14.96193,1776.009],[43.71829,14.95663,1826.7031],[43.70196,14.9334,968.8967],[43.71841,14.9102,1116.001],[43.7257,14.87999,1214.9991],[43.77778,14.8727,889.9498],[43.78195,14.86228,1491.0338],[43.82397,14.85036,1245.4219],[43.83792,14.86333,1226.1951],[43.88603,14.85883,1098.7966],[43.92464,14.86204,1280.0604],[43.9467,14.86873,1473.9036],[43.98081,14.89945,1256.6597],[44.00024,14.90994,1311.326],[44.01962,14.92278,1340.58],[44.04292,14.93508,1384.4172],[44.09749,14.97382,1455.9395],[44.13274,14.98555,1651.1405],[44.16426,14.99157,1543.262],[44.19186,14.99327,1607.1731],[44.20984,14.98115,2000.0745],[44.23671,14.97102,2678.7407],[44.25717,14.9501,2892.623],[44.28079,14.93098,2565.1401],[44.3565,14.91532,2589.4121],[44.38662,14.92428,2340.1794],[44.40042,14.94299,2584.9866],[44.406,14.96232,2445.395],[44.41468,14.97702,2525.9243],[44.43877,14.97397,2585.0493],[44.45675,14.95237,2459.3699],[44.48279,14.93578,2270.6953],[44.5092,14.93289,2230.855],[44.55111,14.94811,2076.6233],[44.57126,14.95904,2085.0027],[44.59436,14.98611,2196.0342],[44.61131,15.01154,2224.5808],[44.63503,15.02624,2010.4028],[44.65627,15.02937,2098.4849],[44.68268,15.02596,2169.8228],[44.70733,15.02906,1894.1034],[44.73249,15.02678,2062.3481],[44.75513,15.01203,2135.7705],[44.78448,14.97154,1934.032],[44.79874,14.90395,1688.25],[44.81735,14.86762,1913.8326],[44.85709,14.81292,1949.948],[44.86763,14.79049,1810.3887],[44.86871,14.75623,1704.2262],[44.92163,14.76357,1888.4338],[44.9637,14.77974,2001.2909],[45.00591,14.81426,1583.7081],[45.00684,14.87496,1566.2288],[45.01227,14.88989,1522.1456],[45.01212,14.90901,1502.4785],[45.0039,14.91609,1450.7374],[44.99894,14.92224,1517.7518],[45.00126,14.93054,1506.2922],[45.01196,14.94224,1543.4205],[45.01909,14.96216,1547.2476],[45.03227,14.98407,1498.3821],[45.04266,14.99609,1493.7625],[45.05496,15.00792,1643.1311],[45.06767,15.03583,1552.5627],[45.07247,15.05048,1567.0227],[45.08953,15.06262,1550.3921],[45.13919,15.08412,1871.2135],[45.15361,15.10789,1974.4788],[45.16492,15.13915,2263.3491],[45.1612,15.16264,1754.0518],[45.16461,15.18248,1342.5471],[45.1643,15.20398,1325.1702],[45.15407,15.23848,1247.6041],[45.13469,15.25757,1228.3683],[45.10457,15.27041,1225.7705],[45.05914,15.27483,1240.167],[45.0239,15.2832,1319.8293],[44.99801,15.30609,1447.0138],[44.96509,15.34123,1960.6405],[44.92101,15.37413,1832.9746],[44.90318,15.37979,1664.8523],[44.88763,15.38307,1745.582],[44.86763,15.37064,1859.8151],[44.85538,15.35302,1709.1302],[44.84298,15.32971,1723.0326],[44.80913,15.31927,1779.0178],[44.77611,15.33162,1769.2354],[44.74211,15.37141,2103.3101],[44.7081,15.39896,2142.6321],[44.68454,15.40637,2395.6965],[44.66201,15.40862,2754.5935],[44.64697,15.41472,2307.6287],[44.64247,15.43066,2158.5217],[44.66314,15.4495,1868.381],[44.78185,15.52923,1496.5986],[44.80929,15.55763,1825.1423],[44.8282,15.59556,1428.1716],[44.80696,15.6292,1359.5928],[44.74211,15.70837,1381.2731],[44.72722,15.75439,1318.3499],[44.72738,15.82327,1242.7584],[44.70996,15.91624,1193.567],[44.66097,16.01143,1405.8038]],
[[44.18106,15.29338,2327.2041],[44.17673,15.29842,2336.1519],[44.18106,15.32004,2320.6304],[44.17673,15.32869,2407.7446],[44.15944,15.34094,2365.8872],[44.14214,15.35175,2611.5942],[44.13854,15.36905,2670.9688],[44.14358,15.38923,2381.751],[44.15079,15.39716,2320.6123],[44.1616,15.39932,2298.0537],[44.16592,15.40148,2304.5293],[44.1652,15.41229,2314.4531],[44.15079,15.42814,2343.6792],[44.14142,15.43463,2358.7671],[44.13349,15.43823,2264.2485],[44.12557,15.44544,2245.8101],[44.1198,15.45697,2275.7676],[44.12196,15.4649,2262.3052],[44.13277,15.4685,2283.6204],[44.15079,15.47283,2249.1597],[44.16088,15.47571,2228.5562],[44.16737,15.48292,2204.4792],[44.17962,15.48508,2187.822],[44.18754,15.49517,2178.8054],[44.19115,15.50382,2185.2544],[44.20124,15.50526,2176.9106],[44.2034,15.50958,2174.7388],[44.19907,15.51607,2173.1216],[44.20124,15.54129,2168.3853],[44.20988,15.5521,2179.365],[44.2279,15.55859,2163.4146],[44.23511,15.56723,2164.0933],[44.24376,15.57084,2148.9902],[44.25745,15.57084,2146.4883],[44.26177,15.576599999999999,2146.0098],[44.27042,15.58813,2144.4973],[44.28267,15.60111,2179.4551],[44.29204,15.60615,2261.1641],[44.30645,15.6112,2073.7095],[44.31943,15.61192,2080.6646],[44.336,15.60615,2059.4697],[44.35258,15.59894,2072.9966],[44.36123,15.59102,2189.6729],[44.37276,15.57804,2184.3828],[44.39077,15.56651,2390.9172],[44.39798,15.55714,2720.7112],[44.39942,15.54922,2668.5042],[44.39294,15.54057,2603.6099],[44.38429,15.53408,2521.9756],[44.36843,15.53336,2419.6711],[44.3605,15.53769,2285.7104],[44.36195,15.54633,2301.207],[44.36483,15.55354,2195.2329],[44.35906,15.55642,2190.6685],[44.3533,15.55642,2185.5288],[44.34753,15.55138,2200.8232],[44.34105,15.54633,2188.7646],[44.33744,15.53697,2193.8674],[44.33744,15.52616,2209.8223],[44.33312,15.51967,2266.0239],[44.31294,15.52183,2191.2981],[44.30285,15.52183,2186.0625],[44.29637,15.51246,2188.1533],[44.2906,15.52111,2182.7671],[44.28267,15.51246,2185.6929],[44.27691,15.50237,2188.3433],[44.27979,15.48796,2200.0947],[44.28123,15.48003,2200.4482],[44.27835,15.47066,2202.7405],[44.26826,15.46202,2205.9185],[44.25168,15.45049,2221.5713],[44.23799,15.43823,2213.874],[44.23295,15.42887,2219.7588],[44.23439,15.4195,2232.6023],[44.23223,15.40869,2244.0696],[44.23367,15.39932,2284.3511],[44.24087,15.38707,2255.8472],[44.24304,15.37626,2280.4763],[44.24376,15.36473,2329.5747],[44.25024,15.35968,2581.0151],[44.25673,15.36184,2491.3455],[44.26177,15.34815,2500.6001],[44.26177,15.32941,2366.7969],[44.25817,15.32077,2324.0229],[44.2488,15.31572,2320.479],[44.23943,15.31428,2296.2822],[44.23583,15.30851,2284.1885],[44.23799,15.29914,2286.8376],[44.23655,15.29482,2288.542],[44.22862,15.29338,2282.5762],[44.20844,15.29338,2469.1353],[44.18106,15.29338,2327.2041]]]}}