{"type":"Feature","properties":{"GID_1":"YEM.8_1","GID_0":"YEM","country":"Yemen","province":"AlMahwit","VARNAME_1":"Almahweet|Mahweet","NL_NAME_1":"المحويت","TYPE_1":"Muhafazah","ENGTYPE_1":"Governorate","CC_1":"27","HASC_1":"YE.MW","ISO_1":"YE-MW","name":"Al_Mahwit.province"},
"geometry":{"type": "MultiPolygon","coordinates": [[[[43.3851,15.1934,311.5923],[43.3984,15.177,554.5917],[43.4106,15.1657,452.1465],[43.4208,15.1516,408.145],[43.4291,15.133,382.2388],[43.4327,15.1124,361.1545],[43.4391,15.0969,351.8922],[43.452,15.0824,367.9212],[43.49,15.0567,468.1031],[43.4962,15.0501,580.3832],[43.5061,15.0496,477.2907],[43.5082,15.0572,498.2727],[43.5194,15.065,520.4988],[43.5321,15.0924,1096.5676],[43.5344,15.0944,1098.5099],[43.5518,15.0973,877.9895],[43.5527,15.1059,882.9578],[43.5561,15.1112,858.2517],[43.563,15.1104,788.3602],[43.567,15.1116,741.082],[43.5692,15.1149,729.2823],[43.5685,15.1184,698.625],[43.5705,15.1208,743.0333],[43.5711,15.1272,766.8279],[43.5687,15.1357,688.2948],[43.5573,15.1495,674.0837],[43.543,15.1586,864.4593],[43.5446,15.2,575.3307],[43.5544,15.2049,545.183],[43.5655,15.2189,569.4688],[43.5774,15.2234,679.2322],[43.5836,15.2343,642.5264],[43.6145,15.2391,677.8976],[43.6219,15.2433,755.9655],[43.6314,15.2519,742.9482],[43.6436,15.2522,775.4593],[43.6461,15.2619,864.2683],[43.6427,15.2699,848.9665],[43.6474,15.2726,794.9423],[43.6498,15.2713,800.4963],[43.6617,15.2804,1069.8588],[43.6798,15.2849,880.7345],[43.6818,15.2794,841.8417],[43.6898,15.277,924.8537],[43.7074,15.2847,1116.918],[43.7532,15.3159,1388.3076],[43.7699,15.3315,1093.7852],[43.7888,15.3422,1451.0208],[43.7965,15.3541,1362.4888],[43.8204,15.3704,1702.9755],[43.8511,15.3751,1773.738],[43.8661,15.3811,1918.0438],[43.8806,15.4009,1920.2325],[43.9105,15.4272,2135.4431],[43.9066,15.4419,2266.9395],[43.9007,15.4489,2288.824],[43.8966,15.4661,2477.0308],[43.9018,15.4789,2603.1294],[43.9118,15.4885,2541.7578],[43.9144,15.4983,2541.3953],[43.9148,15.5021,2542.6072],[43.909,15.5156,2553.51],[43.9115,15.5251,2566.6404],[43.9005,15.5343,2569.2285],[43.8753,15.5348,2598.8562],[43.8709,15.5387,2603.0564],[43.8548,15.5443,2780.29],[43.8366,15.5482,2838.8323],[43.8324,15.5537,2803.5566],[43.8254,15.5593,3118.7593],[43.8123,15.5614,3141.9177],[43.8106,15.5598,3136.353],[43.8,15.5671,3197.7539],[43.7857,15.5711,3037.8789],[43.7812,15.57,2786.0229],[43.7773,15.5662,2909.7004],[43.7763,15.5508,2668.853],[43.7731,15.548,2282.4783],[43.7619,15.5409,1917.655],[43.7536,15.5412,1740.0439],[43.7346,15.5469,1719.4149],[43.732,15.5452,1892.9586],[43.7322,15.5348,1554.2141],[43.7296,15.532,1513.7584],[43.7142,15.5326,1524.22],[43.7016,15.548,1570.8591],[43.6926,15.5484,1302.8115],[43.6772,15.5534,1274.2048],[43.675,15.5534,1272.4735],[43.668,15.5466,1398.0977],[43.668,15.5426,1352.4666],[43.647,15.5316,1126.3601],[43.6337,15.5358,1029.7407],[43.6284,15.5313,937.1274],[43.6173,15.535,909.0892],[43.6132,15.5408,909.6506],[43.6067,15.5419,900.7194],[43.596,15.5408,835.375],[43.5924,15.5378,984.4224],[43.5837,15.5353,875.5979],[43.5802,15.5426,822.8173],[43.5663,15.5424,742.8529],[43.507,15.5535,650.8949],[43.5064,15.5471,601.8475],[43.4991,15.5449,554.8484],[43.4844,15.5456,534.2367],[43.4719,15.5498,512.6625],[43.4606,15.5514,481.7672],[43.4477,15.5409,762.5458],[43.4376,15.5419,998.8744],[43.4151,15.5386,749.2465],[43.4028,15.5338,741.4724],[43.3824,15.5351,724.447],[43.3204,15.5318,351.2059],[43.3082,15.5216,790.9357],[43.3022,15.5186,634.8904],[43.2966,15.5126,413.926],[43.2766,15.5148,605.79],[43.2428,15.5139,189.438],[43.241,15.5113,188.27],[43.241,15.4658,226.2578],[43.2435,15.4628,212.5578],[43.2504,15.4608,230.4296],[43.251,15.451599999999999,211.1356],[43.2494,15.4482,205.1239],[43.2577,15.4499,216.234],[43.2602,15.4493,224.626],[43.2608,15.4474,224.8927],[43.2507,15.4117,176.9711],[43.2571,15.3912,172.8545],[43.2539,15.3885,160.7963],[43.2511,15.3722,157.4076],[43.2529,15.3606,184.3672],[43.2429,15.354,176.8021],[43.2435,15.3459,183.8062],[43.2417,15.3393,184.0224],[43.245,15.3268,178.2941],[43.2512,15.3231,176.7332],[43.2583,15.3013,178.7296],[43.2729,15.2941,207.8148],[43.2794,15.2786,253.5525],[43.3038,15.2482,507.1321],[43.3097,15.236,347.9742],[43.322,15.2361,357.5576],[43.3276,15.2339,328.3498],[43.3344,15.2229,337.8188],[43.3478,15.2194,320.4726],[43.359,15.22,358.2936],[43.3594,15.1961,398.8278],[43.3629,15.194,349.103],[43.3851,15.1934,311.5923]]]]}}