{"type":"Feature","properties":{"ISO3166-1-Alpha-3":"YEM","country":"Yemen","fill":"#FF0","id":"152","name":"Al Mahwit"},
"geometry":{"type": "Polygon","coordinates": [[[43.98422,15.50474,2596.2192],[43.92138,15.53334,2589.1523],[43.90355,15.54443,2582.5356],[43.89472,15.55623,2636.5447],[43.88076,15.56112,2706.7422],[43.86257,15.56368,2650.4653],[43.8432,15.55068,2957.1763],[43.79912,15.53282,2773.4263],[43.74713,15.53481,1936.4758],[43.72868,15.52846,1565.6904],[43.70527,15.52629,1560.7938],[43.67886,15.53443,1268.5032],[43.5876,15.54466,918.9711],[43.56636,15.54303,742.8529],[43.54528,15.54556,691.8903],[43.3701,15.52892,853.6531],[43.31387,15.50967,794.541],[43.31635,15.46725,868.4966],[43.32106,15.45583,515.7509],[43.32183,15.43386,968.11],[43.32679,15.41707,936.8699],[43.32803,15.38842,926.9239],[43.3254,15.35594,697.0334],[43.32974,15.33304,954.6033],[43.33222,15.30555,713.6478],[43.35904,15.26581,912.6176],[43.38141,15.24992,859.2583],[43.40622,15.22886,394.4561],[43.44828,15.21737,492.1537],[43.45728,15.20026,715.7753],[43.4689,15.17194,762.0505],[43.48895,15.13897,1040.8002],[43.50012,15.10967,954.7437],[43.515,15.08735,968.807],[43.5459,15.05774,1052.4276],[43.57102,15.04425,751.9932],[43.59675,15.08564,1128.7186],[43.60843,15.09544,1419.671],[43.61866,15.11988,997.8278],[43.6151,15.16946,1228.5052],[43.623,15.19546,1396.3591],[43.64005,15.21703,1551.7246],[43.70196,15.25349,1127.6851],[43.71318,15.26517,916.1342],[43.77974,15.27819,1517.5013],[43.81772,15.31429,1698.7808],[43.88821,15.36405,2341.626],[43.90882,15.37304,2327.9373],[43.94887,15.4002,2783.4927],[43.96577,15.41774,2731.7798],[43.9712,15.46025,2650.6348],[43.98422,15.50474,2596.2192]]]}}