{"type":"Feature","properties":{"GID_2":"YEM.3.9_1","GID_0":"YEM","country":"Yemen","GID_1":"YEM.3_1","province":"AlBayda'","NL_NAME_1":"البيضاء","county":"AshSharyah","VARNAME_2":"NA","NL_NAME_2":"الشرية","TYPE_2":"Muderiah","ENGTYPE_2":"District","CC_2":"1419","HASC_2":"NA","name":"Ash_Sharyah.county"},
"geometry":{"type": "MultiPolygon","coordinates": [[[[44.9585,14.2329,1830.7277],[44.9704,14.2307,1748.6528],[44.9962,14.2192,1791.4526],[45.0065,14.197,1639.4003],[45.0159,14.1871,1591.5854],[45.0508,14.1671,1772.1519],[45.0565,14.1581,1732.9553],[45.06,14.1471,1689.8683],[45.0648,14.1424,1584.4427],[45.0683,14.1202,1726.0093],[45.06,14.1134,1651.0327],[45.0613,14.1045,1667.6426],[45.0574,14.0972,1481.0819],[45.0663,14.0936,1480.7352],[45.0923,14.09,1472.4907],[45.1049,14.0908,1765.6493],[45.1176,14.0874,1803.6064],[45.1233,14.0814,1745.3967],[45.1307,14.0669,1397.7598],[45.1349,14.0639,1376.6139],[45.1394,14.0737,1577.5992],[45.1512,14.0844,1728.8658],[45.1582,14.101,1666.2817],[45.16,14.1078,1659.2238],[45.1595,14.1163,1679.4435],[45.1618,14.124,1747.2042],[45.1673,14.1319,1767.6334],[45.173,14.1625,1770.1458],[45.1783,14.1723,1819.9124],[45.2008,14.193,1856.3748],[45.2008,14.2266,1959.0968],[45.1739,14.3319,1933.8447],[45.1894,14.3526,1929.9969],[45.2131,14.3939,1898.5406],[45.2198,14.4181,1924.3409],[45.1854,14.4777,1962.1713],[45.1869,14.504,1864.9409],[45.1161,14.5324,1835.3376],[45.1145,14.5347,1820.6997],[45.0995,14.5164,1859.7278],[45.0442,14.4827,1934.2594],[44.9787,14.4399,2057.6238],[44.9507,14.4055,2058.9941],[44.9653,14.3673,2078.7168],[44.9669,14.2769,1842.9226],[44.9585,14.2329,1830.7277]]]]}}