{"type":"Feature","properties":{"GID_2":"YEM.10.18_1","GID_0":"YEM","country":"Yemen","GID_1":"YEM.10_1","province":"Amran","NL_NAME_1":"عمران","county":"Shaharah","VARNAME_2":"NA","NL_NAME_2":"شهاره","TYPE_2":"Muderiah","ENGTYPE_2":"District","CC_2":"2905","HASC_2":"NA","name":"Shaharah.county"},
"geometry":{"type": "MultiPolygon","coordinates": [[[[43.6314,16.1551,1173.4197],[43.6399,16.1174,1156.311],[43.6435,16.1108,1127.5579],[43.6485,16.1039,1118.2255],[43.6566,16.0998,1120.6172],[43.6689,16.0977,1110.6531],[43.6735,16.0953,1120.8947],[43.6755,16.0922,1128.1946],[43.7021,16.1159,1274.7417],[43.7045,16.1221,1524.0258],[43.7002,16.1259,1518.5959],[43.696,16.1254,1626.4657],[43.7028,16.1305,1612.4823],[43.7087,16.1316,1434.4771],[43.7107,16.1308,1522.5846],[43.7116,16.1275,1448.8754],[43.7571,16.1279,1414.3251],[43.76,16.1394,1278.3719],[43.7584,16.1453,1209.7581],[43.7548,16.1471,1217.6976],[43.7519,16.1464,1204.6956],[43.7498,16.1502,1221.8855],[43.7647,16.1919,1254.3676],[43.7684,16.2094,1391.7135],[43.767,16.2179,1318.9246],[43.7538,16.2323,1326.0867],[43.7495,16.2403,1439.6384],[43.736,16.2559,1547.48],[43.7037,16.2684,1420.1333],[43.6783,16.281,1406.9302],[43.6735,16.2347,1718.0192],[43.6775,16.214,1762.5494],[43.6776,16.2043,1916.9119],[43.6671,16.2033,2260.5608],[43.6632,16.201,2500.2874],[43.6628,16.195,2276.1729],[43.6653,16.1857,1813.8676],[43.6639,16.1788,1592.8406],[43.661,16.1742,1390.3086],[43.6353,16.1615,1189.7761],[43.6314,16.1551,1173.4197]]]]}}