{"type":"Feature","properties":{"GID_2":"YEM.12.22_1","GID_0":"YEM","country":"Yemen","GID_1":"YEM.12_1","province":"Hadramawt","NL_NAME_1":"حضرموت","county":"Rumah","VARNAME_2":"NA","NL_NAME_2":"رماه","TYPE_2":"Muderiah","ENGTYPE_2":"District","CC_2":"1901","HASC_2":"NA","name":"Rumah.county"},
"geometry":{"type": "MultiPolygon","coordinates": [[[[49.1843,18.6237,391.6844],[50.2907,18.7357,315.2218],[50.3234,18.2458,387.2055],[50.325,17.8488,566.1411],[50.2993,17.6673,636.0763],[50.258,17.4146,683.6699],[50.2448,16.9463,884.8564],[50.2069,16.7976,988.1094],[50.1568,16.6947,1077.7891],[50.1519,16.6432,1079.3623],[50.2328,16.6412,1065.7019],[50.2569,16.6372,1011.039],[50.2566,16.629,1009.22],[50.2701,16.6398,1014.5034],[50.2897,16.6449,1013.1846],[50.3096,16.6681,1031.5178],[50.3852,16.7047,1018.2401],[50.5297,16.7265,946.3995],[50.608,16.7629,943.0142],[50.6498,16.8259,933.0569],[50.6731,16.892,900.003],[50.7115,16.9268,928.1623],[50.7795,16.9711,919.2931],[50.8695,17.0352,946.0404],[50.9643,17.0812,988.5638],[51.0601,17.1131,1046.5487],[51.098,17.1851,971.5366],[51.2193,17.3163,901.407],[51.3192,17.5004,769.9373],[51.37,17.6111,707.9772],[51.4474,17.8108,575.7091],[51.4741,17.8997,534.379],[51.4946,18.2435,400.8752],[51.5003,18.2715,393.1469],[51.5952,18.4067,371.1977],[51.677,18.6149,347.4111],[51.9103,18.9078,334.0526],[52.0,19.0,311.3847],[50.7833,18.7889,299.0103],[49.1843,18.6237,391.6844]]]]}}