{"type":"Feature","properties":{"GID_2":"YEM.5.18_1","GID_0":"YEM","country":"Yemen","GID_1":"YEM.5_1","province":"AlHudaydah","NL_NAME_1":"الحديده","county":"AzZaydiyah","VARNAME_2":"NA","NL_NAME_2":"الزيدية","TYPE_2":"Muderiah","ENGTYPE_2":"District","CC_2":"1807","HASC_2":"NA","name":"Az_Zaydiyah.county"},
"geometry":{"type": "MultiPolygon","coordinates": [[[[43.163,15.2548,121.8129],[43.1651,15.258,126.8358],[43.1449,15.2601,114.4291],[43.1468,15.2718,111.1867],[43.1419,15.277,106.0268],[43.1312,15.2811,100.698],[43.1215,15.2898,95.0738],[43.1186,15.3048,92.6968],[43.0984,15.3392,78.2115],[43.0868,15.3342,75.2613],[43.0793,15.3377,72.7554],[43.0679,15.3491,68.8256],[43.063,15.3579,66.4281],[43.0651,15.3652,63.4619],[43.0715,15.3662,65.0868],[43.0945,15.3569,76.8879],[43.0956,15.3665,74.4947],[43.1262,15.3639,83.9473],[43.1454,15.3674,89.3066],[43.1582,15.3659,96.758],[43.1845,15.3667,106.955],[43.2284,15.3624,147.968],[43.2407,15.3578,170.9578],[43.2429,15.354,176.8021],[43.2529,15.3606,184.3672],[43.2511,15.3722,157.4076],[43.2539,15.3885,160.7963],[43.2571,15.3912,172.8545],[43.2507,15.4117,176.9711],[43.2608,15.4474,224.8927],[43.2602,15.4493,224.626],[43.2494,15.4482,205.1239],[43.2437,15.4387,306.1893],[43.242,15.4301,168.524],[43.2342,15.4346,171.1062],[43.2203,15.436,155.5181],[43.2016,15.4343,131.453],[43.1866,15.4306,113.1861],[43.1615,15.4273,94.5599],[43.147,15.4214,89.1998],[43.137,15.4115,87.0339],[43.1329,15.4005,84.4898],[43.1347,15.3861,85.071],[43.1315,15.3818,84.955],[43.1263,15.3789,82.3435],[43.096,15.382,74.0916],[43.0928,15.3794,73.0476],[43.0891,15.3806,72.69],[43.0974,15.4023,75.3129],[43.101,15.4174,70.6637],[43.1047,15.4237,76.9331],[43.1117,15.4258,78.5901],[43.1159,15.43,78.9486],[43.1132,15.4383,78.4491],[43.1051,15.4455,75.8241],[43.0864,15.4401,71.9049],[43.081,15.4427,64.9203],[43.0751,15.4421,65.4068],[43.0686,15.4227,64.5962],[43.075,15.4089,69.1443],[43.0735,15.4064,68.3773],[43.0588,15.401,67.3516],[43.0541,15.3967,64.5235],[43.0513,15.388,62.8558],[43.0466,15.385,62.6561],[43.0351,15.3649,56.535],[43.0293,15.3622,58.8797],[43.0219,15.3683,56.9581],[43.0116,15.3678,52.9086],[43.0025,15.3641,48.8168],[42.9972,15.3583,46.356],[42.9838,15.3566,43.1041],[42.9731,15.3576,41.4244],[42.9614,15.3538,39.558],[42.9547,15.3351,40.537],[42.9482,15.3263,40.1632],[42.9521,15.3212,41.002],[42.9646,15.3133,43.6454],[42.9722,15.3023,46.1097],[42.9744,15.296,46.9128],[42.9743,15.2911,45.645],[42.965,15.2854,42.2076],[42.9453,15.2813,37.7184],[42.9242,15.2814,31.2746],[42.9229,15.2777,30.542],[42.8956,15.2544,23.9903],[42.8909,15.2464,20.8471],[42.8909,15.2379,21.8353],[42.9008,15.221,21.7021],[42.912,15.2157,23.4898],[42.9212,15.2143,25.8754],[42.9263,15.2113,27.3131],[42.9264,15.2028,30.8173],[42.9004,15.1926,27.1857],[42.8749,15.1779,16.297],[42.8682,15.1641,15.586],[42.8805,15.1631,19.4866],[42.8989,15.1584,24.2054],[42.9242,15.1556,28.9721],[42.9619,15.1591,37.9597],[42.9672,15.158,39.0358],[42.9706,15.1537,39.6634],[42.9772,15.1544,41.5367],[42.985,15.1582,43.508],[43.0007,15.1822,48.1252],[43.0285,15.2137,58.1858],[43.0525,15.2243,68.2668],[43.0742,15.2484,80.5299],[43.0891,15.2584,87.2357],[43.1051,15.2595,95.165],[43.1319,15.2551,112.9002],[43.163,15.2548,121.8129]]]]}}