{"type":"Feature","properties":{"GID_2":"YEM.7.6_1","GID_0":"YEM","country":"Yemen","GID_1":"YEM.7_1","province":"AlMahrah","NL_NAME_1":"المهره","county":"Man'ar","VARNAME_2":"NA","NL_NAME_2":"منعر","TYPE_2":"Muderiah","ENGTYPE_2":"District","CC_2":"2805","HASC_2":"NA","name":"Man'ar.county"},
"geometry":{"type": "MultiPolygon","coordinates": [[[[51.8076,16.6104,581.4107],[51.7886,16.6062,574.411],[51.7045,16.662,518.1454],[51.6074,16.8411,710.3657],[51.5286,16.9566,910.7906],[51.3678,17.0889,1037.7723],[51.2059,17.1201,913.1804],[51.0775,17.1189,1048.5653],[50.9643,17.0812,988.5638],[50.8695,17.0352,946.0404],[50.7795,16.9711,919.2931],[50.7115,16.9268,928.1623],[50.6731,16.892,900.003],[50.6498,16.8259,933.0569],[50.608,16.7629,943.0142],[50.5297,16.7265,946.3995],[50.3852,16.7047,1018.2401],[50.3096,16.6681,1031.5178],[50.2897,16.6449,1013.1846],[50.2701,16.6398,1014.5034],[50.2566,16.629,1009.22],[50.2559,16.6039,1015.886],[50.2447,16.5709,1029.677],[50.2438,16.5376,1027.9789],[50.2675,16.5203,1031.4167],[50.2702,16.4936,937.2761],[50.2381,16.4544,958.2874],[50.2333,16.4046,990.8798],[50.2176,16.335,769.1012],[50.1771,16.236,679.1041],[50.1674,16.1994,653.7416],[50.329,16.1555,656.7922],[50.7282,16.0114,823.0338],[50.7863,15.9804,890.6196],[50.8519,16.0146,810.6196],[50.9909,16.0493,681.6856],[51.0842,16.0646,725.832],[51.2539,16.0648,538.5072],[51.4099,16.0499,527.6844],[51.4521,16.041,438.1127],[51.4623,16.07,377.3962],[51.4776,16.1221,315.1525],[51.5027,16.1776,276.8757],[51.5306,16.2574,306.2604],[51.5432,16.2814,271.0786],[51.5426,16.2835,260.6664],[51.5932,16.3899,483.8418],[51.7512,16.5325,576.1425],[51.8083,16.5811,401.5239],[51.8076,16.6104,581.4107]]]]}}