{"type":"Feature","properties":{"GID_2":"YEM.19.8_1","GID_0":"YEM","country":"Yemen","GID_1":"YEM.19_1","province":"San`a'","NL_NAME_1":"صنعاء","county":"BaniMatar","VARNAME_2":"NA","NL_NAME_2":"بنيمطر","TYPE_2":"Muderiah","ENGTYPE_2":"District","CC_2":"2307","HASC_2":"NA","name":"Bani_Matar.county"},
"geometry":{"type": "MultiPolygon","coordinates": [[[[43.87,15.3864,1868.37],[43.8757,15.3703,1965.9567],[43.8851,15.3635,2302.1414],[43.9029,15.3606,2679.2271],[43.9168,15.3631,2698.832],[43.9281,15.3727,2757.7334],[43.9395,15.3783,2731.2686],[43.9493,15.3743,2781.739],[43.9608,15.3523,2820.4438],[43.9633,15.342,2964.9136],[43.9538,15.2985,3317.6892],[43.9491,15.2629,3190.4673],[43.9499,15.2581,3004.7156],[43.9613,15.2463,3147.8804],[43.9712,15.2392,3133.9661],[43.9696,15.2242,2988.8579],[43.9618,15.2126,2920.6855],[43.9777,15.2042,2858.5005],[43.9782,15.1957,2776.3032],[43.9704,15.1804,2776.7332],[43.9675,15.1696,2591.9438],[43.9686,15.1646,2519.6392],[43.9724,15.1667,2549.4636],[43.9746,15.1657,2573.0376],[43.9741,15.1596,2476.2231],[43.9668,15.1532,2330.5232],[43.9623,15.1425,2621.6812],[43.9642,15.1334,2458.9592],[43.9692,15.1264,2127.9443],[43.978,15.1189,1757.0349],[43.9819,15.1076,1721.9779],[43.9752,15.1,1784.5516],[43.9723,15.0943,1804.9148],[43.9708,15.0874,1761.6182],[43.9753,15.0792,1660.6696],[43.9724,15.0697,1603.3342],[43.9685,15.0668,1618.4047],[43.9568,15.0696,1738.4182],[43.952,15.0649,1550.3755],[43.9501,15.0573,1473.0682],[43.9483,15.0232,1356.4453],[43.9542,15.0034,1331.4899],[43.9514,14.9797,1339.3215],[43.9466,14.9598,1210.9773],[43.9486,14.9532,1373.6868],[43.9701,14.941,1248.1332],[43.9708,14.9338,1193.5753],[43.9692,14.9321,1182.2015],[43.9773,14.9325,1181.9197],[43.9804,14.9375,1304.951],[43.9859,14.939,1193.1877],[43.9875,14.9443,1199.7217],[43.9901,14.9469,1200.8478],[43.9936,14.9474,1210.6104],[44.0018,14.9539,1254.2251],[44.0046,14.9543,1227.4865],[44.0121,14.9616,1243.2168],[44.0182,14.9617,1276.0483],[44.0187,14.9642,1251.2451],[44.0158,14.9661,1276.3588],[44.0165,14.9688,1296.9604],[44.0224,14.9714,1256.5356],[44.0218,14.9794,1313.9468],[44.0321,14.9926,1318.6764],[44.0486,14.9988,1320.8068],[44.0924,14.999,1439.2781],[44.124,15.0026,1707.4777],[44.136,15.0023,1698.4069],[44.1397,15.0151,1567.9393],[44.1618,15.0464,1714.1028],[44.1694,15.0621,1760.3071],[44.1732,15.077,1764.2112],[44.1738,15.1097,2049.802],[44.1761,15.1172,2140.3916],[44.212,15.1389,2458.6895],[44.2231,15.1429,2405.0107],[44.2221,15.1452,2420.0498],[44.228,15.1478,2407.8025],[44.2295,15.1553,2379.3252],[44.2279,15.1828,2401.936],[44.2087,15.2095,2421.1855],[44.2009,15.2296,2356.7864],[44.1948,15.2326,2423.6877],[44.1917,15.2311,2381.2393],[44.1864,15.2221,2544.3955],[44.1711,15.2233,2511.9526],[44.1697,15.2278,2536.1421],[44.1702,15.2372,2761.4226],[44.1763,15.2453,2761.5034],[44.1927,15.2588,2607.623],[44.2088,15.2773,2315.9258],[44.2003,15.2791,2322.7173],[44.1806,15.2757,2591.3347],[44.1619,15.2885,2552.9541],[44.1598,15.2879,2620.4526],[44.1598,15.2975,2413.5361],[44.1671,15.3055,2392.75],[44.17,15.3057,2352.7344],[44.1793,15.3118,2316.6619],[44.1818,15.3257,2292.7795],[44.1599,15.3394,2362.5288],[44.1424,15.3527,2620.7908],[44.126,15.3597,2700.0063],[44.1039,15.3611,2504.3093],[44.0858,15.3457,2525.7026],[44.0728,15.3441,2570.0796],[44.0532,15.3487,2670.8523],[44.0483,15.3613,2642.8535],[44.0611,15.3898,2631.7185],[44.053,15.3976,2614.4053],[44.0204,15.4007,2717.1875],[43.9927,15.4147,2733.0828],[43.9585,15.4209,2734.7446],[43.9551,15.4237,2760.0933],[43.9551,15.4318,2673.6431],[43.9625,15.4521,2658.2458],[43.9624,15.4696,2577.6865],[43.9564,15.4797,2635.4993],[43.9443,15.4884,2579.2256],[43.9308,15.4912,2544.3616],[43.9144,15.4983,2541.3953],[43.9118,15.4885,2541.7578],[43.9018,15.4789,2603.1294],[43.8966,15.4661,2477.0308],[43.9007,15.4489,2288.824],[43.9066,15.4419,2266.9395],[43.9105,15.4272,2135.4431],[43.8806,15.4009,1920.2325],[43.87,15.3864,1868.37]]]]}}