{"type":"Feature","properties":{"GID_2":"YEM.20.17_1","GID_0":"YEM","country":"Yemen","GID_1":"YEM.20_1","province":"Shabwah","NL_NAME_1":"شبوة","county":"Usaylan","VARNAME_2":"NA","NL_NAME_2":"عسيلان","TYPE_2":"Muderiah","ENGTYPE_2":"District","CC_2":"2105","HASC_2":"NA","name":"Usaylan.county"},
"geometry":{"type": "MultiPolygon","coordinates": [[[[45.6936,15.1899,1051.9834],[45.7263,15.0567,1107.6074],[45.7039,14.9878,1365.7871],[45.6786,14.9321,1977.9158],[45.741,14.9179,1084.7213],[45.742,14.9131,1083.3838],[45.747,14.9121,1082.3945],[45.7519,14.915,1075.1423],[45.7698,14.9101,1082.552],[45.8421,14.8771,1093.4246],[45.9137,14.8305,1085.363],[45.9499,14.8816,1065.6442],[45.9721,14.9016,1069.5763],[46.0054,14.9191,1026.0957],[46.0892,14.9419,1012.4637],[46.1405,14.9725,1047.8905],[46.2739,15.1017,904.4855],[46.3763,15.1492,884.5281],[46.303,15.2497,917.5828],[46.1635,15.5102,924.5065],[45.7025,15.1978,1048.0615],[45.6936,15.1899,1051.9834]]]]}}