{"type":"Feature","properties":{"GID_2":"YEM.20.4_1","GID_0":"YEM","country":"Yemen","GID_1":"YEM.20_1","province":"Shabwah","NL_NAME_1":"شبوة","county":"Arma","VARNAME_2":"NA","NL_NAME_2":"عرماء","TYPE_2":"Muderiah","ENGTYPE_2":"District","CC_2":"2104","HASC_2":"NA","name":"Arma.county"},
"geometry":{"type": "MultiPolygon","coordinates": [[[[46.7699,15.6476,825.8115],[46.8133,15.4521,816.684],[46.8394,15.3613,803.6362],[46.8892,15.2087,857.0323],[46.9241,15.1732,883.394],[46.9947,15.1535,948.0297],[47.0377,15.1058,1013.3217],[47.0811,15.1451,1064.8833],[47.1285,15.1637,1522.4799],[47.1992,15.163,1458.8098],[47.2029,15.1325,1270.1823],[47.2066,15.1171,1459.4869],[47.2184,15.1132,1325.632],[47.2499,15.1167,1523.0596],[47.2895,15.1507,1430.1694],[47.3016,15.1773,1423.3878],[47.314,15.2344,1408.3464],[47.3341,15.2686,1204.6836],[47.371,15.2847,1417.3586],[47.3427,15.341,1260.6355],[47.3435,15.4136,1052.3436],[47.3679,15.4782,879.6093],[47.5426,15.6022,939.0798],[47.6659,15.6962,730.332],[47.6991,15.7196,721.7542],[47.6017,15.7149,721.1158],[47.371,15.6874,747.1635],[47.0532,15.6725,824.9332],[46.7699,15.6476,825.8115]]]]}}