{"type":"Feature","properties":{"GID_2":"YEM.18.3_1","GID_0":"YEM","country":"Yemen","GID_1":"YEM.18_1","province":"Sa`dah","NL_NAME_1":"صعدة","county":"AsSafra","VARNAME_2":"NA","NL_NAME_2":"الصفراء","TYPE_2":"Muderiah","ENGTYPE_2":"District","CC_2":"2212","HASC_2":"NA","name":"As_Safra.county"},
"geometry":{"type": "MultiPolygon","coordinates": [[[[43.68,17.3697,1995.9456],[43.6861,17.3078,2024.501],[43.6805,17.3029,2138.6113],[43.6775,17.2917,1844.5302],[43.6829,17.2553,1791.6583],[43.6816,17.229,2074.4058],[43.6826,17.2171,1867.7753],[43.6815,17.2138,1882.8667],[43.6843,17.1983,1907.7307],[43.684,17.1805,1835.7927],[43.6904,17.1599,1860.2516],[43.6994,17.1078,1928.5072],[43.7051,17.0871,1946.1763],[43.7168,17.0658,1918.3856],[43.7205,17.0643,1901.1592],[43.7205,17.0599,1891.9614],[43.7236,17.0532,1888.2781],[43.7365,17.0449,1889.9532],[43.7434,17.046,1956.3303],[43.7739,17.0628,1843.4165],[43.784,17.0608,1852.2788],[43.7945,17.0513,1813.6307],[43.7919,17.0427,1814.9343],[43.7857,17.0341,1821.0356],[43.7922,17.0167,1849.3373],[43.7904,16.9947,1840.2266],[43.7823,16.9821,1856.1746],[43.7739,16.9766,1842.2083],[43.7582,16.9734,1871.6108],[43.7463,16.9685,1881.4362],[43.7209,16.9668,1887.7065],[43.7174,16.9651,1890.1135],[43.708,16.9496,1898.6821],[43.7064,16.9432,1899.5455],[43.7218,16.9339,1888.5968],[43.7314,16.9354,1888.6189],[43.7687,16.954,1852.8164],[43.7746,16.9534,1852.4092],[43.7778,16.9492,1854.2017],[43.7822,16.8999,1884.8824],[43.7798,16.8929,1929.1191],[43.7672,16.8824,1953.7745],[43.7625,16.8652,1964.1244],[43.765,16.8504,1949.3502],[43.7756,16.8407,1970.5835],[43.7825,16.8225,1954.0413],[43.782,16.8178,1953.4896],[43.7739,16.8005,1999.3666],[43.774,16.7925,2007.0265],[43.7778,16.775,1928.0034],[43.7779,16.7646,2026.2676],[43.7729,16.7467,2013.0596],[43.7736,16.7108,1879.4907],[43.7672,16.6904,1891.5029],[43.7854,16.6899,1863.8198],[43.8229,16.676,1819.8317],[43.8652,16.6653,1890.424],[43.9953,16.6534,1631.597],[44.0488,16.6537,1567.272],[44.0666,16.6864,1580.0159],[44.0996,16.7073,1822.7219],[44.0979,16.7332,1827.1217],[44.0894,16.7282,1785.8286],[44.0648,16.743,1874.7449],[44.0394,16.7534,1643.1377],[43.9192,16.7861,1736.8315],[43.9103,16.792,1780.8293],[43.9069,16.7969,1776.3982],[43.9039,16.807,1829.6953],[43.9041,16.818,1798.3489],[43.9084,16.8408,1848.6334],[43.9055,17.3417,2127.4092],[43.8319,17.3389,1796.4161],[43.8058,17.3566,1913.3698],[43.7889,17.375,2051.8159],[43.7678,17.3744,1951.4948],[43.6833,17.3667,2008.0308],[43.68,17.3697,1995.9456]]],
[[[43.6181,17.0108,2007.5184],[43.6298,17.005,1973.0525],[43.6445,17.0219,1947.9231],[43.6516,17.0469,1934.7063],[43.6422,17.0627,1939.6362],[43.6371,17.0547,1948.146],[43.6413,17.0438,1943.576],[43.6393,17.0378,1947.2272],[43.6331,17.0288,1956.9662],[43.6278,17.0249,1963.1155],[43.6237,17.0258,1964.6328],[43.6136,17.0231,1974.1757],[43.6176,17.0155,1970.968],[43.6181,17.0108,2007.5184]]]]}}