{"type":"Feature","properties":{"GID_2":"YEM.2.10_1","GID_0":"YEM","country":"Yemen","GID_1":"YEM.2_1","province":"Abyan","NL_NAME_1":"أبين","county":"Sibah","VARNAME_2":"NA","NL_NAME_2":"سباح","TYPE_2":"Muderiah","ENGTYPE_2":"District","CC_2":"1205","HASC_2":"NA","name":"Sibah.county"},
"geometry":{"type": "MultiPolygon","coordinates": [[[[45.468,13.8894,1960.5717],[45.4013,13.8978,1894.5798],[45.3828,13.909,2152.7988],[45.3733,13.9007,2112.4089],[45.3355,13.9079,2306.4497],[45.3307,13.9108,2398.1523],[45.3249,13.909,2366.8433],[45.3113,13.8992,2193.8577],[45.3088,13.885,2078.1335],[45.3065,13.8817,2137.4399],[45.306399999999996,13.8671,1971.2483],[45.3122,13.8536,1988.9736],[45.3237,13.8333,1674.4746],[45.3294,13.831,1649.5112],[45.3455,13.8175,1370.8456],[45.342,13.8085,1464.7473],[45.3236,13.8086,1658.2104],[45.2987,13.7975,1953.7181],[45.3003,13.7878,1684.6665],[45.3059,13.7804,1803.1331],[45.3126,13.7762,1896.1077],[45.3315,13.7702,1522.1023],[45.34,13.7646,1454.058],[45.3533,13.747,1816.335],[45.3574,13.7194,1471.0413],[45.3688,13.7136,1700.9293],[45.3898,13.7074,1946.687],[45.3996,13.7145,1437.0609],[45.4134,13.7293,1485.3654],[45.4973,13.7865,1661.2592],[45.5059,13.8166,1649.8909],[45.4927,13.8495,1366.8525],[45.468,13.8894,1960.5717]]]]}}