{"type":"Feature","properties":{"GID_2":"YEM.15.13_1","GID_0":"YEM","country":"Yemen","GID_1":"YEM.15_1","province":"Lahij","NL_NAME_1":"لحج","county":"TurAlBahah","VARNAME_2":"NA","NL_NAME_2":"طورالباحة","TYPE_2":"Muderiah","ENGTYPE_2":"District","CC_2":"2511","HASC_2":"NA","name":"Tur_Al_Bahah.county"},
"geometry":{"type": "MultiPolygon","coordinates": [[[[44.6687,12.8631,64.473],[44.7051,13.014,226.4931],[44.7116,13.1748,290.8857],[44.7106,13.1795,287.953],[44.6793,13.1683,328.1746],[44.6171,13.1655,396.0242],[44.6002,13.1706,505.7248],[44.593,13.1677,464.7676],[44.5715,13.1663,496.2812],[44.5557,13.1578,504.9501],[44.5271,13.1578,538.6732],[44.517,13.1606,568.3831],[44.5169,13.1929,589.0363],[44.4797,13.2084,740.5203],[44.4584,13.2076,1132.6071],[44.4325,13.2102,1099.8925],[44.414,13.2102,862.9293],[44.4066,13.2066,807.182],[44.3983,13.1993,752.484],[44.3891,13.1984,698.3349],[44.3734,13.2074,902.9142],[44.3733,13.2173,907.5328],[44.3789,13.2237,945.5812],[44.3788,13.2336,851.15],[44.3724,13.2336,977.3983],[44.3539,13.2273,1004.067],[44.3105,13.2063,953.558],[44.3071,13.2085,798.5172],[44.3071,13.2125,729.2587],[44.2925,13.2082,757.6348],[44.2873,13.1947,874.1898],[44.2873,13.1864,737.0705],[44.2913,13.1822,705.061],[44.2932,13.1758,656.0668],[44.2904,13.1615,754.2772],[44.2174,13.0455,705.9853],[44.2604,12.9903,332.9493],[44.2494,12.9628,311.5825],[44.2627,12.9519,278.7936],[44.2773,12.9349,266.83],[44.3233,12.89,223.5146],[44.3524,12.8687,178.08],[44.3718,12.8474,142.852],[44.4057,12.8238,103.7813],[44.4579,12.7815,32.7223],[44.4781,12.811,43.2636],[44.4963,12.8323,65.6842],[44.5214,12.8458,90.8828],[44.5397,12.8514,97.7791],[44.5865,12.8594,104.6114],[44.623,12.8594,63.5706],[44.6687,12.8631,64.473]]]]}}