{"type":"Feature","properties":{"GID_2":"YEM.15.1_1","GID_0":"YEM","country":"Yemen","GID_1":"YEM.15_1","province":"Lahij","NL_NAME_1":"لحج","county":"AlHawtah","VARNAME_2":"NA","NL_NAME_2":"الحوطة","TYPE_2":"Muderiah","ENGTYPE_2":"District","CC_2":"2514","HASC_2":"NA","name":"Al_Hawtah.county"},
"geometry":{"type": "MultiPolygon","coordinates": [[[[44.8918,13.0495,120.9334],[44.8956,13.07,131.7943],[44.8881,13.0772,145.5837],[44.8677,13.0772,158.4005],[44.8677,13.0566,135.6438],[44.8769,13.0477,127.8782],[44.8918,13.0495,120.9334]]]]}}