{"type":"Feature","properties":{"GID_2":"YEM.18.8_1","GID_0":"YEM","country":"Yemen","GID_1":"YEM.18_1","province":"Sa`dah","NL_NAME_1":"صعدة","county":"Majz","VARNAME_2":"NA","NL_NAME_2":"مجز","TYPE_2":"Muderiah","ENGTYPE_2":"District","CC_2":"2210","HASC_2":"NA","name":"Majz.county"},
"geometry":{"type": "MultiPolygon","coordinates": [[[[43.6136,17.0231,1974.1757],[43.6102,17.0295,1974.991],[43.6085,17.0445,1965.0441],[43.6142,17.0567,1956.0104],[43.6307,17.0829,1954.8431],[43.6552,17.0966,1979.584],[43.698,17.116,1908.5331],[43.6919,17.1531,1865.1597],[43.684,17.1805,1835.7927],[43.6834,17.1904,1928.8961],[43.6784,17.1926,1833.8215],[43.6513,17.1956,1932.5315],[43.5747,17.235,1850.1967],[43.5477,17.2448,1867.4526],[43.4931,17.2408,2011.0007],[43.4438,17.2297,2216.2131],[43.3833,17.2105,2161.9304],[43.3324,17.2014,1523.9828],[43.3242,17.1978,1483.8674],[43.3228,17.192,1439.9586],[43.3281,17.1827,1428.0814],[43.3312,17.1734,1398.703],[43.3344,17.1475,1363.2174],[43.3376,17.1412,1391.2031],[43.3444,17.1358,1590.5115],[43.3507,17.1268,1557.2314],[43.349,17.114,1477.9376],[43.3362,17.0894,1511.2762],[43.3334,17.0806,1421.5963],[43.3349,17.0562,1446.0502],[43.3288,17.0346,1354.3447],[43.3367,17.0234,1802.3633],[43.3659,17.0119,1570.6455],[43.3803,17.0022,1728.6667],[43.3863,16.9928,1813.0818],[43.3901,16.9757,1785.1187],[43.4102,16.976,1847.92],[43.4172,16.9706,1894.2651],[43.4406,16.9594,2208.1968],[43.4519,16.9582,2261.4229],[43.4714,16.9658,2509.3201],[43.4899,16.9825,2653.0166],[43.5101,16.9848,2575.0535],[43.5319,16.9713,2418.5806],[43.5716,16.9398,2275.2656],[43.5895,16.9494,2297.9646],[43.6051,16.9751,2095.6384],[43.6184,17.0076,2008.3141],[43.6176,17.0155,1970.968],[43.6136,17.0231,1974.1757]]]]}}