{"type":"Feature","properties":{"GID_1":"YEM.20_1","GID_0":"YEM","country":"Yemen","province":"Shabwah","VARNAME_1":"Shabwa|Shibwah|Ataq","NL_NAME_1":"شبوة","TYPE_1":"Muhafazah","ENGTYPE_1":"Governorate","CC_1":"21","HASC_1":"YE.SH","ISO_1":"YE-SH","name":"Shabwah.province"},
"geometry":{"type": "MultiPolygon","coordinates": [[[[47.1841,13.6472,87.6653],[47.1824,13.6454,84.3573],[47.1839,13.6435,80.4258],[47.1818,13.5996,2.4496],[47.2154,13.6032,0.4216],[47.2229,13.6071,7.5726],[47.2304,13.6079,0.0],[47.2435,13.6135,0.8864],[47.2996,13.6293,1.7104],[47.3232,13.6407,2.155],[47.3271,13.6404,0.0],[47.3351,13.6435,1.239],[47.3404,13.6426,0.0],[47.341,13.644,1.9511],[47.3737,13.6471,0.6923],[47.3915,13.6535,0.0],[47.4032,13.6646,3.7157],[47.4165,13.6713,0.0],[47.4174,13.6732,0.694],[47.4604,13.7026,0.0],[47.4782,13.7204,0.0],[47.5038,13.7426,1.5739],[47.5079,13.7446,0.0],[47.5143,13.7524,1.9333],[47.519,13.7551,0.0],[47.5329,13.7688,2.2973],[47.5412,13.7729,0.0],[47.5485,13.7821,1.9524],[47.5654,13.7979,0.4638],[47.5729,13.8024,0.0],[47.5799,13.8099,3.3323],[47.5926,13.8154,0.0],[47.5982,13.821,2.6463],[47.606,13.8351,2.4593],[47.6146,13.8451,2.0113],[47.6421,13.8721,4.1117],[47.6471,13.8746,2.0011],[47.6524,13.8735,0.0],[47.6543,13.8774,1.052],[47.6771,13.8951,1.9147],[47.6993,13.9085,2.2025],[47.706,13.9101,0.0],[47.7071,13.9124,6.7419],[47.731,13.919,2.0905],[47.7629,13.9226,3.0911],[47.7749,13.9221,0.0],[47.7829,13.9265,2.1897],[47.8088,13.9338,0.0],[47.8204,13.9451,0.0],[47.8235,13.9463,0.0],[47.8285,13.9524,3.6238],[47.8426,13.961,0.742],[47.8818,13.9904,0.0],[47.9043,14.0126,2.7697],[47.919,14.0243,6.1197],[47.9524,14.0429,1.4085],[47.9685,14.0485,0.6236],[47.9951,14.0543,3.4605],[48.0335,14.0546,2.0175],[48.0604,14.0499,1.6606],[48.1015,14.0363,2.0528],[48.1332,14.0232,0.0],[48.1407,14.0171,0.5671],[48.1568,14.0085,1.112],[48.1724,13.9976,1.5477],[48.1782,13.9907,3.13],[48.1765,13.9871,0.0],[48.1774,13.9818,5.9294],[48.1763,13.9799,0.0],[48.1776,13.976,7.727],[48.1749,13.9712,2.2995],[48.1835,13.9682,0.0],[48.1876,13.9749,0.0],[48.2032,13.9726,4.0112],[48.2135,13.9749,0.0],[48.2218,13.9888,13.466],[48.2257,13.9888,5.2008],[48.2296,13.9851,0.0],[48.2343,13.9851,0.0],[48.2357,13.9838,15.5114],[48.241,13.9854,0.0],[48.2465,13.9849,0.562],[48.2457,13.9815,0.0],[48.2474,13.9785,0.0],[48.2526,13.9762,0.0],[48.2579,13.9801,0.0],[48.2546,13.986,2.8872],[48.256,13.9896,7.7649],[48.2643,13.9879,0.0],[48.2724,13.989,2.152],[48.2732,13.9924,39.4077],[48.2776,13.9935,0.0],[48.279,13.9954,0.4044],[48.2824,13.9932,0.5521],[48.2843,13.989,2.5151],[48.2874,13.9879,0.3782],[48.2879,13.9851,0.0],[48.2946,13.9849,0.0],[48.2974,13.9893,0.7349],[48.2971,13.9946,1.0004],[48.3071,13.9985,0.0],[48.3135,13.9982,0.0],[48.3176,14.0043,2.7782],[48.321,14.0057,0.9036],[48.3246,14.0035,0.0],[48.329,14.0043,2.0378],[48.3276,14.0104,0.0],[48.3229,14.0124,0.7791],[48.3224,14.0151,0.9919],[48.3274,14.0218,0.0],[48.3338,14.0249,1.1511],[48.3415,14.024,1.1505],[48.3432,14.0218,0.0],[48.3493,14.021,1.7845],[48.3546,14.0165,1.5751],[48.3537,14.0138,0.0],[48.3549,14.0132,0.0],[48.3593,14.014,0.6526],[48.3601,14.0182,0.5517],[48.3646,14.0157,0.4483],[48.3749,14.0182,3.5026],[48.3815,14.0138,1.4087],[48.3876,14.0124,1.161],[48.3904,14.0157,8.2882],[48.3935,14.0154,0.0],[48.3996,14.0196,0.0],[48.4007,14.0218,3.0516],[48.4143,14.0193,0.4658],[48.4151,14.0135,0.0],[48.4204,14.0171,15.8348],[48.4246,14.0171,39.4056],[48.426,14.0138,0.0],[48.4274,14.0138,0.0],[48.4263,14.0229,0.516],[48.4293,14.0251,1.524],[48.4335,14.0251,0.252],[48.4382,14.0226,0.8193],[48.4396,14.0193,0.0],[48.4443,14.0188,2.1701],[48.4496,14.0146,0.0],[48.449,14.001,0.0],[48.4512,13.9974,31.0224],[48.4585,13.9951,0.0],[48.4649,14.0024,6.6746],[48.4735,14.0079,0.773],[48.4768,14.0082,0.0],[48.4851,14.0037,0.0],[48.4901,14.0049,0.0],[48.4974,14.0129,0.4041],[48.5049,14.0171,0.0],[48.5093,14.0232,0.6003],[48.5313,14.0371,0.5951],[48.5462,14.0426,0.3865],[48.578,14.0474,1.4146],[48.5456,14.1203,188.9775],[48.498,14.1633,546.8895],[48.4511,14.1944,835.7061],[48.4485,14.2162,812.8802],[48.404,14.2112,564.8395],[48.335,14.194,535.3069],[48.2218,14.2064,299.1922],[48.117,14.2539,294.4012],[48.0989,14.3259,861.0732],[47.981,14.4127,1035.538],[47.9332,14.455,1125.8756],[47.9123,14.4817,1046.9761],[47.7953,14.5171,1086.3394],[47.5854,14.6315,989.6251],[47.5878,14.6371,1103.2628],[47.5941,14.6768,952.3634],[47.5676,14.7151,1097.0155],[47.5216,14.77,1197.8799],[47.4717,14.8069,1181.2336],[47.4381,14.8352,1254.0068],[47.4518,14.8633,1158.0745],[47.4764,14.8903,1360.9641],[47.5383,14.9186,1283.6538],[47.5652,14.9332,1344.8442],[47.621,14.9548,1400.9913],[47.6466,14.9856,1411.0458],[47.6651,15.0527,1465.4141],[47.6612,15.0698,1478.2144],[47.6492,15.0871,1478.4275],[47.6196,15.1033,1486.1387],[47.6075,15.1153,1483.9159],[47.5872,15.1261,1488.3992],[47.5696,15.1276,1476.936],[47.5589,15.1383,1479.9639],[47.5631,15.1514,1491.1226],[47.5796,15.1658,1431.6304],[47.5921,15.1894,1437.2151],[47.6088,15.2154,1398.7673],[47.598,15.2315,1421.6183],[47.5983,15.2513,1404.1282],[47.6067,15.2749,1414.9447],[47.624,15.3425,1370.1162],[47.6213,15.3674,1378.421],[47.6376,15.4046,1335.1101],[47.7216,15.4977,1286.2346],[47.7752,15.5634,1260.92],[47.8203,15.6278,787.4448],[47.868899999999996,15.712,715.4579],[47.8268,15.7113,708.8052],[47.8209,15.7188,707.1255],[47.8062,15.7225,709.708],[47.7474,15.7179,719.5518],[47.6975,15.7185,722.2165],[47.6991,15.7196,721.7542],[47.6017,15.7149,721.1158],[47.371,15.6874,747.1635],[47.0532,15.6725,824.9332],[46.306,15.6062,880.1259],[45.7025,15.1978,1048.0615],[45.5999,15.1078,1087.7302],[45.5781,15.0805,1098.2087],[45.5352,14.9984,1126.1167],[45.5231,14.9793,1136.572],[45.5186,14.9691,1137.0723],[45.5117,14.9449,1148.5033],[45.5069,14.9379,1150.6959],[45.5065,14.9304,1150.7292],[45.5158,14.9091,1160.079],[45.5157,14.8953,1167.2605],[45.5124,14.8926,1182.7344],[45.51,14.8932,1179.5294],[45.5035,14.886,1176.1818],[45.4933,14.8499,1383.5626],[45.482,14.7938,1880.7192],[45.4746,14.7468,1765.285],[45.4759,14.7385,1376.5896],[45.48,14.7312,1451.8126],[45.5009,14.7186,1670.2222],[45.521,14.7129,1697.5519],[45.5544,14.7127,1626.7599],[45.6066,14.709,1722.3831],[45.6089,14.7135,1715.9048],[45.6179,14.7153,1380.448],[45.6284,14.7153,1224.5933],[45.645,14.7201,1239.3535],[45.6516,14.7196,1383.5974],[45.6559,14.7159,1488.9136],[45.6651,14.6948,1325.9159],[45.6548,14.676,1551.323],[45.6502,14.6706,1682.0084],[45.6497,14.6203,1408.1248],[45.646,14.6011,1463.0803],[45.6511,14.5949,1255.3206],[45.6593,14.5919,1582.8143],[45.6826,14.5953,1490.167],[45.7664,14.5924,1763.5302],[45.8441,14.4254,1940.2086],[45.8474,14.3834,1717.0916],[45.8473,14.3597,1717.298],[45.8446,14.3238,1875.8101],[45.874,14.3335,1799.4142],[45.9251,14.3424,1752.8192],[45.9785,14.3422,1575.5399],[45.9805,14.341,1552.8065],[45.9781,14.3378,1527.5284],[45.9762,14.3237,1470.4928],[45.9765,14.3178,1504.0245],[45.9783,14.3145,1454.3766],[45.9888,14.318,1414.5056],[45.9943,14.3096,1467.1222],[46.005,14.2985,1567.5228],[46.0172,14.2894,1545.0664],[46.0292,14.2822,1709.7163],[46.0456,14.2768,1627.5234],[46.0605,14.2505,1598.1138],[46.1071,14.2774,1701.0913],[46.1876,14.3182,1665.2052],[46.2402,14.3144,1470.8124],[46.2948,14.2807,1842.6528],[46.3051,14.2552,1942.2112],[46.3411,14.201,2090.2351],[46.3368,14.1707,1818.8588],[46.3078,14.1177,2258.7507],[46.2905,14.0825,1665.8357],[46.2872,14.0803,1496.7234],[46.2847,14.0731,1212.4207],[46.2908,14.0595,1066.0724],[46.3046,14.054,1193.0791],[46.3185,14.0638,1270.9368],[46.3379,14.07,1057.3199],[46.3738,14.0743,1121.5836],[46.432,14.0875,1575.9058],[46.4495,14.0856,1724.5587],[46.4614,14.0765,1541.2977],[46.4737,14.0748,1371.3236],[46.4854,14.0772,1182.1995],[46.4967,14.0887,1379.8076],[46.5215,14.103,1946.7998],[46.5529,14.1164,1642.4749],[46.5678,14.1316,1311.6182],[46.6051,14.1875,1682.576],[46.7624,14.2007,1506.1331],[46.7949,14.1903,1039.946],[46.8304,14.1765,1141.4578],[46.8639,14.1686,794.396],[46.9034,14.1625,776.8459],[46.931,14.1622,905.9383],[46.9468,14.1583,895.4764],[46.9664,14.1369,873.0356],[46.9762,14.1368,854.9239],[46.9862,14.1483,844.6938],[46.9963,14.1733,932.3315],[47.0143,14.1963,1174.7499],[47.0381,14.2057,1078.886],[47.0678,14.2054,950.8142],[47.0796,14.1996,1152.4159],[47.0834,14.186,1189.7009],[47.0809,14.1282,921.475],[47.0826,14.1031,955.4268],[47.0923,14.0838,1108.739],[47.1061,14.074,1218.8329],[47.1277,14.0661,1279.8165],[47.1477,14.0659,1276.6365],[47.1554,14.0528,1197.0992],[47.1666,13.8729,387.6423],[47.1863,13.693,163.713],[47.1841,13.6472,87.6653]]],
[[[48.386,13.936,8.5173],[48.3826,13.9354,10.231],[48.3815,13.9321,11.8851],[48.3832,13.9285,0.0],[48.3862,13.9315,6.7498],[48.3882,13.9282,0.0],[48.3907,13.9299,11.2787],[48.3913,13.9332,0.0],[48.3904,13.9346,3.1132],[48.3865,13.9335,12.2379],[48.386,13.936,8.5173]]],
[[[48.4654,13.9843,2.9177],[48.4574,13.9838,2.8179],[48.4582,13.9776,0.0],[48.4626,13.9762,7.1063],[48.4668,13.981,51.1202],[48.4654,13.9843,2.9177]]],
[[[48.3246,13.9954,6.2451],[48.3251,13.9968,0.1121],[48.319,13.9963,2.3886],[48.3179,13.9907,0.0],[48.3207,13.9863,0.3219],[48.3232,13.9863,0.3945],[48.3246,13.9904,5.2453],[48.3262,13.9907,4.2169],[48.3246,13.9954,6.2451]]],
[[[48.3937,14.001,6.8565],[48.3913,14.0015,18.7643],[48.3915,13.9979,2.3146],[48.3935,13.9982,1.3272],[48.3937,14.001,6.8565]]],
[[[48.3879,14.0049,0.0],[48.3874,14.0057,0.0],[48.386,14.0054,0.0],[48.3874,14.004,0.0],[48.3879,14.0049,0.0]]]]}}