{"type":"Feature","properties":{"ISO3166-1-Alpha-3":"YEM","country":"Yemen","fill":"#F00","id":"336","name":"Shabwah"},
"geometry":{"type": "Polygon","coordinates": [[[48.32659,14.2943,558.6549],[48.26034,14.30034,595.9464],[48.18691,14.3353,608.1815],[48.13745,14.38367,1036.767],[48.12314,14.41083,1146.3594],[48.09896,14.44243,619.7921],[48.08857,14.47335,526.3319],[48.06852,14.51296,575.9009],[48.04929,14.53519,762.1263],[48.02366,14.54896,633.7753],[47.99886,14.55759,832.475],[47.9247,14.55963,986.7078],[47.82182,14.5743,833.5486],[47.74451,14.60079,1055.6246],[47.66834,14.65048,832.2446],[47.59728,14.71802,1235.0369],[47.48602,14.79388,1190.0276],[47.47843,14.81894,1282.6953],[47.50183,14.84679,1197.7877],[47.66431,14.9812,1296.2761],[47.67934,15.01022,1428.0425],[47.67903,15.03962,1440.934],[47.63702,15.09389,1483.7972],[47.61263,15.11884,1485.1392],[47.61216,15.14378,1462.0208],[47.61511,15.17137,1450.3855],[47.644,15.25674,1327.7968],[47.64431,15.28095,996.4705],[47.65469,15.31622,1038.6123],[47.67764,15.36451,1011.4305],[47.72156,15.41542,1280.9022],[47.85174,15.61266,760.2859],[47.8398,15.64501,741.08],[47.74921,15.67517,731.6371],[46.33974,15.57073,894.4995],[45.75321,15.17342,1038.6638],[45.6143,15.06019,1125.3414],[45.59337,15.01738,1407.0037],[45.58516,14.99593,1530.2751],[45.56206,14.95376,1150.3851],[45.55394,14.914,1400.8094],[45.55487,14.89656,1195.686],[45.55007,14.88372,1196.213],[45.5372,14.87537,1179.7775],[45.53922,14.86695,1188.874],[45.53953,14.85424,1203.5723],[45.53255,14.82754,1209.6586],[45.52774,14.79783,1331.4808],[45.52542,14.74336,1784.8859],[45.53456,14.71559,1690.7733],[45.54681,14.70135,1854.8914],[45.56857,14.68928,1939.6434],[45.68091,14.68897,1327.7152],[45.70417,14.67781,1416.395],[45.72184,14.66324,1553.7133],[45.71657,14.64451,1480.8386],[45.70448,14.62366,1709.3993],[45.69704,14.60373,1460.9135],[45.6958,14.57958,1373.4255],[45.71471,14.56412,1637.119],[45.7577,14.55495,1727.7529],[45.7807,14.5365,1706.613],[45.83703,14.38941,1775.7882],[45.8592,14.35527,1509.7339],[45.89428,14.33236,1831.2129],[45.94002,14.32409,1735.2279],[45.98239,14.30701,1624.2948],[46.00162,14.29368,1588.5717],[46.00487,14.28254,1701.1223],[46.00415,14.27109,1660.9944],[46.00787,14.25926,1700.7383],[46.00911,14.2465,1702.3228],[46.01841,14.22921,1758.3678],[46.02213,14.212,1802.7408],[46.04384,14.19169,1829.933],[46.1351,14.19955,1920.1907],[46.18011,14.21394,1753.7966],[46.21762,14.23153,2023.0667],[46.24791,14.25363,1715.4899],[46.33555,14.28489,1683.3251],[46.36738,14.2999,1507.5436],[46.39658,14.30243,1335.9651],[46.41983,14.27458,1461.9932],[46.43441,14.23792,1467.0214],[46.46872,14.17585,2145.4722],[46.47508,14.14916,2055.3315],[46.49228,14.12511,2232.0735],[46.60835,14.14366,1172.3984],[46.68845,14.17715,936.903],[46.7887,14.2042,1136.3959],[46.86503,14.21386,980.495],[46.93608,14.20477,1100.5999],[47.00094,14.18211,972.8728],[47.06842,14.16751,904.4652],[47.20609,14.16079,1192.3309],[47.2419,14.13756,1474.241],[47.2556,14.09578,630.4197],[47.25436,14.05126,565.5106],[47.25854,14.01824,508.0363],[47.24614,13.99351,693.0446],[47.23322,13.97509,517.127],[47.22283,13.95197,424.9207],[47.27498,13.84492,234.7343],[47.30572,13.74815,138.0644],[47.30758,13.70924,110.2144],[47.31502,13.68402,66.2537],[47.32417,13.63341,0.0],[47.32448,13.63279,0.0],[47.32448,13.63279,0.0],[47.3982,13.65485,0.0],[47.43605,13.67805,0.0],[47.56422,13.78913,0.0],[47.64568,13.8732,0.6177],[47.66725,13.88719,5.2332],[47.82097,13.93846,0.0],[47.86655,13.96166,0.0],[47.91733,14.02139,0.0],[47.93116,14.03059,0.8503],[47.94858,14.03339,0.0],[48.00164,14.04914,0.0],[48.01686,14.05728,5.5142],[48.10597,14.03604,2.802],[48.13356,14.02314,0.0],[48.14039,14.03059,23.8416],[48.15528,14.02021,4.5991],[48.17758,14.00918,18.6191],[48.19361,13.99339,93.8967],[48.18873,13.96914,0.0],[48.30421,14.0019,14.2696],[48.34571,14.00263,0.0],[48.34116,14.0124,0.0],[48.33823,14.0163,0.0],[48.41538,14.01683,0.0],[48.45045,14.01065,0.0],[48.46876,13.98896,0.0],[48.47755,13.99673,0.0],[48.48552,13.99848,0.0],[48.49383,13.99897,0.0],[48.50343,14.00263,0.0],[48.54811,14.04051,0.0],[48.56479,14.04605,0.0],[48.67246,14.04379,0.0],[48.67246,14.04387,0.0],[48.67215,14.05198,1.5832],[48.66952,14.06529,3.6367],[48.66192,14.08501,14.3204],[48.63427,14.13361,42.8851],[48.62838,14.14978,51.4964],[48.62606,14.1672,68.7214],[48.61722,14.18676,91.424],[48.60234,14.2082,80.9583],[48.58043,14.23309,124.5333],[48.48875,14.27474,338.7345],[48.40385,14.29585,1021.0149],[48.32659,14.2943,558.6549]]]}}