{"type":"Feature","properties":{"GID_2":"YEM.19.13_1","GID_0":"YEM","country":"Yemen","GID_1":"YEM.19_1","province":"San`a'","NL_NAME_1":"صنعاء","county":"Manakhah","VARNAME_2":"NA","NL_NAME_2":"مناخه","TYPE_2":"Muderiah","ENGTYPE_2":"District","CC_2":"2310","HASC_2":"NA","name":"Manakhah.county"},
"geometry":{"type": "MultiPolygon","coordinates": [[[[43.6408,14.9418,648.2336],[43.6625,14.9107,684.7122],[43.6656,14.8961,694.1088],[43.6764,14.8638,677.6343],[43.718,14.8585,755.463],[43.7301,14.8699,870.6248],[43.7419,14.9172,1098.8632],[43.7449,14.9335,1137.0435],[43.7418,14.9439,1289.0421],[43.7417,14.9572,1354.1276],[43.7447,14.9734,1164.4594],[43.7553,14.9794,1724.7295],[43.7613,14.9809,1525.4957],[43.7689,14.9913,1388.1262],[43.7795,15.0017,1451.1902],[43.791,15.0069,1583.0016],[43.8144,15.0063,1785.6174],[43.822,15.0093,2104.8418],[43.825,15.0197,1964.6561],[43.8249,15.036,1571.4473],[43.8294,15.0596,1509.8364],[43.8293,15.07,1441.9485],[43.8186,15.0744,1470.5914],[43.8126,15.0694,1492.3818],[43.8054,15.0708,1463.9138],[43.7986,15.0743,1487.3101],[43.7946,15.0793,1462.5771],[43.7911,15.0979,1456.5577],[43.7936,15.1092,1352.6167],[43.8004,15.1204,1317.9216],[43.7971,15.1278,1367.5107],[43.801,15.1487,1284.8289],[43.7922,15.1688,1537.7089],[43.7952,15.186,1373.4904],[43.7857,15.1814,1486.2927],[43.7752,15.1813,1275.3894],[43.7488,15.2044,1061.354],[43.7467,15.2175,1048.7295],[43.7397,15.2268,942.5831],[43.7358,15.2255,924.1279],[43.7297,15.2312,910.4611],[43.7257,15.2306,905.9671],[43.7228,15.2371,910.3961],[43.7235,15.242,923.9945],[43.7217,15.2516,890.0219],[43.7197,15.2515,923.9688],[43.7115,15.2624,972.5306],[43.7127,15.2754,926.2175],[43.7074,15.2847,1116.918],[43.6898,15.277,924.8537],[43.6818,15.2794,841.8417],[43.6798,15.2849,880.7345],[43.6617,15.2804,1069.8588],[43.6498,15.2713,800.4963],[43.6474,15.2726,794.9423],[43.6427,15.2699,848.9665],[43.6461,15.2619,864.2683],[43.6436,15.2522,775.4593],[43.6314,15.2519,742.9482],[43.6219,15.2433,755.9655],[43.6145,15.2391,677.8976],[43.5836,15.2343,642.5264],[43.5774,15.2234,679.2322],[43.5655,15.2189,569.4688],[43.5544,15.2049,545.183],[43.5446,15.2,575.3307],[43.543,15.1586,864.4593],[43.5573,15.1495,674.0837],[43.5579,15.1472,640.0408],[43.5647,15.1487,695.1636],[43.5695,15.1476,770.1786],[43.5719,15.1442,761.1403],[43.5761,15.1442,748.506],[43.5767,15.1482,798.6813],[43.5838,15.1471,808.7374],[43.5909,15.1524,761.3252],[43.5957,15.1507,1058.8645],[43.6095,15.1363,1056.5482],[43.6149,15.1277,967.9226],[43.6167,15.1207,978.0147],[43.6263,15.1133,970.8615],[43.627,15.0988,1283.4248],[43.6318,15.0954,1107.0369],[43.6389,15.0937,1231.2251],[43.6413,15.0908,1237.8628],[43.6414,15.0873,1361.9231],[43.6509,15.0857,1655.7776],[43.6557,15.0834,1762.5964],[43.6575,15.0799,2025.1223],[43.6563,15.0695,1476.9664],[43.6594,15.0637,1326.8628],[43.6594,15.0539,1217.9368],[43.65,15.0324,951.715],[43.6465,15.0289,857.2084],[43.6465,15.0255,867.0268],[43.6423,15.0166,882.2722],[43.6451,14.9966,773.3107],[43.6488,14.9837,702.193],[43.6541,14.9784,847.3015],[43.6645,14.9751,751.442],[43.6666,14.971,706.5392],[43.6657,14.9674,748.1454],[43.655,14.9597,727.3396],[43.6408,14.9418,648.2336]]]]}}