{"type":"Feature","properties":{"GID_2":"YEM.1.1_1","GID_0":"YEM","country":"Yemen","GID_1":"YEM.1_1","province":"`Adan","NL_NAME_1":"عدن","county":"AlBuraiqeh","VARNAME_2":"NA","NL_NAME_2":"البريقه","TYPE_2":"Muderiah","ENGTYPE_2":"District","CC_2":"2404","HASC_2":"NA","name":"Al_Buraiqeh.county"},
"geometry":{"type": "MultiPolygon","coordinates": [[[[44.8857,12.733,5.0006],[44.8829,12.7321,0.0],[44.8843,12.7274,0.0],[44.8876,12.7285,0.0],[44.8857,12.733,5.0006]]],
[[[44.9193,12.7563,1.6262],[44.9168,12.7563,0.4663],[44.9162,12.7549,0.7795],[44.9193,12.7538,4.9014],[44.9193,12.7563,1.6262]]],
[[[44.7159,12.7418,0.0],[44.7132,12.7354,6.5518],[44.7093,12.7349,10.2409],[44.7076,12.7379,0.0],[44.7051,12.7374,0.0],[44.7074,12.7313,0.0],[44.7102,12.7324,1.9751],[44.714,12.7307,0.7527],[44.7196,12.7334,1.063],[44.7159,12.7418,0.0]]],
[[[44.7446,12.7543,0.0],[44.7429,12.7541,1.5822],[44.7432,12.7507,2.1832],[44.7454,12.7524,2.3161],[44.7446,12.7543,0.0]]],
[[[44.9607,12.8301,1.8488],[44.9087,12.9086,39.4764],[44.8903,12.9,40.1444],[44.88,12.9,43.606],[44.8434,12.8798,39.3569],[44.7258,12.8674,51.6237],[44.6995,12.8685,60.101],[44.6664,12.8628,66.3494],[44.623,12.8594,63.5706],[44.5865,12.8594,104.6114],[44.5397,12.8514,97.7791],[44.5214,12.8458,90.8828],[44.4963,12.8323,65.6842],[44.4849,12.82,50.9124],[44.4579,12.7815,32.7223],[44.4524,12.7715,41.2761],[44.4289,12.7252,30.2996],[44.4099,12.6812,11.0919],[44.4165,12.6746,4.8891],[44.4146,12.6699,0.0],[44.419,12.6693,3.8932],[44.4476,12.7104,2.5912],[44.4815,12.7515,0.724],[44.5026,12.7726,1.579],[44.5249,12.7907,1.3022],[44.5388,12.7996,3.1992],[44.5554,12.8074,0.6955],[44.5715,12.8126,3.8582],[44.5938,12.8168,0.7033],[44.6237,12.8162,7.7878],[44.6615,12.809,10.232],[44.6879,12.7988,6.0534],[44.7046,12.7879,1.1094],[44.719,12.7732,0.4138],[44.7249,12.7649,0.8768],[44.7276,12.7535,5.9767],[44.7218,12.7513,0.0],[44.7201,12.7482,2.0976],[44.7165,12.7493,2.4228],[44.7171,12.7474,6.1253],[44.7207,12.7457,6.8714],[44.7229,12.7385,0.0],[44.7288,12.7421,16.2485],[44.7301,12.7451,32.9017],[44.7371,12.7482,0.0],[44.7371,12.7499,1.0693],[44.7346,12.7504,1.0891],[44.7349,12.7532,0.2857],[44.7365,12.7535,6.9433],[44.7368,12.7513,0.511],[44.7382,12.7513,0.511],[44.7399,12.7533,17.7194],[44.7393,12.7557,2.0837],[44.7421,12.756,0.5791],[44.7496,12.7635,1.2495],[44.7699,12.7713,3.8955],[44.7904,12.7735,0.5296],[44.8068,12.771,1.4147],[44.8204,12.7651,1.562],[44.8277,12.7571,1.615],[44.8254,12.754,0.0],[44.8271,12.7491,9.0238],[44.8221,12.7468,0.0],[44.8213,12.7385,0.0],[44.8226,12.7368,0.0],[44.8257,12.7368,1.9624],[44.8257,12.734,0.0],[44.8329,12.7349,2.434],[44.8382,12.7321,14.5156],[44.841,12.7282,0.0],[44.8404,12.7243,3.6351],[44.8435,12.7229,3.0951],[44.8465,12.724,2.0229],[44.8471,12.7274,9.0968],[44.8501,12.729,8.5966],[44.8543,12.7285,0.0],[44.8571,12.7299,1.1207],[44.8587,12.7276,0.0],[44.8663,12.7313,5.2444],[44.8715,12.7304,0.0],[44.8735,12.7243,6.0096],[44.8749,12.724,2.1162],[44.8746,12.7324,0.0],[44.8768,12.7362,3.1703],[44.8868,12.7343,2.1385],[44.8926,12.7282,0.0],[44.8918,12.7351,2.578],[44.8876,12.7368,21.7421],[44.886,12.7412,29.4546],[44.8874,12.7454,0.472],[44.8893,12.7454,0.0],[44.8899,12.7482,0.6227],[44.8929,12.7505,3.7385],[44.8996,12.7515,2.6154],[44.9024,12.7432,0.0],[44.9071,12.7421,18.8698],[44.9082,12.7454,0.0],[44.9107,12.7455,6.436],[44.9135,12.7412,0.0],[44.9135,12.7463,0.9726],[44.9171,12.7451,0.0],[44.9176,12.7476,0.0],[44.9124,12.7557,10.6193],[44.9224,12.7654,0.0],[44.9132,12.7649,2.4364],[44.911,12.7676,0.0],[44.8851,12.7668,0.5416],[44.8807,12.7696,0.0],[44.8771,12.7685,4.9573],[44.8751,12.7696,3.581],[44.8737,12.7737,1.3573],[44.8685,12.7765,1.7016],[44.861,12.7738,1.368],[44.8576,12.7774,0.404],[44.8513,12.7749,0.9391],[44.8499,12.7724,2.763],[44.8415,12.7738,1.2206],[44.8404,12.7768,1.3841],[44.8421,12.7815,1.4771],[44.851,12.7979,2.1816],[44.8585,12.7991,1.1011],[44.8593,12.8015,1.644],[44.8627,12.8019,1.2228],[44.8729,12.7974,2.1633],[44.8818,12.7974,1.2553],[44.8815,12.7924,1.3645],[44.8771,12.7913,0.4543],[44.8776,12.7869,1.1136],[44.8763,12.7838,1.2548],[44.8801,12.7774,0.5746],[44.8887,12.7729,1.4437],[44.891,12.7732,0.7456],[44.8946,12.7826,1.6553],[44.8957,12.7951,1.8297],[44.9074,12.8143,3.3381],[44.9124,12.816,2.8341],[44.9143,12.8185,2.9321],[44.9171,12.8182,0.0],[44.9218,12.8218,0.6824],[44.9301,12.8238,2.1701],[44.9321,12.8274,3.6684],[44.9365,12.8276,3.2245],[44.9401,12.8315,4.7993],[44.9565,12.8324,3.2406],[44.9576,12.8296,2.5658],[44.9607,12.8301,1.8488]]]]}}