{"type":"Feature","properties":{"GID_2":"YEM.2.8_1","GID_0":"YEM","country":"Yemen","GID_1":"YEM.2_1","province":"Abyan","NL_NAME_1":"أبين","county":"Rasad","VARNAME_2":"NA","NL_NAME_2":"رصد","TYPE_2":"Muderiah","ENGTYPE_2":"District","CC_2":"1206","HASC_2":"NA","name":"Rasad.county"},
"geometry":{"type": "MultiPolygon","coordinates": [[[[45.3898,13.7074,1946.687],[45.3688,13.7136,1700.9293],[45.3574,13.7194,1471.0413],[45.3533,13.747,1816.335],[45.34,13.7646,1454.058],[45.3315,13.7702,1522.1023],[45.3126,13.7762,1896.1077],[45.3059,13.7804,1803.1331],[45.3003,13.7878,1684.6665],[45.2987,13.7975,1953.7181],[45.2764,13.7974,2269.1831],[45.2563,13.8029,2269.375],[45.2531,13.8013,2209.3857],[45.2506,13.796,1979.3821],[45.243899999999996,13.793,1920.8192],[45.2383,13.7814,1781.2565],[45.233,13.7651,2017.1675],[45.2378,13.7591,1913.2968],[45.2454,13.7563,2087.0051],[45.2492,13.7497,2105.9033],[45.2459,13.7437,1712.377],[45.2454,13.7367,1657.0416],[45.2587,13.7204,1687.6251],[45.2591,13.7144,1881.9553],[45.2558,13.7107,1756.7784],[45.2496,13.7074,1618.4983],[45.2444,13.707,1645.7344],[45.2396,13.7037,1480.6019],[45.2287,13.7042,1569.7419],[45.2225,13.7061,1601.5818],[45.212,13.701,1564.759],[45.1735,13.6917,1000.6362],[45.173,13.6866,866.7299],[45.1839,13.6526,864.7775],[45.1954,13.6433,1070.9459],[45.211,13.6438,943.9231],[45.2182,13.6549,1229.3489],[45.2258,13.6614,1226.3451],[45.2339,13.6623,1241.9076],[45.2434,13.6577,1625.4792],[45.2515,13.6586,1727.5947],[45.2558,13.6614,1864.0837],[45.2638,13.6586,1570.8384],[45.2681,13.6553,1525.8597],[45.2691,13.6512,1536.8488],[45.2743,13.6493,1732.1504],[45.2797,13.661,1812.4121],[45.2873,13.6614,1980.9409],[45.2973,13.6591,1995.4574],[45.3048,13.6623,1884.2148],[45.3058,13.6697,1630.4225],[45.3129,13.6688,1857.3269],[45.3186,13.6656,1836.824],[45.3347,13.6683,1767.5394],[45.3898,13.7074,1946.687]]]]}}