{"type":"Feature","properties":{"GID_2":"YEM.14.10_1","GID_0":"YEM","country":"Yemen","GID_1":"YEM.14_1","province":"Ibb","NL_NAME_1":"إب","county":"AsSayyani","VARNAME_2":"NA","NL_NAME_2":"السياني","TYPE_2":"Muderiah","ENGTYPE_2":"District","CC_2":"1115","HASC_2":"NA","name":"As_Sayyani.county"},
"geometry":{"type": "MultiPolygon","coordinates": [[[[44.2623,13.8815,1714.0776],[44.2662,13.8924,1767.41],[44.2638,13.8962,1790.5063],[44.2598,13.8977,1799.3591],[44.255,13.903,1756.1809],[44.2536,13.9071,1775.8724],[44.2427,13.9117,1908.7723],[44.2155,13.9272,1848.6012],[44.1939,13.9093,2082.8022],[44.1768,13.9059,2181.4495],[44.1737,13.9032,2167.7756],[44.1718,13.9002,2167.6702],[44.1718,13.8928,2334.3013],[44.174,13.8805,2268.8467],[44.1715,13.8743,2307.7964],[44.1684,13.873,2367.5977],[44.1668,13.874,2404.7451],[44.1654,13.8753,2393.2434],[44.167,13.8792,2311.2019],[44.164,13.8832,2404.8701],[44.1589,13.8837,2437.7568],[44.1457,13.8742,2715.6006],[44.1386,13.8752,2616.0227],[44.1326,13.8689,2661.1919],[44.1347,13.838,2261.2961],[44.144,13.8036,1773.6848],[44.1445,13.7959,1722.9331],[44.1492,13.7894,1667.3922],[44.1543,13.7703,1601.6782],[44.1634,13.7618,1688.8364],[44.1689,13.7514,1676.2833],[44.1781,13.7406,1675.5109],[44.1919,13.7197,1440.9546],[44.1978,13.7176,1440.4867],[44.2029,13.718,1440.1665],[44.2111,13.7219,1448.3999],[44.2258,13.7358,1455.0273],[44.2441,13.7412,1457.1692],[44.2412,13.7501,1469.8551],[44.2523,13.7596,1648.1755],[44.2532,13.7718,1802.4031],[44.2492,13.8085,1732.8022],[44.2605,13.8117,1877.9614],[44.2772,13.8117,2045.2168],[44.2829,13.8162,1973.7791],[44.2902,13.8157,2117.3691],[44.2911,13.8237,1860.6658],[44.2726,13.835,2070.655],[44.2749,13.8405,2012.9142],[44.2664,13.8445,1874.8716],[44.2596,13.8674,1896.3527],[44.2588,13.881,1764.2139],[44.2623,13.8815,1714.0776]]]]}}