{"type":"Feature","properties":{"GID_2":"YEM.1.7_1","GID_0":"YEM","country":"Yemen","GID_1":"YEM.1_1","province":"`Adan","NL_NAME_1":"عدن","county":"DarSad","VARNAME_2":"NA","NL_NAME_2":"دارسعد","TYPE_2":"Muderiah","ENGTYPE_2":"District","CC_2":"2401","HASC_2":"NA","name":"Dar_Sad.county"},
"geometry":{"type": "MultiPolygon","coordinates": [[[[44.9232,12.8871,29.2268],[44.9761,12.8737,18.1104],[44.9849,12.8801,16.8088],[44.9935,12.8825,11.5417],[44.993899999999996,12.8847,13.1812],[45.0008,12.8863,11.1422],[45.0482,12.9253,9.4747],[45.045,12.9404,12.7808],[45.0353,12.9404,13.1939],[45.0193,12.937,16.0377],[45.0033,12.9314,20.1909],[44.9862,12.9303,24.8919],[44.9622,12.9314,33.2772],[44.9416,12.928,37.8779],[44.9222,12.9224,42.9123],[44.9131,12.9112,41.5022],[44.9087,12.9086,39.4764],[44.9232,12.8871,29.2268]]]]}}