{"type":"Feature","properties":{"GID_2":"YEM.21.19_1","GID_0":"YEM","country":"Yemen","GID_1":"YEM.21_1","province":"Ta`izz","NL_NAME_1":"تعز","county":"SabirAlMawadim","VARNAME_2":"NA","NL_NAME_2":"صبرالموادم","TYPE_2":"Muderiah","ENGTYPE_2":"District","CC_2":"1511","HASC_2":"NA","name":"Sabir_Al_Mawadim.county"},
"geometry":{"type": "MultiPolygon","coordinates": [[[[44.0951,13.4419,1647.6216],[44.1026,13.4392,1486.8621],[44.1049,13.4431,1445.3999],[44.1107,13.4442,1446.9003],[44.1197,13.4503,1427.6296],[44.1229,13.4577,1429.021],[44.1248,13.4748,1452.243],[44.1181,13.4826,1461.9662],[44.1089,13.4983,1464.5623],[44.1084,13.5035,1501.3138],[44.1005,13.5007,1639.1648],[44.0942,13.4953,1714.5164],[44.0895,13.4945,1904.4896],[44.0844,13.4974,1871.1021],[44.0844,13.5032,1879.8718],[44.0814,13.5073,1785.6725],[44.0747,13.5114,1840.4976],[44.0696,13.5114,2023.4136],[44.0687,13.5147,2155.1931],[44.0712,13.5197,2315.3027],[44.0797,13.5214,1970.5503],[44.0835,13.5326,1667.4672],[44.0932,13.5239,1574.5131],[44.0987,13.5227,1589.5885],[44.103,13.5252,1450.3539],[44.1081,13.5245,1410.1071],[44.119,13.5363,1402.2278],[44.1314,13.5433,1279.1908],[44.1403,13.5415,1257.0927],[44.1518,13.5419,1238.2378],[44.1491,13.5483,1240.1577],[44.1575,13.5573,1242.3884],[44.1563,13.5625,1288.0459],[44.1455,13.5741,1443.9023],[44.1148,13.5913,1411.9901],[44.1082,13.5992,1373.8833],[44.1021,13.5988,1370.5541],[44.1009,13.6021,1367.0117],[44.1036,13.6085,1353.7568],[44.1127,13.6179,1391.446],[44.1131,13.6221,1405.8346],[44.1112,13.6243,1389.5547],[44.1016,13.6239,1361.9105],[44.0993,13.6179,1348.0662],[44.099,13.6108,1347.8416],[44.0963,13.607,1358.5178],[44.0902,13.6036,1345.2603],[44.0821,13.6043,1319.1863],[44.0714,13.6024,1298.802],[44.0663,13.5972,1291.9059],[44.0663,13.5954,1309.0684],[44.0737,13.5904,1356.3088],[44.0736,13.5863,1432.2346],[44.0695,13.5854,1580.2615],[44.0641,13.5911,1321.54],[44.0545,13.5752,1537.9446],[44.0533,13.5686,1482.2485],[44.0542,13.5619,1478.8502],[44.0479,13.5583,1645.4373],[44.0433,13.5577,1659.1783],[44.0045,13.5623,1611.4849],[44.0038,13.5557,1599.6537],[44.0094,13.5369,2243.5862],[44.016,13.5243,2409.3247],[44.0175,13.5174,2110.3977],[44.0335,13.5174,2455.7275],[44.0401,13.5158,2671.7412],[44.0414,13.5124,2618.8521],[44.0401,13.5106,2541.1099],[44.0287,13.5064,2302.9045],[44.0229,13.5004,1865.4901],[44.0188,13.4919,1655.3789],[44.0209,13.4857,1843.4266],[44.0236,13.4848,1784.2018],[44.029,13.4903,1959.6155],[44.037,13.4946,1989.5271],[44.0436,13.4945,2207.7065],[44.0487,13.4887,2261.8872],[44.0513,13.4779,2021.2085],[44.0464,13.4731,1762.5521],[44.0397,13.4704,1611.0298],[44.0429,13.4598,1852.9011],[44.0448,13.4589,1825.8492],[44.0516,13.4615,2002.85],[44.0573,13.4602,2109.2246],[44.0686,13.4533,1857.376],[44.0951,13.4419,1647.6216]]],
[[[43.9771,13.523,1415.3706],[43.9791,13.5225,1415.3706],[43.988,13.5471,1753.045],[43.9901,13.568,1303.9877],[43.9635,13.5939,1157.2009],[43.9403,13.5781,1106.2872],[43.9349,13.568,1108.5449],[43.938,13.5622,1116.811],[43.939,13.5546,1135.1134],[43.9391,13.5426,1250.7625],[43.9406,13.5387,1231.1716],[43.9385,13.5352,1234.1218],[43.9428,13.533,1230.5125],[43.9538,13.5006,1318.8988],[43.9638,13.4882,1385.416],[43.9741,13.4847,1391.3943],[43.9837,13.4896,1351.2661],[43.9844,13.4929,1434.4725],[43.9773,13.5077,1547.9163],[43.9671,13.5187,1307.0143],[43.9686,13.521,1286.5165],[43.9771,13.523,1415.3706]]]]}}