{"type":"Feature","properties":{"GID_2":"YEM.3.11_1","GID_0":"YEM","country":"Yemen","GID_1":"YEM.3_1","province":"AlBayda'","NL_NAME_1":"البيضاء","county":"AzZahir","VARNAME_2":"NA","NL_NAME_2":"الزاهر","TYPE_2":"Muderiah","ENGTYPE_2":"District","CC_2":"1405","HASC_2":"NA","name":"Az_Zahir.county"},
"geometry":{"type": "MultiPolygon","coordinates": [[[[45.4476,13.8922,2055.7246],[45.4597,13.9293,2175.3535],[45.4812,13.9555,2099.4216],[45.489,13.9694,2049.2935],[45.4902,13.976,2080.4492],[45.4889,13.9838,2041.23],[45.4745,14.027,2019.1691],[45.4665,14.027,1989.7262],[45.457,14.0316,2028.5455],[45.4475,14.0316,2079.0513],[45.4357,14.0282,2035.5989],[45.4238,14.0271,2066.2026],[45.4209,14.0305,2046.2427],[45.4126,14.0519,1995.1577],[45.4004,14.088,2001.2224],[45.3962,14.0902,1967.9717],[45.3765,14.0914,1969.1154],[45.366,14.0812,1936.8613],[45.3535,14.0559,1946.9661],[45.36,14.0518,1951.9658],[45.3694,14.0394,1980.8859],[45.3844,14.0003,2017.0698],[45.3858,13.9874,2032.093],[45.3837,13.9659,2092.7446],[45.3796,13.9447,2079.074],[45.3782,13.9226,2127.1846],[45.3828,13.909,2152.7988],[45.4013,13.8978,1894.5798],[45.4476,13.8922,2055.7246]]]]}}