{"type":"Feature","properties":{"GID_2":"YEM.8.9_1","GID_0":"YEM","country":"Yemen","GID_1":"YEM.8_1","province":"AlMahwit","NL_NAME_1":"المحويت","county":"ShibamKawkaban","VARNAME_2":"NA","NL_NAME_2":"شبامكوكبان","TYPE_2":"Muderiah","ENGTYPE_2":"District","CC_2":"2701","HASC_2":"NA","name":"Shibam_Kawkaban.county"},
"geometry":{"type": "MultiPolygon","coordinates": [[[[43.8511,15.3751,1773.738],[43.8661,15.3811,1918.0438],[43.8806,15.4009,1920.2325],[43.9105,15.4272,2135.4431],[43.9066,15.4419,2266.9395],[43.9007,15.4489,2288.824],[43.8966,15.4661,2477.0308],[43.9018,15.4789,2603.1294],[43.9118,15.4885,2541.7578],[43.9144,15.4983,2541.3953],[43.9148,15.5021,2542.6072],[43.909,15.5156,2553.51],[43.9115,15.5251,2566.6404],[43.9005,15.5343,2569.2285],[43.8753,15.5348,2598.8562],[43.8709,15.5387,2603.0564],[43.8548,15.5443,2780.29],[43.8366,15.5482,2838.8323],[43.8324,15.5537,2803.5566],[43.8254,15.5593,3118.7593],[43.8123,15.5614,3141.9177],[43.8106,15.5598,3136.353],[43.8118,15.5565,3133.1011],[43.7998,15.5303,2815.0278],[43.783,15.5082,3108.4114],[43.7765,15.5058,3075.9858],[43.7728,15.5025,3061.0002],[43.77,15.4919,2967.9849],[43.7757,15.4833,2854.7908],[43.7843,15.4771,2843.5483],[43.7869,15.4717,2765.375],[43.7881,15.4639,2590.9219],[43.804,15.4508,2558.5059],[43.8155,15.4508,2792.3247],[43.831,15.4604,2658.2344],[43.8367,15.4613,2622.095],[43.8407,15.4604,2628.623],[43.8461,15.4562,2559.7776],[43.8492,15.4428,2514.2659],[43.8476,15.4213,2366.3716],[43.8482,15.386,1656.7463],[43.8511,15.3751,1773.738]]]]}}