{"type":"Feature","properties":{"GID_2":"YEM.3.1_1","GID_0":"YEM","country":"Yemen","GID_1":"YEM.3_1","province":"AlBayda'","NL_NAME_1":"البيضاء","county":"AlA'rsh","VARNAME_2":"NA","NL_NAME_2":"العرش","TYPE_2":"Muderiah","ENGTYPE_2":"District","CC_2":"1416","HASC_2":"NA","name":"Al_A'rsh.county"},
"geometry":{"type": "MultiPolygon","coordinates": [[[[44.8711,14.412,2123.1104],[44.863,14.4136,2119.8989],[44.8597,14.4157,2115.0481],[44.857,14.41,2115.8892],[44.8537,14.4092,2116.0618],[44.8509,14.4133,2115.9275],[44.8535,14.4198,2113.7583],[44.844,14.4313,2113.7373],[44.8321,14.4421,2235.2488],[44.8265,14.4452,2140.3867],[44.8218,14.4437,2135.6357],[44.8226,14.4236,2133.0073],[44.8189,14.4149,2139.1553],[44.8114,14.4189,2146.1296],[44.8086,14.4279,2138.1785],[44.8059,14.43,2144.0103],[44.7886,14.4316,2165.4758],[44.7804,14.4364,2174.8494],[44.7728,14.4443,2187.5791],[44.7625,14.4607,2240.3423],[44.7486,14.4677,2277.6035],[44.742,14.4804,2311.1951],[44.7306,14.4775,2341.562],[44.7141,14.4692,2353.1726],[44.7001,14.4573,2370.3281],[44.7007,14.4478,2393.2837],[44.6844,14.3887,2333.5723],[44.6715,14.3688,2610.7349],[44.6855,14.3596,2441.3147],[44.704,14.34,2627.8596],[44.7067,14.3305,2497.51],[44.7143,14.3231,2404.0437],[44.7328,14.3221,2464.8167],[44.7453,14.3189,2537.1392],[44.7496,14.3163,2631.8083],[44.7538,14.3076,2678.9958],[44.7838,14.2951,2305.2258],[44.8039,14.2909,2290.5415],[44.8088,14.302,2176.198],[44.8223,14.3052,2126.9536],[44.831,14.3015,2129.895],[44.8408,14.292,2046.6851],[44.8413,14.2878,2045.014],[44.8533,14.2703,1999.9503],[44.8544,14.2523,2034.3956],[44.856,14.2507,2010.5037],[44.8587,14.2544,2005.6538],[44.8609,14.2613,2020.3466],[44.8668,14.2634,1993.147],[44.8733,14.2624,1962.4257],[44.8869,14.2635,1948.7739],[44.8956,14.2386,1967.1567],[44.8969,14.2296,1961.6733],[44.9482,14.2348,1871.9021],[44.9585,14.2329,1830.7277],[44.9669,14.2769,1842.9226],[44.9653,14.3673,2078.7168],[44.9507,14.4055,2058.9941],[44.9352,14.4058,2091.0452],[44.9145,14.4036,2133.7634],[44.8711,14.412,2123.1104]]]]}}