{"type":"Feature","properties":{"GID_2":"YEM.20.16_1","GID_0":"YEM","country":"Yemen","GID_1":"YEM.20_1","province":"Shabwah","NL_NAME_1":"شبوة","county":"Rudum","VARNAME_2":"NA","NL_NAME_2":"رضوم","TYPE_2":"Muderiah","ENGTYPE_2":"District","CC_2":"2117","HASC_2":"NA","name":"Rudum.county"},
"geometry":{"type": "MultiPolygon","coordinates": [[[[47.1839,13.6435,80.4258],[47.1818,13.5996,2.4496],[47.2154,13.6032,0.4216],[47.2229,13.6071,7.5726],[47.2304,13.6079,0.0],[47.2435,13.6135,0.8864],[47.2996,13.6293,1.7104],[47.3232,13.6407,2.155],[47.3271,13.6404,0.0],[47.3351,13.6435,1.239],[47.3404,13.6426,0.0],[47.341,13.644,1.9511],[47.3737,13.6471,0.6923],[47.3915,13.6535,0.0],[47.4032,13.6646,3.7157],[47.4165,13.6713,0.0],[47.4174,13.6732,0.694],[47.4604,13.7026,0.0],[47.4782,13.7204,0.0],[47.5038,13.7426,1.5739],[47.5079,13.7446,0.0],[47.5143,13.7524,1.9333],[47.519,13.7551,0.0],[47.5329,13.7688,2.2973],[47.5412,13.7729,0.0],[47.5485,13.7821,1.9524],[47.5654,13.7979,0.4638],[47.5729,13.8024,0.0],[47.5799,13.8099,3.3323],[47.5926,13.8154,0.0],[47.5982,13.821,2.6463],[47.606,13.8351,2.4593],[47.6146,13.8451,2.0113],[47.6421,13.8721,4.1117],[47.6471,13.8746,2.0011],[47.6524,13.8735,0.0],[47.6543,13.8774,1.052],[47.6771,13.8951,1.9147],[47.6993,13.9085,2.2025],[47.706,13.9101,0.0],[47.7071,13.9124,6.7419],[47.731,13.919,2.0905],[47.7629,13.9226,3.0911],[47.7749,13.9221,0.0],[47.7829,13.9265,2.1897],[47.8088,13.9338,0.0],[47.8204,13.9451,0.0],[47.8235,13.9463,0.0],[47.8285,13.9524,3.6238],[47.8426,13.961,0.742],[47.8818,13.9904,0.0],[47.9043,14.0126,2.7697],[47.919,14.0243,6.1197],[47.9524,14.0429,1.4085],[47.9685,14.0485,0.6236],[47.9951,14.0543,3.4605],[48.0335,14.0546,2.0175],[48.0604,14.0499,1.6606],[48.1015,14.0363,2.0528],[48.1332,14.0232,0.0],[48.1407,14.0171,0.5671],[48.1568,14.0085,1.112],[48.1724,13.9976,1.5477],[48.1782,13.9907,3.13],[48.1765,13.9871,0.0],[48.1774,13.9818,5.9294],[48.1763,13.9799,0.0],[48.1776,13.976,7.727],[48.1749,13.9712,2.2995],[48.1835,13.9682,0.0],[48.1876,13.9749,0.0],[48.2032,13.9726,4.0112],[48.2135,13.9749,0.0],[48.2218,13.9888,13.466],[48.2257,13.9888,5.2008],[48.2296,13.9851,0.0],[48.2343,13.9851,0.0],[48.2357,13.9838,15.5114],[48.241,13.9854,0.0],[48.2465,13.9849,0.562],[48.2457,13.9815,0.0],[48.2474,13.9785,0.0],[48.2526,13.9762,0.0],[48.2579,13.9801,0.0],[48.2546,13.986,2.8872],[48.256,13.9896,7.7649],[48.2643,13.9879,0.0],[48.2724,13.989,2.152],[48.2732,13.9924,39.4077],[48.2776,13.9935,0.0],[48.279,13.9954,0.4044],[48.2824,13.9932,0.5521],[48.2843,13.989,2.5151],[48.2874,13.9879,0.3782],[48.2879,13.9851,0.0],[48.2946,13.9849,0.0],[48.2974,13.9893,0.7349],[48.2971,13.9946,1.0004],[48.3071,13.9985,0.0],[48.3135,13.9982,0.0],[48.3176,14.0043,2.7782],[48.321,14.0057,0.9036],[48.3246,14.0035,0.0],[48.329,14.0043,2.0378],[48.3276,14.0104,0.0],[48.3229,14.0124,0.7791],[48.3224,14.0151,0.9919],[48.3274,14.0218,0.0],[48.3338,14.0249,1.1511],[48.3415,14.024,1.1505],[48.3432,14.0218,0.0],[48.3493,14.021,1.7845],[48.3546,14.0165,1.5751],[48.3537,14.0138,0.0],[48.3549,14.0132,0.0],[48.3593,14.014,0.6526],[48.3601,14.0182,0.5517],[48.3646,14.0157,0.4483],[48.3749,14.0182,3.5026],[48.3815,14.0138,1.4087],[48.3876,14.0124,1.161],[48.3904,14.0157,8.2882],[48.3935,14.0154,0.0],[48.3996,14.0196,0.0],[48.4007,14.0218,3.0516],[48.4143,14.0193,0.4658],[48.4151,14.0135,0.0],[48.4204,14.0171,15.8348],[48.4246,14.0171,39.4056],[48.426,14.0138,0.0],[48.4274,14.0138,0.0],[48.4263,14.0229,0.516],[48.4293,14.0251,1.524],[48.4335,14.0251,0.252],[48.4382,14.0226,0.8193],[48.4396,14.0193,0.0],[48.4443,14.0188,2.1701],[48.4496,14.0146,0.0],[48.449,14.001,0.0],[48.4512,13.9974,31.0224],[48.4585,13.9951,0.0],[48.4649,14.0024,6.6746],[48.4735,14.0079,0.773],[48.4768,14.0082,0.0],[48.4851,14.0037,0.0],[48.4901,14.0049,0.0],[48.4974,14.0129,0.4041],[48.5049,14.0171,0.0],[48.5093,14.0232,0.6003],[48.5313,14.0371,0.5951],[48.5462,14.0426,0.3865],[48.578,14.0474,1.4146],[48.5456,14.1203,188.9775],[48.498,14.1633,546.8895],[48.4511,14.1944,835.7061],[48.4485,14.2162,812.8802],[48.404,14.2112,564.8395],[48.335,14.194,535.3069],[48.2218,14.2064,299.1922],[48.117,14.2539,294.4012],[48.1101,14.2491,286.9653],[48.0104,14.227,625.9556],[47.972,14.2111,615.4994],[47.6983,14.1919,267.3547],[47.2768,14.1546,955.5878],[47.2322,14.1547,1094.8695],[47.1505,14.0611,1175.4808],[47.1554,14.0528,1197.0992],[47.1666,13.8729,387.6423],[47.1863,13.693,163.713],[47.1841,13.6472,87.6653],[47.1824,13.6454,84.3573],[47.1839,13.6435,80.4258]]],
[[[48.3854,13.936,8.5173],[48.3826,13.9354,10.231],[48.3815,13.9321,11.8851],[48.3832,13.9285,0.0],[48.3862,13.9315,6.7498],[48.3882,13.9282,0.0],[48.3907,13.9299,11.2787],[48.3913,13.9332,0.0],[48.3904,13.9346,3.1132],[48.3865,13.9335,12.2379],[48.3868,13.9354,12.4831],[48.3854,13.936,8.5173]]],
[[[48.3243,13.9954,6.2451],[48.3251,13.9968,0.1121],[48.319,13.9963,2.3886],[48.3179,13.9907,0.0],[48.3207,13.9863,0.3219],[48.3232,13.9863,0.3945],[48.3246,13.9904,5.2453],[48.3262,13.9907,4.2169],[48.3243,13.9954,6.2451]]],
[[[48.4651,13.9846,2.9177],[48.4574,13.9838,2.8179],[48.4582,13.9776,0.0],[48.4629,13.9765,7.1063],[48.4668,13.981,51.1202],[48.4651,13.9846,2.9177]]],
[[[48.3935,14.001,6.8565],[48.3932,14.0021,0.0],[48.3913,14.0015,18.7643],[48.3915,13.9979,2.3146],[48.394,13.999,7.9732],[48.3935,14.001,6.8565]]],
[[[48.3876,14.0049,0.0],[48.3874,14.0057,0.0],[48.386,14.0054,0.0],[48.3882,14.004,0.0],[48.3876,14.0049,0.0]]]]}}