{"type":"Feature","properties":{"GID_2":"YEM.13.23_1","GID_0":"YEM","country":"Yemen","GID_1":"YEM.13_1","province":"Hajjah","NL_NAME_1":"حجه","county":"Mabyan","VARNAME_2":"NA","NL_NAME_2":"مبين","TYPE_2":"Muderiah","ENGTYPE_2":"District","CC_2":"1720","HASC_2":"NA","name":"Mabyan.county"},
"geometry":{"type": "MultiPolygon","coordinates": [[[[43.5319,15.869,869.8237],[43.5081,15.8245,1137.3773],[43.506,15.7888,538.0547],[43.4993,15.7792,581.1664],[43.4832,15.776,486.7597],[43.4826,15.7657,544.4529],[43.485,15.7523,568.553],[43.4915,15.7471,625.9377],[43.4933,15.7389,825.2286],[43.4954,15.7372,874.2764],[43.4943,15.7099,778.243],[43.4924,15.7045,818.4827],[43.4887,15.7012,816.5311],[43.4868,15.6966,753.2524],[43.486,15.6894,565.7505],[43.4908,15.6906,608.5427],[43.4932,15.6884,580.8217],[43.4942,15.682,581.3862],[43.5076,15.6743,632.8378],[43.5192,15.6802,675.0755],[43.5157,15.6878,734.9047],[43.5187,15.6916,714.1956],[43.5185,15.6974,793.9006],[43.5199,15.6983,793.9006],[43.5224,15.6968,850.2905],[43.524,15.6917,745.0459],[43.533,15.681,752.813],[43.548,15.6785,862.2177],[43.5523,15.6832,999.5641],[43.5541,15.6908,1118.9551],[43.5593,15.6985,1195.095],[43.5647,15.7031,1411.5061],[43.5713,15.7068,1516.8265],[43.5874,15.7096,1505.3438],[43.5974,15.7142,1313.2646],[43.607,15.7211,1262.9839],[43.618899999999996,15.7199,1563.3075],[43.6153,15.7784,1335.8269],[43.5961,15.8018,1054.0],[43.5732,15.8426,1179.3407],[43.5556,15.8515,948.734],[43.5427,15.8539,629.6534],[43.5319,15.869,869.8237]]]]}}