{"type":"Feature","properties":{"GID_2":"YEM.12.15_1","GID_0":"YEM","country":"Yemen","GID_1":"YEM.12_1","province":"Hadramawt","NL_NAME_1":"حضرموت","county":"GhaylBinYamin","VARNAME_2":"NA","NL_NAME_2":"غيلبنيمين","TYPE_2":"Muderiah","ENGTYPE_2":"District","CC_2":"1916","HASC_2":"NA","name":"Ghayl_Bin_Yamin.county"},
"geometry":{"type": "MultiPolygon","coordinates": [[[[49.7954,15.3585,1403.6002],[49.7871,15.355,1431.1609],[49.7739,15.3524,1391.4761],[49.7391,15.3593,1411.0947],[49.6845,15.3771,1363.9077],[49.6507,15.4045,1342.483],[49.6106,15.4554,1198.8378],[49.5944,15.4991,1133.5068],[49.5492,15.5541,1119.866],[49.5511,15.5851,1106.467],[49.5296,15.7433,842.7833],[49.5024,15.7889,787.0161],[49.4614,15.8156,780.3749],[49.4017,15.8216,734.8998],[49.2517,15.8182,911.5397],[49.2167,15.7527,998.4928],[49.2061,15.7064,943.9185],[49.129,15.6619,941.7421],[49.1398,15.6057,984.6715],[49.1532,15.5722,892.8369],[49.1592,15.5217,937.1876],[49.1581,15.4668,961.0693],[49.1482,15.4441,957.8954],[49.1421,15.4213,995.9727],[49.1208,15.385,1014.1578],[49.0858,15.3556,1032.212],[49.0374,15.3398,1068.1697],[48.9853,15.314,1034.0352],[48.9127,15.292,1039.6873],[48.8709,15.2626,1079.0347],[48.7573,15.2198,1126.125],[48.765,15.2042,1183.5522],[48.7639,15.143,1273.9906],[48.7424,15.104,1312.3763],[48.8176,15.0846,1321.2158],[48.9012,15.0546,1304.8698],[49.039,14.999,1319.782],[49.1254,14.9576,1313.8783],[49.1574,14.9739,1232.8613],[49.2089,14.9729,1249.5732],[49.2759,14.9824,1140.8198],[49.2534,15.0973,1283.105],[49.2593,15.179,1403.3112],[49.2769,15.2175,1301.1938],[49.3279,15.2431,1182.6456],[49.41,15.2415,1363.9375],[49.5273,15.2146,1540.4105],[49.8285,15.2702,1574.8113],[49.7954,15.3585,1403.6002]]]]}}