{"type":"Feature","properties":{"GID_2":"YEM.20.2_1","GID_0":"YEM","country":"Yemen","GID_1":"YEM.20_1","province":"Shabwah","NL_NAME_1":"شبوة","county":"AlTalh","VARNAME_2":"NA","NL_NAME_2":"الطلح","TYPE_2":"Muderiah","ENGTYPE_2":"District","CC_2":"2102","HASC_2":"NA","name":"Al_Talh.county"},
"geometry":{"type": "MultiPolygon","coordinates": [[[[47.6088,15.2154,1398.7673],[47.598,15.2315,1421.6183],[47.5983,15.2513,1404.1282],[47.6067,15.2749,1414.9447],[47.624,15.3425,1370.1162],[47.6213,15.3674,1378.421],[47.6184,15.3685,1383.4409],[47.5791,15.369,1390.4517],[47.5236,15.3352,1120.947],[47.4484,15.2979,1458.9298],[47.3854,15.2909,1460.4995],[47.3341,15.2686,1204.6836],[47.314,15.2344,1408.3464],[47.3016,15.1773,1423.3878],[47.2895,15.1507,1430.1694],[47.2499,15.1167,1523.0596],[47.2184,15.1132,1325.632],[47.2066,15.1171,1459.4869],[47.2029,15.1325,1270.1823],[47.1992,15.163,1458.8098],[47.1285,15.1637,1522.4799],[47.0811,15.1451,1064.8833],[47.0377,15.1058,1013.3217],[47.1228,14.9919,1485.7017],[47.1382,14.9536,1198.6177],[47.1262,14.9346,1452.8563],[47.1339,14.9193,1500.7601],[47.1889,14.9188,1349.9558],[47.2084,14.9071,1477.3792],[47.2354,14.861,1459.8162],[47.3041,14.7963,1428.4562],[47.3882,14.8366,1359.3486],[47.4353,14.8361,1235.922],[47.438,14.8349,1254.0068],[47.4518,14.8633,1158.0745],[47.4764,14.8903,1360.9641],[47.5383,14.9186,1283.6538],[47.5652,14.9332,1344.8442],[47.621,14.9548,1400.9913],[47.6466,14.9856,1411.0458],[47.6651,15.0527,1465.4141],[47.6612,15.0698,1478.2144],[47.6492,15.0871,1478.4275],[47.6196,15.1033,1486.1387],[47.6075,15.1153,1483.9159],[47.5872,15.1261,1488.3992],[47.5696,15.1276,1476.936],[47.5589,15.1383,1479.9639],[47.5631,15.1514,1491.1226],[47.5796,15.1658,1431.6304],[47.5921,15.1894,1437.2151],[47.6088,15.2154,1398.7673]]]]}}