{"type":"Feature","properties":{"GID_2":"YEM.12.26_1","GID_0":"YEM","country":"Yemen","GID_1":"YEM.12_1","province":"Hadramawt","NL_NAME_1":"حضرموت","county":"Tarim","VARNAME_2":"NA","NL_NAME_2":"تريم","TYPE_2":"Muderiah","ENGTYPE_2":"District","CC_2":"1911","HASC_2":"NA","name":"Tarim.county"},
"geometry":{"type": "MultiPolygon","coordinates": [[[[48.7579,16.2288,997.8178],[48.7577,16.2141,1044.1569],[48.7819,16.1285,980.1417],[48.8072,16.1092,973.402],[48.8418,16.066,982.7333],[48.8548,16.0445,973.1007],[48.8858,16.048,958.2534],[48.9446,16.0152,712.4999],[48.9674,16.0054,657.09],[48.9744,15.9912,616.196],[48.9739,15.9678,623.0304],[48.9649,15.9422,908.3209],[48.9534,15.9314,766.5847],[48.9487,15.9188,909.1541],[48.9205,15.8859,900.2655],[48.8894,15.8738,914.9768],[48.8805,15.8486,907.9541],[48.931,15.8121,909.1089],[48.9776,15.7746,679.3324],[49.0476,15.7118,912.22],[49.129,15.6619,941.7421],[49.2061,15.7064,943.9185],[49.2167,15.7527,998.4928],[49.2517,15.8182,911.5397],[49.2533,15.8939,854.7195],[49.2452,15.9213,910.8099],[49.271,15.9597,829.0422],[49.2881,16.0004,702.9403],[49.2674,16.0644,774.1001],[49.2351,16.1325,717.3069],[49.2381,16.1397,738.1352],[49.2236,16.2009,811.1924],[49.1702,16.2583,908.3174],[49.1099,16.3289,897.051],[49.0983,16.3516,949.4955],[49.0858,16.3681,957.5778],[49.0722,16.4095,972.0287],[49.067,16.4701,946.5466],[49.0477,16.4689,939.7783],[49.0209,16.4637,961.5935],[48.9531,16.4366,959.6174],[48.8849,16.3605,1028.7961],[48.8564,16.3143,1036.3441],[48.8006,16.2886,1040.0728],[48.7586,16.2626,1041.3127],[48.7579,16.2288,997.8178]]]]}}