{"type":"Feature","properties":{"GID_2":"YEM.15.3_1","GID_0":"YEM","country":"Yemen","GID_1":"YEM.15_1","province":"Lahij","NL_NAME_1":"لحج","county":"AlMadaribahWaAlArah","VARNAME_2":"NA","NL_NAME_2":"المضاربةوالعاره","TYPE_2":"Muderiah","ENGTYPE_2":"District","CC_2":"2513","HASC_2":"NA","name":"Al_Madaribah_Wa_Al_Arah.county"},
"geometry":{"type": "MultiPolygon","coordinates": [[[[44.1271,12.6318,0.0],[44.1276,12.6329,0.0],[44.1251,12.6324,0.0],[44.1263,12.6315,0.0],[44.1271,12.6318,0.0]]],
[[[44.4115,12.6799,1.5033],[44.4117,12.6799,1.5033],[44.4116,12.6802,1.5033],[44.4115,12.6799,1.5033]]],
[[[44.4527,12.772,41.2761],[44.4579,12.7815,32.7223],[44.4057,12.8238,103.7813],[44.3718,12.8474,142.852],[44.3524,12.8687,178.08],[44.3233,12.89,223.5146],[44.2773,12.9349,266.83],[44.2627,12.9519,278.7936],[44.2494,12.9628,311.5825],[44.2604,12.9903,332.9493],[44.2165,13.0462,705.9853],[44.2119,13.0477,593.934],[44.1723,13.0329,423.8607],[44.1401,13.052,554.9315],[44.1198,13.0364,627.3242],[44.0866,13.0234,557.5797],[44.0278,13.0669,1204.7019],[43.993899999999996,13.0868,988.6041],[43.9896,13.0789,1092.5355],[43.9757,13.0694,761.5994],[43.9372,13.0893,736.9307],[43.8912,13.0998,841.7765],[43.8704,13.1103,758.4988],[43.8644,13.1185,849.1657],[43.8481,13.1224,986.5475],[43.8128,13.1154,742.3673],[43.7994,13.1081,773.8882],[43.7772,13.081,646.9694],[43.7625,13.0707,542.3563],[43.7485,13.0698,492.5145],[43.721,13.0744,526.3896],[43.6949,13.0767,604.8041],[43.7004,13.0204,688.9583],[43.7,12.9986,360.8462],[43.7058,12.9671,422.2265],[43.647,12.9524,211.0101],[43.5232,12.7098,22.0486],[43.539,12.6977,0.0],[43.5535,12.7176,0.6549],[43.5701,12.7349,0.729],[43.5868,12.7443,0.4197],[43.5965,12.7482,0.0],[43.6015,12.7482,0.9533],[43.6176,12.7399,1.5283],[43.6265,12.7376,1.2351],[43.6307,12.7338,1.4369],[43.6371,12.7351,0.0],[43.6482,12.7318,1.0426],[43.654,12.7257,0.6136],[43.6704,12.7263,0.0],[43.679,12.7235,0.0],[43.6868,12.7243,2.6222],[43.691,12.7226,0.7764],[43.6957,12.7174,0.4387],[43.7043,12.7138,1.2462],[43.721,12.7124,2.0814],[43.7371,12.7074,2.0989],[43.7415,12.7046,0.0],[43.7457,12.7043,2.7717],[43.7515,12.6996,5.9446],[43.7529,12.6965,0.8062],[43.7576,12.6954,0.0],[43.7596,12.6929,1.0814],[43.7679,12.6935,2.6346],[43.7718,12.689,1.406],[43.7874,12.6924,2.4969],[43.7985,12.6901,0.4522],[43.8032,12.6857,1.1193],[43.8104,12.6829,3.5239],[43.8174,12.6776,0.349],[43.8221,12.6774,2.545],[43.824,12.674,0.0],[43.8335,12.6718,0.0],[43.8371,12.6668,0.0],[43.8446,12.6643,0.7316],[43.849,12.659,0.5072],[43.8554,12.6599,0.0],[43.8629,12.6582,0.0],[43.8657,12.656,0.6637],[43.879,12.6554,0.0],[43.8854,12.6504,0.0],[43.8937,12.6493,2.235],[43.9026,12.6446,0.0],[43.9087,12.6438,4.0922],[43.9126,12.6399,0.3669],[43.9157,12.6299,2.2405],[43.9149,12.6088,0.0],[43.9176,12.6046,0.3993],[43.9235,12.6021,1.4223],[43.9274,12.5976,0.0],[43.9396,12.5968,0.0],[43.9454,12.5935,0.0],[43.9496,12.5935,0.0],[43.9532,12.596,0.6751],[43.9607,12.5938,1.2884],[43.9707,12.594,1.2263],[43.9893,12.6032,0.0],[43.9954,12.6018,0.0],[44.004,12.6029,2.5294],[44.0088,12.601,0.5118],[44.0154,12.6043,2.975],[44.0299,12.6037,0.0],[44.0371,12.6057,3.4274],[44.0451,12.6026,0.6804],[44.0488,12.6032,0.0],[44.0599,12.6104,0.0],[44.066,12.6115,0.0],[44.0738,12.6174,1.2833],[44.0801,12.6176,1.6201],[44.0976,12.6243,3.1731],[44.1037,12.6296,3.6111],[44.1079,12.6307,5.6131],[44.1168,12.6376,8.6102],[44.1226,12.6399,0.7508],[44.1263,12.644,6.0641],[44.1324,12.6474,3.2674],[44.1426,12.6493,0.8049],[44.1496,12.6526,0.5625],[44.1496,12.6546,1.1516],[44.1524,12.6563,0.5888],[44.1665,12.6496,0.0],[44.1732,12.6474,0.0],[44.1754,12.6482,0.6223],[44.1771,12.6457,0.3253],[44.1832,12.6465,2.5388],[44.1849,12.6421,1.7445],[44.1899,12.6388,3.0753],[44.1899,12.6226,1.4293],[44.1799,12.6188,0.0],[44.1701,12.6171,0.0],[44.166,12.6176,0.7012],[44.1638,12.6204,0.0],[44.1613,12.6196,0.2299],[44.1601,12.6215,0.2313],[44.1579,12.6213,0.7087],[44.1563,12.6243,0.0],[44.1549,12.6232,1.506],[44.1432,12.624,0.2094],[44.136,12.631,0.0],[44.134,12.6299,0.417],[44.1424,12.6232,0.0],[44.1543,12.6221,1.506],[44.166,12.616,0.0],[44.1888,12.6188,1.3246],[44.1899,12.616,0.4427],[44.1949,12.6215,1.9242],[44.1993,12.6226,0.0],[44.2093,12.6293,1.5576],[44.2232,12.634,8.6718],[44.2376,12.6326,6.7197],[44.2401,12.6293,0.0],[44.2435,12.6293,9.4847],[44.2535,12.6249,0.0],[44.2574,12.6251,0.0],[44.2671,12.6304,2.214],[44.2771,12.6313,2.7216],[44.2824,12.6287,0.0],[44.2882,12.6293,0.5223],[44.3021,12.6388,7.8117],[44.3085,12.6404,0.0],[44.3226,12.6496,4.1102],[44.3607,12.6688,5.7149],[44.3982,12.6804,0.0],[44.4082,12.6812,6.7841],[44.4116,12.6802,1.5033],[44.4099,12.6812,11.0919],[44.4197,12.7053,24.121],[44.4527,12.772,41.2761]]]]}}