{"type":"Feature","properties":{"GID_2":"YEM.11.5_1","GID_0":"YEM","country":"Yemen","GID_1":"YEM.11_1","province":"Dhamar","NL_NAME_1":"ذمار","county":"DhamarCity","VARNAME_2":"NA","NL_NAME_2":"مدينةذمار","TYPE_2":"Muderiah","ENGTYPE_2":"District","CC_2":"2008","HASC_2":"NA","name":"Dhamar_City.county"},
"geometry":{"type": "MultiPolygon","coordinates": [[[[44.4026,14.6983,2300.0845],[44.3863,14.6952,2377.7739],[44.355,14.666,2355.1165],[44.3453,14.6603,2382.8972],[44.3189,14.664,2334.1426],[44.3108,14.65,2359.6182],[44.3109,14.6223,2390.5693],[44.3194,14.5859,2422.6963],[44.3227,14.5597,2449.907],[44.3148,14.5419,2444.8867],[44.3541,14.5173,2449.9524],[44.4037,14.5153,2458.3142],[44.4381,14.5406,2405.7661],[44.4461,14.5621,2412.9255],[44.4798,14.5698,2451.9355],[44.4867,14.5874,2450.2097],[44.496,14.597,2440.1323],[44.4905,14.6032,2423.5894],[44.4781,14.61,2403.9539],[44.4464,14.616,2406.1924],[44.4228,14.649,2345.0122],[44.4098,14.6609,2345.5645],[44.4097,14.6703,2330.0771],[44.4166,14.6877,2357.9351],[44.4103,14.6997,2314.0068],[44.4026,14.6983,2300.0845]]]]}}