{"type":"Feature","properties":{"GID_2":"YEM.9.2_1","GID_0":"YEM","country":"Yemen","GID_1":"YEM.9_1","province":"AmanatAlAsimah","NL_NAME_1":"أمانةالعاصمة","county":"AsSabain","VARNAME_2":"NA","NL_NAME_2":"السبعين","TYPE_2":"Muderiah","ENGTYPE_2":"District","CC_2":"1305","HASC_2":"NA","name":"As_Sabain.county"},
"geometry":{"type": "MultiPolygon","coordinates": [[[[44.1818,15.3257,2292.7795],[44.1764,15.292,2350.7954],[44.2089,15.2948,2452.626],[44.2221,15.2931,2284.1436],[44.2396,15.2951,2290.6523],[44.2329,15.3129,2287.1838],[44.2389,15.3147,2296.2822],[44.2429,15.3139,2303.7576],[44.2632,15.3263,2344.9382],[44.2627,15.3337,2368.7241],[44.2307,15.3326,2294.5044],[44.2251,15.3303,2275.9551],[44.2217,15.3369,2269.0664],[44.1985,15.335,2262.2959],[44.1992,15.3205,2278.8728],[44.1848,15.3299,2279.72],[44.1818,15.3257,2292.7795]]]]}}