{"type":"Feature","properties":{"GID_2":"YEM.19.7_1","GID_0":"YEM","country":"Yemen","GID_1":"YEM.19_1","province":"San`a'","NL_NAME_1":"صنعاء","county":"BaniHushaysh","VARNAME_2":"NA","NL_NAME_2":"بنيحشيش","TYPE_2":"Muderiah","ENGTYPE_2":"District","CC_2":"2304","HASC_2":"NA","name":"Bani_Hushaysh.county"},
"geometry":{"type": "MultiPolygon","coordinates": [[[[44.2621,15.344,2433.7339],[44.2951,15.3518,2588.6362],[44.3085,15.3589,2693.4033],[44.3425,15.3683,2588.9385],[44.3714,15.3719,2478.9453],[44.3833,15.3755,2519.1558],[44.3917,15.3848,2546.8682],[44.4008,15.4104,2720.0376],[44.4179,15.4427,2631.522],[44.4293,15.45,2633.3242],[44.4454,15.4573,2432.1074],[44.4671,15.4634,2647.3184],[44.4792,15.4635,2442.3384],[44.4941,15.4668,2447.533],[44.4963,15.4791,2390.4385],[44.4986,15.4807,2393.2449],[44.5147,15.4713,2425.2046],[44.5216,15.4713,2460.4229],[44.5243,15.4746,2438.7319],[44.5256,15.4871,2459.4202],[44.5241,15.4993,2471.2192],[44.5197,15.5036,2504.8501],[44.5041,15.5058,2510.5083],[44.4901,15.5107,2446.4297],[44.4775,15.5186,2451.8662],[44.4745,15.5243,2502.4326],[44.4686,15.525,2478.6311],[44.4597,15.515,2389.5408],[44.4597,15.5092,2365.6716],[44.4568,15.5085,2364.4434],[44.4427,15.5128,2412.6963],[44.4308,15.5271,2342.1509],[44.4071,15.5457,2617.8726],[44.399,15.5498,2668.5042],[44.3923,15.5414,2558.7314],[44.3827,15.5356,2445.3091],[44.3635,15.5348,2302.7087],[44.3612,15.5398,2343.3979],[44.3649,15.5506,2198.6465],[44.3634,15.5571,2186.1265],[44.3552,15.557,2190.5466],[44.3479,15.5505,2200.8232],[44.3419,15.5505,2204.1499],[44.3361,15.5376,2189.4897],[44.3398,15.5297,2205.4485],[44.3339,15.5204,2266.0239],[44.3028,15.5231,2184.4602],[44.2977,15.5124,2188.1533],[44.2925,15.5116,2189.55],[44.2932,15.5188,2183.7969],[44.2895,15.521,2182.8896],[44.2829,15.513,2185.6929],[44.2777,15.5008,2190.957],[44.2822,15.4793,2201.8616],[44.2773,15.4715,2201.0388],[44.231,15.4321,2217.854],[44.2347,15.4212,2230.3757],[44.2309,15.4045,2250.5303],[44.2386,15.3936,2253.8027],[44.2433,15.3792,2267.7009],[44.2421,15.3765,2278.9937],[44.2434,15.3639,2329.5747],[44.2571,15.3609,2467.615],[44.2621,15.344,2433.7339]]]]}}