{"type":"Feature","properties":{"GID_2":"YEM.21.2_1","GID_0":"YEM","country":"Yemen","GID_1":"YEM.21_1","province":"Ta`izz","NL_NAME_1":"تعز","county":"AlMa'afer","VARNAME_2":"NA","NL_NAME_2":"المعافر","TYPE_2":"Muderiah","ENGTYPE_2":"District","CC_2":"1521","HASC_2":"NA","name":"Al_Ma'afer.county"},
"geometry":{"type": "MultiPolygon","coordinates": [[[[44.0967,13.3663,1883.1765],[44.079,13.3819,1782.2443],[44.0628,13.3997,1770.0095],[44.0581,13.4055,1859.8044],[44.056399999999996,13.412,1905.0249],[44.0216,13.4078,1498.3691],[44.0188,13.4088,1470.1769],[44.0175,13.4355,1643.845],[44.0155,13.441,1398.3168],[44.0099,13.4461,1331.3574],[44.0107,13.4486,1289.7981],[44.0077,13.4495,1264.0272],[44.0082,13.4582,1293.2135],[44.0014,13.4654,1246.1665],[44.0014,13.4678,1246.8019],[43.9981,13.4688,1260.0385],[43.9905,13.4639,1208.2615],[43.9879,13.4639,1202.74],[43.9865,13.4713,1217.1665],[43.9824,13.4735,1230.0554],[43.9739,13.4749,1317.5331],[43.9671,13.4639,1385.5487],[43.9655,13.4434,1106.1301],[43.9521,13.4343,1066.7736],[43.9397,13.4105,1043.854],[43.928,13.4047,973.4234],[43.9163,13.394,930.896],[43.8996,13.3849,892.0571],[43.8996,13.3758,910.3284],[43.8955,13.366,955.091],[43.8846,13.3577,975.2911],[43.8703,13.3577,828.5687],[43.8661,13.3675,823.3097],[43.8452,13.3592,744.3318],[43.8196,13.3597,739.0582],[43.8059,13.3418,709.3929],[43.7976,13.3368,750.769],[43.7967,13.3311,612.5802],[43.7917,13.3278,670.3683],[43.7571,13.3341,824.9009],[43.7557,13.3243,672.8727],[43.7701,13.3063,619.1104],[43.7818,13.2875,581.5543],[43.8227,13.2949,1164.9615],[43.8459,13.2924,1512.2802],[43.8603,13.2851,1309.7526],[43.8964,13.2797,1101.4355],[43.917,13.2745,1019.8209],[43.942,13.2739,932.6854],[43.9447,13.2751,922.8647],[43.9519,13.2845,952.8981],[43.9611,13.2913,977.387],[43.9715,13.2864,1098.2637],[43.9828,13.2842,1087.885],[43.9822,13.308,1095.1442],[43.9926,13.31,1084.9012],[44.0057,13.3253,1136.2067],[44.0181,13.329,1122.0454],[44.019,13.3332,1141.1383],[44.0218,13.3328,1142.1934],[44.0332,13.34,1275.4604],[44.0456,13.3432,1226.9954],[44.0515,13.349,1269.9871],[44.0656,13.3424,1432.4979],[44.0703,13.3412,1476.4618],[44.0742,13.3422,1516.5371],[44.0766,13.3445,1490.2698],[44.0754,13.3548,1497.8727],[44.0763,13.3599,1443.1052],[44.0819,13.3626,1478.7849],[44.0896,13.3615,1636.8456],[44.0967,13.3663,1883.1765]]]]}}