{"type":"Feature","properties":{"GID_2":"YEM.8.8_1","GID_0":"YEM","country":"Yemen","GID_1":"YEM.8_1","province":"AlMahwit","NL_NAME_1":"المحويت","county":"Milhan","VARNAME_2":"NA","NL_NAME_2":"ملحان","TYPE_2":"Muderiah","ENGTYPE_2":"District","CC_2":"2705","HASC_2":"NA","name":"Milhan.county"},
"geometry":{"type": "MultiPolygon","coordinates": [[[[43.3851,15.1934,311.5923],[43.3909,15.1977,347.3983],[43.3948,15.2075,351.5685],[43.3995,15.2386,405.6421],[43.4219,15.2736,732.0085],[43.4016,15.2792,513.2496],[43.397,15.3048,580.6851],[43.3969,15.324,689.0715],[43.3907,15.3468,833.2744],[43.3922,15.3556,981.883],[43.3883,15.3735,1371.606],[43.3887,15.3811,1256.2988],[43.3847,15.3903,1367.275],[43.3859,15.3962,1208.2948],[43.3898,15.3971,1225.8719],[43.3872,15.4046,1071.4585],[43.3813,15.412,912.3652],[43.366,15.4151,1294.7697],[43.3592,15.4199,1054.2632],[43.3583,15.4246,971.4114],[43.3455,15.4437,539.3929],[43.3445,15.4497,520.1367],[43.3382,15.451599999999999,495.6615],[43.3276,15.4499,433.2513],[43.3114,15.444,428.393],[43.2697,15.4341,334.4698],[43.2631,15.4365,290.5688],[43.2575,15.4352,225.9407],[43.2507,15.4117,176.9711],[43.2571,15.3912,172.8545],[43.2539,15.3885,160.7963],[43.2511,15.3722,157.4076],[43.2529,15.3606,184.3672],[43.2429,15.354,176.8021],[43.2435,15.3459,183.8062],[43.2417,15.3393,184.0224],[43.245,15.3268,178.2941],[43.2512,15.3231,176.7332],[43.2583,15.3013,178.7296],[43.2729,15.2941,207.8148],[43.2794,15.2786,253.5525],[43.3038,15.2482,507.1321],[43.3097,15.236,347.9742],[43.322,15.2361,357.5576],[43.3276,15.2339,328.3498],[43.3344,15.2229,337.8188],[43.3478,15.2194,320.4726],[43.359,15.22,358.2936],[43.3594,15.1961,398.8278],[43.3629,15.194,349.103],[43.3851,15.1934,311.5923]]]]}}