{"type":"Feature","properties":{"GID_2":"YEM.19.9_1","GID_0":"YEM","country":"Yemen","GID_1":"YEM.19_1","province":"San`a'","NL_NAME_1":"صنعاء","county":"BiladArRus","VARNAME_2":"NA","NL_NAME_2":"بلادالروس","TYPE_2":"Muderiah","ENGTYPE_2":"District","CC_2":"2306","HASC_2":"NA","name":"Bilad_Ar_Rus.county"},
"geometry":{"type": "MultiPolygon","coordinates": [[[[44.3667,14.9843,2588.5469],[44.363,14.9979,2487.7456],[44.3605,15.028,2591.365],[44.3604,15.0711,2719.7383],[44.3406,15.0729,2568.7178],[44.3144,15.0894,2552.6343],[44.2963,15.119,2452.4766],[44.2902,15.1227,2477.0305],[44.281,15.1227,2414.1104],[44.2695,15.119,2419.4009],[44.2619,15.1137,2368.9761],[44.2488,15.1152,2379.0608],[44.2442,15.1271,2299.5034],[44.2253,15.1382,2395.5898],[44.2231,15.1429,2405.0107],[44.212,15.1389,2458.6895],[44.1761,15.1172,2140.3916],[44.1738,15.1097,2049.802],[44.1732,15.077,1764.2112],[44.1694,15.0621,1760.3071],[44.1618,15.0464,1714.1028],[44.1397,15.0151,1567.9393],[44.136,15.0023,1698.4069],[44.1564,14.9979,1532.7676],[44.1758,14.9889,1569.5879],[44.1798,14.9692,2008.3696],[44.2068,14.9701,2467.8564],[44.214,14.9625,2701.9287],[44.226,14.9274,2389.2983],[44.3506,14.9278,2513.6245],[44.355,14.9506,2482.5352],[44.3493,14.9584,2763.7192],[44.3445,14.9713,2561.4578],[44.3539,14.9856,2610.6338],[44.3667,14.9843,2588.5469]]]]}}