{"type":"Feature","properties":{"GID_2":"YEM.13.2_1","GID_0":"YEM","country":"Yemen","GID_1":"YEM.13_1","province":"Hajjah","NL_NAME_1":"حجه","county":"AflahAlYaman","VARNAME_2":"NA","NL_NAME_2":"افلحاليمن","TYPE_2":"Muderiah","ENGTYPE_2":"District","CC_2":"1714","HASC_2":"NA","name":"Aflah_Al_Yaman.county"},
"geometry":{"type": "MultiPolygon","coordinates": [[[[43.3874,16.0079,519.1372],[43.3794,15.9973,466.1441],[43.3803,15.9895,462.4034],[43.3978,15.9738,691.5157],[43.4006,15.9687,819.238],[43.3993,15.9584,1056.6678],[43.3974,15.954,1047.4561],[43.3936,15.953,1104.0127],[43.3938,15.9459,1120.9644],[43.3907,15.9381,1148.8796],[43.4033,15.9372,1221.7285],[43.4071,15.9354,1174.2917],[43.4112,15.9301,1154.6167],[43.4119,15.9215,1146.2495],[43.4267,15.9208,1215.9843],[43.4298,15.9297,1453.3015],[43.4288,15.9444,1558.4104],[43.4353,15.956,1294.512],[43.4289,15.9615,1080.9379],[43.4291,15.9746,882.2953],[43.4309,15.9778,793.6842],[43.4375,15.9786,945.6909],[43.441,15.9759,1077.9115],[43.443,15.9811,1093.5977],[43.4417,15.984,970.7855],[43.4316,15.9842,833.4188],[43.43,15.9862,797.2419],[43.4302,16.0036,786.5707],[43.4268,16.0085,749.5294],[43.4268,16.0135,731.0468],[43.431,16.0229,821.9312],[43.4331,16.037,972.6287],[43.4288,16.0356,951.1704],[43.4246,16.0219,865.6824],[43.421,16.0163,897.2034],[43.4098,16.0138,811.0839],[43.4003,16.0137,593.105],[43.3874,16.0079,519.1372]]]]}}