{"type":"Feature","properties":{"GID_2":"YEM.14.1_1","GID_0":"YEM","country":"Yemen","GID_1":"YEM.14_1","province":"Ibb","NL_NAME_1":"إب","county":"AlDhihar","VARNAME_2":"NA","NL_NAME_2":"الظهار","TYPE_2":"Muderiah","ENGTYPE_2":"District","CC_2":"1119","HASC_2":"NA","name":"Al_Dhihar.county"},
"geometry":{"type": "MultiPolygon","coordinates": [[[[44.1854,13.9876,1772.6995],[44.1785,13.9903,1732.2073],[44.1753,13.9971,1682.0798],[44.1767,14.0039,1671.6614],[44.1757,14.0075,1657.1505],[44.1728,14.0096,1653.6353],[44.1313,14.0091,2316.6787],[44.1289,14.0056,2442.2847],[44.1296,14.0023,2387.9133],[44.1264,13.9996,2374.6768],[44.1225,13.9912,2380.2129],[44.1227,13.9877,2259.7263],[44.1268,13.9856,2271.9265],[44.1301,13.986,2185.8521],[44.1354,13.9919,2214.5693],[44.1413,13.9932,2122.8162],[44.1493,13.9849,2105.3528],[44.1484,13.9824,2098.052],[44.1421,13.9824,2053.0481],[44.1361,13.9731,1996.0673],[44.1315,13.974,2029.6224],[44.1271,13.9772,2110.478],[44.1198,13.9753,2126.6584],[44.1243,13.9693,2137.7219],[44.1254,13.9635,2189.4028],[44.1376,13.9486,2225.5249],[44.1409,13.9483,2230.79],[44.1419,13.9559,2152.4041],[44.148,13.9582,2081.8667],[44.1509,13.9587,2060.3735],[44.1576,13.9549,2084.3511],[44.1735,13.9599,1910.4475],[44.1796,13.9602,1916.0596],[44.1839,13.9745,1969.8528],[44.1822,13.9796,1980.0681],[44.1854,13.9876,1772.6995]]]]}}