{"type":"Feature","properties":{"GID_2":"YEM.9.10_1","GID_0":"YEM","country":"Yemen","GID_1":"YEM.9_1","province":"AmanatAlAsimah","NL_NAME_1":"أمانةالعاصمة","county":"Shu'aub","VARNAME_2":"NA","NL_NAME_2":"شعوب","TYPE_2":"Muderiah","ENGTYPE_2":"District","CC_2":"1302","HASC_2":"NA","name":"Shu'aub.county"},
"geometry":{"type": "MultiPolygon","coordinates": [[[[44.2075,15.3605,2249.9587],[44.2152,15.3602,2254.8625],[44.22,15.3629,2259.4937],[44.2259,15.3698,2261.6978],[44.2325,15.3662,2307.2388],[44.2333,15.3641,2322.5151],[44.2434,15.3639,2329.5747],[44.2421,15.3765,2278.9937],[44.2433,15.3792,2267.7009],[44.2386,15.3936,2253.8027],[44.2309,15.4045,2250.5303],[44.2236,15.4056,2228.0945],[44.2154,15.4108,2227.8398],[44.2138,15.4109,2227.8398],[44.2122,15.3852,2237.3413],[44.2107,15.384,2239.3535],[44.2138,15.3797,2239.3525],[44.2048,15.3771,2244.2451],[44.2075,15.3605,2249.9587]]]]}}