{"type":"Feature","properties":{"GID_2":"YEM.12.11_1","GID_0":"YEM","country":"Yemen","GID_1":"YEM.12_1","province":"Hadramawt","NL_NAME_1":"حضرموت","county":"AshShihr","VARNAME_2":"NA","NL_NAME_2":"الشحر","TYPE_2":"Muderiah","ENGTYPE_2":"District","CC_2":"1915","HASC_2":"NA","name":"Ash_Shihr.county"},
"geometry":{"type": "MultiPolygon","coordinates": [[[[49.8285,15.2702,1574.8113],[49.5273,15.2146,1540.4105],[49.41,15.2415,1363.9375],[49.3279,15.2431,1182.6456],[49.2769,15.2175,1301.1938],[49.2593,15.179,1403.3112],[49.2534,15.0973,1283.105],[49.2759,14.9824,1140.8198],[49.3268,14.9815,882.1362],[49.3789,14.9559,692.6987],[49.4114,14.9042,353.7488],[49.4521,14.836,111.2333],[49.4677,14.7805,68.6584],[49.4666,14.7227,20.9299],[49.4561,14.6832,5.5529],[49.4818,14.6921,12.8662],[49.4885,14.6888,0.0],[49.4896,14.6904,0.0],[49.4885,14.6946,4.5834],[49.4929,14.6932,0.0],[49.4951,14.6979,6.4204],[49.5088,14.7046,0.0],[49.5257,14.716,2.1503],[49.5418,14.7226,0.0],[49.5593,14.7338,2.8898],[49.571,14.7374,1.7939],[49.5924,14.7474,3.0524],[49.6179,14.756,0.9503],[49.6321,14.7604,0.0],[49.6349,14.759,0.0],[49.6465,14.7638,2.6424],[49.6949,14.7757,2.4113],[49.7443,14.7826,0.5086],[49.7985,14.7985,0.0],[49.8215,14.8087,0.0],[49.8315,14.8085,0.0],[49.8396,14.8124,2.6886],[49.8506,14.8137,0.0],[49.8418,14.8453,38.3408],[49.8247,14.8488,91.5053],[49.8042,14.8446,90.6884],[49.7871,14.8495,65.4557],[49.7892,14.8754,124.3546],[49.81,14.8933,152.2406],[49.8391,14.9308,111.0182],[49.8442,15.019,382.882],[49.8432,15.0434,415.1503],[49.8081,15.0869,470.3],[49.8087,15.1143,734.6718],[49.8221,15.1536,960.3425],[49.8352,15.1747,1258.3794],[49.8427,15.2294,1578.7881],[49.8285,15.2702,1574.8113]]]]}}