{"type":"Feature","properties":{"GID_2":"YEM.6.8_1","GID_0":"YEM","country":"Yemen","GID_1":"YEM.6_1","province":"AlJawf","NL_NAME_1":"الجوف","county":"AzZahir","VARNAME_2":"NA","NL_NAME_2":"الزاهر","TYPE_2":"Muderiah","ENGTYPE_2":"District","CC_2":"1604","HASC_2":"NA","name":"Az_Zahir.county"},
"geometry":{"type": "MultiPolygon","coordinates": [[[[44.4503,16.3724,1218.4739],[44.4576,16.3594,1212.3794],[44.4588,16.3501,1209.6116],[44.4541,16.3386,1211.8375],[44.4481,16.3328,1219.265],[44.4505,16.3213,1202.4318],[44.4565,16.3156,1200.8038],[44.4708,16.3156,1201.2673],[44.478,16.3122,1200.4293],[44.4768,16.2949,1192.1086],[44.4828,16.2903,1189.5581],[44.4983,16.295,1189.6711],[44.5067,16.295,1188.2002],[44.5114,16.2858,1189.1572],[44.5115,16.2742,1181.9131],[44.5139,16.2673,1180.8562],[44.5187,16.2639,1181.6614],[44.5318,16.272,1177.7174],[44.5353,16.2824,1182.606],[44.5425,16.287,1183.9006],[44.5472,16.2974,1194.5862],[44.6008,16.3883,1718.825],[44.5421,16.3819,1724.2018],[44.5152,16.3919,1724.3237],[44.4773,16.3977,1625.865],[44.4633,16.3894,1467.1814],[44.4503,16.3724,1218.4739]]]]}}