{"type":"Feature","properties":{"GID_2":"YEM.15.9_1","GID_0":"YEM","country":"Yemen","GID_1":"YEM.15_1","province":"Lahij","NL_NAME_1":"لحج","county":"HabilJabr","VARNAME_2":"NA","NL_NAME_2":"حبيلجبر","TYPE_2":"Muderiah","ENGTYPE_2":"District","CC_2":"2505","HASC_2":"NA","name":"Habil_Jabr.county"},
"geometry":{"type": "MultiPolygon","coordinates": [[[[45.1838,13.6532,864.7775],[45.1751,13.6457,792.4568],[45.1532,13.6445,683.3015],[45.144,13.6423,673.0743],[45.1337,13.6344,610.2783],[45.1187,13.6367,704.6724],[45.1118,13.6412,739.8217],[45.098,13.6457,671.2683],[45.0946,13.6524,802.3734],[45.0555,13.6806,753.7145],[45.0428,13.6862,925.9448],[45.0302,13.6862,743.6239],[45.021,13.6817,901.37],[45.0106,13.6918,1129.2147],[45.0049,13.7008,779.545],[45.002,13.7129,1062.0431],[44.9704,13.6974,1295.291],[44.9554,13.6873,1729.1804],[44.9508,13.6817,1387.2382],[44.9359,13.6727,1568.2512],[44.9198,13.639,1231.2712],[44.8773,13.6142,1027.5225],[44.8666,13.599,964.5239],[44.8598,13.5846,890.8486],[44.8807,13.5737,718.942],[44.9095,13.5749,841.2639],[44.9141,13.5726,798.2175],[44.9221,13.5647,837.8655],[44.9555,13.5546,984.6049],[44.9624,13.5434,1278.6913],[44.9648,13.5344,1373.1534],[44.9795,13.5357,1070.3839],[44.984,13.5338,943.0573],[44.9859,13.5232,1213.4189],[44.9903,13.5206,1024.5377],[45.0003,13.5186,1324.5065],[45.0095,13.504,1509.4738],[45.0233,13.4984,1273.6521],[45.0325,13.4984,1362.1696],[45.0394,13.5006,1548.9565],[45.052,13.5096,1010.8354],[45.0578,13.5198,1541.6846],[45.0769,13.5105,1341.0692],[45.091,13.499,1374.2407],[45.111,13.4736,1100.9199],[45.1334,13.4713,1090.9819],[45.1581,13.4713,526.077],[45.1823,13.4771,478.8252],[45.1799,13.4787,405.8388],[45.19,13.5058,532.5298],[45.2136,13.5392,590.3171],[45.2407,13.568,699.0122],[45.2709,13.6195,1326.2212],[45.2762,13.6358,1412.6102],[45.28,13.64,1455.6636],[45.2843,13.6367,1539.467],[45.2876,13.6386,1595.3793],[45.2828,13.6535,1987.5627],[45.2805,13.6535,1932.5947],[45.2776,13.6488,1820.7493],[45.2755,13.6509,1803.8145],[45.2743,13.6493,1732.1504],[45.2705,13.6502,1535.7479],[45.2681,13.6553,1525.8597],[45.2638,13.6586,1570.8384],[45.2558,13.6614,1864.0837],[45.2515,13.6586,1727.5947],[45.2434,13.6577,1625.4792],[45.2339,13.6623,1241.9076],[45.2258,13.6614,1226.3451],[45.2182,13.6549,1229.3489],[45.211,13.6438,943.9231],[45.1954,13.6433,1070.9459],[45.1838,13.6532,864.7775]]]]}}