{"type":"Feature","properties":{"GID_1":"YEM.1_1","GID_0":"YEM","country":"Yemen","province":"`Adan","VARNAME_1":"Aden","NL_NAME_1":"عدن","TYPE_1":"Muhafazah","ENGTYPE_1":"Governorate","CC_1":"24","HASC_1":"YE.AD","ISO_1":"NA","name":"`Adan.province"},
"geometry":{"type": "MultiPolygon","coordinates": [[[[43.4132,12.6707,0.8838],[43.4074,12.671,1.53],[43.401,12.6674,0.9239],[43.3918,12.6651,3.9253],[43.3893,12.6607,2.5633],[43.3879,12.6612,0.0],[43.3887,12.6582,2.3642],[43.3868,12.6554,0.0],[43.3901,12.6549,0.0],[43.3926,12.6488,0.6424],[43.3963,12.649,5.1745],[43.3987,12.6449,0.0],[43.4029,12.6454,0.0],[43.4071,12.6437,5.0251],[43.4076,12.6412,0.5448],[43.4118,12.6412,0.0],[43.4121,12.6426,0.0],[43.4074,12.644,0.0],[43.4054,12.6479,0.0],[43.4032,12.6476,0.0],[43.3993,12.654,6.3519],[43.404,12.6538,10.1301],[43.4068,12.6513,0.0],[43.4107,12.6515,0.0],[43.4132,12.6499,0.0],[43.4132,12.6543,13.6322],[43.4154,12.654,0.0],[43.4171,12.6562,2.122],[43.4232,12.6543,1.1085],[43.4224,12.6526,4.1718],[43.4185,12.6521,2.8211],[43.4193,12.6496,0.0],[43.4229,12.6493,2.1749],[43.4204,12.6454,0.0],[43.4243,12.6449,7.1153],[43.4226,12.6407,0.0],[43.419,12.6401,0.0],[43.4188,12.6365,0.0],[43.421,12.6357,1.6963],[43.4246,12.6371,15.1813],[43.4265,12.6426,0.0],[43.4282,12.6435,4.7857],[43.4287,12.6404,0.0],[43.4313,12.6393,0.5966],[43.4274,12.6335,0.0],[43.4326,12.6315,0.0],[43.4407,12.6399,0.9191],[43.4385,12.6449,0.0],[43.4404,12.6471,0.0],[43.4365,12.6535,0.3404],[43.4365,12.6557,0.8872],[43.4396,12.659,2.4464],[43.439,12.6615,0.0],[43.4329,12.6657,0.0],[43.4304,12.664,0.0],[43.4251,12.6643,4.2921],[43.4132,12.6707,0.8838]]],
[[[44.886,12.7324,5.0006],[44.8829,12.7321,0.0],[44.8843,12.7274,0.0],[44.8876,12.7285,0.0],[44.886,12.7324,5.0006]]],
[[[44.7165,12.7416,0.0],[44.7151,12.7421,0.0],[44.7149,12.7371,15.5786],[44.7132,12.7354,6.5518],[44.7093,12.7349,10.2409],[44.7076,12.7379,0.0],[44.7051,12.7374,0.0],[44.7074,12.7313,0.0],[44.7102,12.7324,1.9751],[44.714,12.7307,0.7527],[44.7196,12.7334,1.063],[44.7165,12.7416,0.0]]],
[[[44.7449,12.7543,0.0],[44.7429,12.7541,1.5822],[44.7432,12.7507,2.1832],[44.7454,12.7524,2.3161],[44.7449,12.7543,0.0]]],
[[[45.0404,12.7887,4.0077],[45.0404,12.8001,1.6028],[45.0446,12.8201,2.9563],[45.0596,12.8654,0.0],[45.0624,12.8687,0.0],[45.0629,12.8727,2.7171],[45.0651,12.8735,0.0],[45.0676,12.8832,1.9834],[45.0782,12.9043,0.0],[45.0988,12.9403,0.0],[45.0776,12.9426,2.7065],[45.0662,12.9404,4.499],[45.0353,12.9404,13.1939],[45.0193,12.937,16.0377],[45.0033,12.9314,20.1909],[44.9862,12.9303,24.8919],[44.9622,12.9314,33.2772],[44.9416,12.928,37.8779],[44.9222,12.9224,42.9123],[44.9131,12.9112,41.5022],[44.9017,12.9045,35.2525],[44.8903,12.9,40.1444],[44.88,12.9,43.606],[44.8434,12.8798,39.3569],[44.7258,12.8674,51.6237],[44.6995,12.8685,60.101],[44.6664,12.8628,66.3494],[44.623,12.8594,63.5706],[44.5865,12.8594,104.6114],[44.5397,12.8514,97.7791],[44.5214,12.8458,90.8828],[44.4963,12.8323,65.6842],[44.4781,12.811,43.2636],[44.4579,12.7815,32.7223],[44.4289,12.7252,30.2996],[44.4099,12.6812,11.0919],[44.4165,12.6746,4.8891],[44.4146,12.6699,0.0],[44.419,12.6693,3.8932],[44.4476,12.7104,2.5912],[44.4815,12.7515,0.724],[44.5171,12.7849,0.7417],[44.5388,12.7996,3.1992],[44.5482,12.8043,1.7404],[44.5799,12.8149,2.6429],[44.5999,12.8171,6.8809],[44.6324,12.8151,3.451],[44.6696,12.8068,0.0],[44.6907,12.7974,4.6624],[44.7046,12.7879,1.1094],[44.719,12.7732,0.4138],[44.7249,12.7649,0.8768],[44.7276,12.7535,5.9767],[44.7218,12.7513,0.0],[44.7201,12.7482,2.0976],[44.7165,12.7493,2.4228],[44.7171,12.7474,6.1253],[44.7207,12.7457,6.8714],[44.7229,12.7385,0.0],[44.7288,12.7421,16.2485],[44.7301,12.7451,32.9017],[44.7374,12.7485,0.0],[44.7371,12.7499,1.0693],[44.7346,12.7504,1.0891],[44.7351,12.7535,0.2857],[44.7382,12.7513,0.511],[44.7399,12.7533,17.7194],[44.7393,12.7557,2.0837],[44.7421,12.756,0.5791],[44.7482,12.7626,5.9136],[44.756,12.7651,0.0],[44.7621,12.7691,12.0033],[44.7788,12.7729,3.0175],[44.7891,12.7735,0.5332],[44.8077,12.7707,1.4147],[44.8204,12.7651,1.562],[44.8274,12.7579,1.615],[44.8271,12.7549,34.4982],[44.8254,12.754,0.0],[44.8271,12.7491,9.0238],[44.8221,12.7468,0.0],[44.8213,12.7385,0.0],[44.8226,12.7368,0.0],[44.8257,12.7368,1.9624],[44.8257,12.734,0.0],[44.8329,12.7349,2.434],[44.8382,12.7321,14.5156],[44.841,12.7282,0.0],[44.8401,12.7246,3.6351],[44.8429,12.7229,0.0],[44.8465,12.724,2.0229],[44.8471,12.7274,9.0968],[44.8501,12.729,8.5966],[44.8543,12.7285,0.0],[44.8571,12.7299,1.1207],[44.8587,12.7276,0.0],[44.8663,12.7313,5.2444],[44.8715,12.7304,0.0],[44.8735,12.7243,6.0096],[44.8749,12.724,2.1162],[44.8746,12.7324,0.0],[44.8768,12.7362,3.1703],[44.879,12.7365,0.0],[44.8868,12.7343,2.1385],[44.8926,12.7282,0.0],[44.8918,12.7351,2.578],[44.8876,12.7368,21.7421],[44.886,12.7404,15.4405],[44.8874,12.7454,0.472],[44.8893,12.7454,0.0],[44.8899,12.7482,0.6227],[44.8929,12.7505,3.7385],[44.8996,12.7515,2.6154],[44.9024,12.7432,0.0],[44.9071,12.7421,18.8698],[44.9082,12.7454,0.0],[44.9107,12.7455,6.436],[44.9135,12.7412,0.0],[44.9135,12.7463,0.9726],[44.9171,12.7451,0.0],[44.9176,12.7476,0.0],[44.9124,12.7557,10.6193],[44.9224,12.7646,0.0],[44.9218,12.7657,0.0],[44.9168,12.7646,0.0],[44.9165,12.766,0.0],[44.9132,12.7649,2.4364],[44.911,12.7676,0.0],[44.8851,12.7668,0.5416],[44.8807,12.7696,0.0],[44.8771,12.7685,4.9573],[44.8743,12.7704,3.581],[44.8737,12.7737,1.3573],[44.8685,12.7765,1.7016],[44.861,12.7738,1.368],[44.8576,12.7774,0.404],[44.8513,12.7749,0.9391],[44.8499,12.7724,2.763],[44.8415,12.7738,1.2206],[44.8404,12.7768,1.3841],[44.8421,12.7815,1.4771],[44.8513,12.7982,2.1816],[44.8585,12.7991,1.1011],[44.8593,12.8015,1.644],[44.8627,12.8019,1.2228],[44.8729,12.7974,2.1633],[44.8818,12.7974,1.2553],[44.8815,12.7924,1.3645],[44.8771,12.7913,0.4543],[44.8776,12.7869,1.1136],[44.8763,12.7838,1.2548],[44.8801,12.7774,0.5746],[44.8887,12.7729,1.4437],[44.891,12.7732,0.7456],[44.8946,12.7826,1.6553],[44.8957,12.7951,1.8297],[44.9065,12.8135,2.7114],[44.9218,12.8218,0.6824],[44.9301,12.8238,2.1701],[44.9321,12.8274,3.6684],[44.9365,12.8276,3.2245],[44.9401,12.8315,4.7993],[44.9565,12.8324,3.2406],[44.9576,12.8296,2.5658],[44.9643,12.8307,2.0745],[44.9651,12.829,3.0378],[44.9673,12.8298,2.1988],[44.9682,12.8276,1.7132],[44.971,12.8268,1.1467],[44.971,12.8293,1.6678],[44.9735,12.8293,1.6938],[44.974,12.8279,1.5231],[44.9799,12.829,2.0182],[44.9804,12.8321,2.2317],[44.9782,12.8346,2.526],[44.9813,12.8351,2.3245],[44.9879,12.8299,1.8481],[44.9851,12.829,2.0899],[44.9849,12.8274,2.3475],[44.9854,12.8254,0.5531],[44.9885,12.8251,1.2143],[44.9893,12.8176,0.7866],[44.9893,12.8393,1.5591],[44.9879,12.8443,2.2332],[44.9924,12.8485,1.8467],[44.9929,12.8515,1.6989],[44.9988,12.8507,1.5642],[44.9996,12.8488,0.8789],[45.0062,12.8473,2.9133],[45.0101,12.8443,0.783],[45.0157,12.8449,0.6193],[45.0248,12.8393,1.7546],[45.0246,12.8357,2.0869],[45.0229,12.8357,1.3838],[45.0199,12.8399,1.6803],[45.0096,12.8365,0.0],[45.0151,12.8324,0.5],[45.0169,12.8324,0.5],[45.0168,12.8343,0.9074],[45.0179,12.8335,0.5],[45.0185,12.8293,1.4217],[45.0121,12.8277,0.0],[45.0118,12.8254,0.0],[45.021,12.8246,3.7624],[45.0221,12.8232,1.2811],[45.0243,12.8149,0.5978],[45.0223,12.8129,0.4101],[45.0263,12.8065,0.0],[45.0251,12.8011,9.4258],[45.0221,12.8007,0.0],[45.0218,12.7965,1.2924],[45.0171,12.7937,2.1495],[45.0057,12.8001,0.0],[45.004,12.7974,2.2972],[45.0013,12.7988,0.0],[44.9987,12.7957,0.0],[44.9949,12.7962,2.5808],[44.9929,12.7932,3.2511],[44.9888,12.794,0.6139],[44.9855,12.7915,6.3317],[44.9738,12.7896,0.0],[44.9721,12.7871,0.0],[44.9735,12.7813,6.1307],[44.9707,12.7804,1.1881],[44.9699,12.7776,2.2378],[44.9738,12.776,3.9296],[44.979,12.7774,2.9011],[44.9796,12.7746,5.9088],[44.9829,12.7732,0.0],[44.9855,12.7749,3.2548],[44.9877,12.774,17.9536],[44.9863,12.7696,3.4546],[44.989,12.7688,4.0196],[44.989,12.7669,0.0],[44.9857,12.7651,22.0577],[44.9863,12.7626,3.1605],[44.9941,12.7663,2.4225],[44.9965,12.7624,4.9582],[44.9993,12.7621,22.0772],[44.9996,12.7563,0.0],[45.0041,12.7585,0.0],[45.0112,12.7537,0.0],[45.0149,12.7532,0.0],[45.016,12.7549,14.2139],[45.0196,12.7549,0.0],[45.0226,12.7529,0.0],[45.026,12.7537,0.0],[45.0276,12.749,0.0],[45.0307,12.7529,0.0],[45.0346,12.7537,0.0],[45.0363,12.7524,0.0],[45.0371,12.7555,83.9206],[45.0407,12.7571,9.3986],[45.0382,12.7612,17.4446],[45.0429,12.7668,5.1884],[45.0507,12.7657,37.5711],[45.0546,12.761,4.2685],[45.0555,12.7671,0.0],[45.0476,12.7687,41.6054],[45.046,12.7715,3.1016],[45.0479,12.776,0.0],[45.0513,12.7785,0.0],[45.0519,12.7818,0.0],[45.049,12.7824,0.0],[45.0471,12.779,33.0373],[45.0454,12.779,1.0719],[45.0435,12.7849,2.413],[45.0404,12.7887,4.0077]]],
[[[44.9932,12.8065,3.8488],[44.9907,12.8082,3.0919],[44.9832,12.8021,2.8848],[44.9849,12.8015,0.0],[44.986,12.8038,4.4162],[44.9915,12.8054,4.4716],[44.9926,12.8032,0.0],[44.9982,12.8046,0.0],[44.9979,12.8068,0.0],[44.9949,12.8065,6.1379],[44.9935,12.8079,3.8169],[44.9932,12.8065,3.8488]]],
[[[44.9196,12.756,0.0],[44.9168,12.7563,0.4663],[44.9162,12.7549,0.7795],[44.9193,12.7538,4.9014],[44.9196,12.756,0.0]]],
[[[45.0221,12.8101,1.5549],[45.0179,12.811,0.0],[45.0163,12.809,1.8418],[45.0165,12.8001,0.0],[45.019,12.8026,0.7602],[45.0221,12.8101,1.5549]]],
[[[44.9954,12.814,0.4345],[44.9938,12.8146,0.4345],[44.9938,12.8135,0.4232],[44.996,12.8129,0.0],[44.9954,12.814,0.4345]]]]}}