{"type":"Feature","properties":{"ISO3166-1-Alpha-3":"YEM","country":"Yemen","fill":"#F0F","id":"3510","name":"`Adan"},
"geometry":{"type": "Polygon","coordinates": [[[44.41469,12.67329,0.0],[44.41554,12.67015,6.1309],[44.42351,12.67597,5.4171],[44.43084,12.68818,7.4968],[44.43295,12.69359,10.3763],[44.48992,12.75349,0.0],[44.54282,12.79731,0.0],[44.57276,12.81159,0.0],[44.61061,12.81957,23.1728],[44.65235,12.81794,20.5591],[44.69361,12.80345,5.1029],[44.70688,12.79365,4.5158],[44.71925,12.7801,4.0152],[44.7256,12.76651,1.2651],[44.72096,12.75629,0.0],[44.72291,12.75235,0.0],[44.72674,12.74653,133.6333],[44.72779,12.74201,28.1615],[44.7649,12.76557,0.0],[44.78517,12.77228,0.9526],[44.80974,12.76996,0.2955],[44.8226,12.76508,1.5034],[44.82496,12.76162,1.6677],[44.82488,12.75703,0.0],[44.83082,12.74885,15.293],[44.83961,12.74348,43.3342],[44.86834,12.73212,29.1975],[44.88136,12.72989,0.0],[44.89829,12.73676,0.0],[44.91277,12.7482,20.1943],[44.91896,12.75943,0.0],[44.92091,12.77139,0.0],[44.91627,12.77489,0.0],[44.88543,12.77798,2.1505],[44.87941,12.77643,0.2893],[44.87184,12.76996,18.6188],[44.86744,12.79483,0.4325],[44.87159,12.80353,6.051],[44.88478,12.81094,4.1005],[44.89829,12.79621,2.4353],[44.91676,12.79947,0.0],[44.93312,12.81265,0.0],[44.94011,12.82803,3.3757],[44.94459,12.83397,5.0508],[44.95509,12.83706,6.286],[44.97755,12.8382,2.8687],[44.98365,12.83714,2.2447],[44.99301,12.83246,0.3042],[44.99806,12.83145,0.0],[45.00123,12.83348,0.0],[45.00831,12.84512,0.4814],[45.00929,12.84756,3.5481],[45.00847,12.85224,1.9993],[45.00929,12.85668,2.5637],[45.01515,12.85871,2.4932],[45.02149,12.85716,1.7493],[45.02149,12.85346,1.0],[45.02003,12.84894,1.618],[45.02198,12.84512,1.6116],[45.02329,12.84105,1.7837],[45.03858,12.82123,3.9354],[45.04249,12.82087,3.8116],[45.03517,12.80366,2.3106],[45.01775,12.80174,2.119],[44.99741,12.80345,0.0],[44.98097,12.79731,0.0],[44.97934,12.78229,15.7534],[44.99464,12.76919,94.1052],[45.01775,12.75983,125.192],[45.03932,12.75629,0.0],[45.0586,12.76203,0.0],[45.06202,12.77656,0.0],[45.05665,12.81712,0.0],[45.05877,12.82713,0.0],[45.08229,12.88662,0.0],[45.08399,12.88947,0.0],[45.0866,12.90729,0.0],[45.09319,12.92471,0.0],[45.0932,12.92472,0.0],[45.00902,12.91841,13.7442],[44.82593,12.87066,37.6233],[44.61891,12.83568,32.5109],[44.5278,12.80364,1.883],[44.48419,12.77764,10.3144],[44.4153,12.67398,0.0],[44.41469,12.67329,0.0]]]}}