{"type":"Feature","properties":{"GID_2":"YEM.7.8_1","GID_0":"YEM","country":"Yemen","GID_1":"YEM.7_1","province":"AlMahrah","NL_NAME_1":"المهره","county":"Sayhut","VARNAME_2":"NA","NL_NAME_2":"سيحوت","TYPE_2":"Muderiah","ENGTYPE_2":"District","CC_2":"2807","HASC_2":"NA","name":"Sayhut.county"},
"geometry":{"type": "MultiPolygon","coordinates": [[[[51.1588,15.1757,2.0537],[51.1754,15.1801,0.0],[51.2065,15.1921,1.3181],[51.2201,15.1924,3.2409],[51.2282,15.1949,0.0],[51.2354,15.1993,2.0936],[51.2901,15.221,1.525],[51.2976,15.2254,0.0],[51.3029,15.2246,0.0],[51.3179,15.2332,0.0],[51.3274,15.2346,49.502],[51.3315,15.2332,0.0],[51.3376,15.2379,8.9806],[51.3418,15.2379,5.823],[51.3435,15.2351,0.0],[51.3479,15.2329,4.1465],[51.3501,15.2329,0.0],[51.3504,15.2346,0.0],[51.3557,15.2332,0.0],[51.3626,15.2351,0.0],[51.369,15.234,21.5335],[51.3707,15.2365,0.0],[51.3688,15.2401,10.0935],[51.3693,15.2443,20.9567],[51.374,15.2471,8.4868],[51.406,15.2599,0.0],[51.4204,15.2546,0.0],[51.4185,15.261,0.0],[51.4193,15.2646,0.71],[51.4365,15.2735,0.0],[51.439,15.2735,0.0],[51.4396,15.2715,0.0],[51.4435,15.2718,0.0],[51.444,15.2754,9.6621],[51.4493,15.2779,5.1785],[51.4557,15.274,12.9338],[51.4568,15.2813,40.1296],[51.4629,15.2851,2.6464],[51.4707,15.2871,1.7285],[51.4757,15.2935,0.0],[51.4762,15.2965,0.0],[51.539,15.3204,0.0],[51.5754,15.3307,24.6792],[51.5788,15.3299,0.0],[51.5829,15.3321,27.5107],[51.6021,15.334,36.2555],[51.6043,15.3299,0.0],[51.6113,15.329,0.0],[51.6124,15.3304,0.0],[51.6254,15.331,23.9987],[51.629,15.3293,0.0],[51.6365,15.3321,1.7473],[51.6415,15.3363,1.0153],[51.649,15.3363,95.8489],[51.6228,15.3439,220.8852],[51.5407,15.4206,537.5215],[51.4619,15.5203,317.2948],[51.3807,15.6304,757.9526],[51.3343,15.6867,738.2484],[50.9421,15.8971,1034.6003],[50.9067,15.7791,1027.1721],[50.9287,15.6792,666.6674],[50.9925,15.6274,611.1611],[51.0281,15.602,777.2564],[51.0468,15.5717,826.09],[51.0375,15.5394,927.3721],[51.0085,15.5049,934.0964],[51.005,15.4805,277.2697],[51.0263,15.442,255.1039],[51.058,15.4237,551.7324],[51.1588,15.1757,2.0537]]]]}}