{"type":"Feature","properties":{"GID_2":"YEM.6.5_1","GID_0":"YEM","country":"Yemen","GID_1":"YEM.6_1","province":"AlJawf","NL_NAME_1":"الجوف","county":"AlMaslub","VARNAME_2":"NA","NL_NAME_2":"المصلوب","TYPE_2":"Muderiah","ENGTYPE_2":"District","CC_2":"1607","HASC_2":"NA","name":"Al_Maslub.county"},
"geometry":{"type": "MultiPolygon","coordinates": [[[[44.6757,16.1525,1128.4026],[44.6982,16.1861,1128.724],[44.5951,16.1903,1149.5344],[44.5022,16.189,1167.4817],[44.4981,16.1883,1168.566],[44.4948,16.178,1169.8832],[44.4915,16.174,1172.5468],[44.4837,16.1755,1172.1984],[44.44,16.1688,1196.9084],[44.4353,16.14,1393.6669],[44.4714,16.1002,1544.3903],[44.4906,16.0576,1379.5701],[44.4844,16.0202,1452.2532],[44.575,16.0018,1499.1711],[44.6757,16.1525,1128.4026]]]]}}