{"type":"Feature","properties":{"GID_2":"YEM.10.11_1","GID_0":"YEM","country":"Yemen","GID_1":"YEM.10_1","province":"Amran","NL_NAME_1":"عمران","county":"Huth","VARNAME_2":"NA","NL_NAME_2":"حوث","TYPE_2":"Muderiah","ENGTYPE_2":"District","CC_2":"2902","HASC_2":"NA","name":"Huth.county"},
"geometry":{"type": "MultiPolygon","coordinates": [[[[43.8664,16.2047,1536.526],[43.9344,16.205,1811.1206],[43.9603,16.202,2098.5371],[44.0781,16.1953,1820.998],[44.0898,16.2512,1614.978],[44.0898,16.2622,1567.3862],[44.0831,16.2756,1575.8698],[44.0831,16.2836,1570.9419],[44.0765,16.3216,1692.0139],[44.057,16.3404,1798.5391],[44.0049,16.362,2159.561],[43.9274,16.3755,2027.2104],[43.9076,16.3509,1962.4993],[43.898,16.3415,1705.8302],[43.8913,16.3315,2088.4043],[43.888,16.317,1903.03],[43.8866,16.294,1366.9314],[43.8814,16.263,1356.413],[43.8682,16.2371,1392.0911],[43.8664,16.2047,1536.526]]]]}}